dispensary_name,postal_city,county,full_address,long,lat
420Ville,Huntington,Baker,"210 W. Washington St. , Huntington, Or",-117.2711377,44.3509449
Hotbox Farms,Huntington,Baker,"120 E Washington St , Huntington, Or",-117.2661845,44.3511435
Sumpter Nugget,Sumpter,Baker,"160 N. Mill Street, Suite #102 , Sumpter, Or",-118.2021633,44.7457069
The Coughie Pot,Sumpter,Baker,"363 B South Mill Street Po Box 74, Sumpter, Or",-118.2023311,44.7430577
Beatnick'S Finest,Corvallis,Benton,"126 Sw Avery Ave , Corvallis, Or",-123.2661048,44.5516046
Beaver Bowls,Corvallis,Benton,"227 Sw 6Th St , Corvallis, Or",-123.2645768,44.5635576
Bloominati Cannabis Corp,Corvallis,Benton,"240 Sw Washington Ave , Corvallis, Or",-123.2623093,44.5600393
Green Room,Corvallis,Benton,"2521 Nw 9Th St , Corvallis, Or",-123.2516316,44.5934984
Green Room (Campus),Corvallis,Benton,"111 Nw 16Th St , Corvallis, Or",-123.2737373,44.5678658
Green Room (South),Corvallis,Benton,"1665 Se 3Rd St , Corvallis, Or",-123.2650162,44.5496797
High Quality Compassion,Corvallis,Benton,"1300 Nw 9Th St , Corvallis, Or",-123.2610086,44.5785016
High Quality Compassion,Corvallis,Benton,"1435 Nw 9Th St. , Corvallis, Or",-123.2585034,44.5810857
Marie Janes Cannabis Connection,Corvallis,Benton,"568 Sw 3Rd St. , Corvallis, Or",-123.2638206,44.5596547
Miracle Greens,Corvallis,Benton,"220 Nw 2Nd St , Corvallis, Or",-123.2592622,44.5655749
Mr. Nice Guy - 3Rd St,Corvallis,Benton,"504 Nw 3Rd St , Corvallis, Or",-123.2591208,44.5685385
Mr. Nice Guy Corvallis,Corvallis,Benton,"687 Sw 15Th St. , Corvallis, Or",-123.2739832,44.5613206
Nature'S Path,Corvallis,Benton,"711 Nw 3Rd St. , Corvallis, Or",-123.2576389,44.5700547
Sativa'S Place,Corvallis,Benton,"1106 Nw Vanburen , Corvallis, Or",-123.2688236,44.5684373
The Agrestic North Inc,Corvallis,Benton,"1945 Nw 9Th St , Corvallis, Or",-123.2549424,44.5876489
Oregon Bud Company ,Clackamas,Clackamas,"16631 Se 82Nd Dr , Clackamas, Or",-122.5695976,45.4023444
Stoney Only Clackamas,Clackamas,Clackamas,"10289 Se Hwy 212 , Clackamas, Or",-122.5579314,45.408242
Chalice Farms,Damascus,Clackamas,"15252 Se Highway 224, Suite B , Damascus, Or",-122.5054354,45.408865
Green Apple Nw,Damascus,Clackamas,"24180 Se Borges Rd #A , Damascus, Or",-122.4141971,45.4547322
Hashstoria,Gladstone,Clackamas,"17763 Se 82Nd Dr Ste D , Gladstone, Or",-122.5744239,45.3945219
Electric Lettuce Sunnyside,Happy Valley,Clackamas,"16416 Se Sunnyside Road , Happy Valley, Or",-122.4942589,45.426738
Stumptown Cannabis ,Happy Valley,Clackamas,"10587 Se 82Nd Ave , Happy Valley, Or",-122.5792684,45.4463511
Little Amsterdam Wellness Center,Milwaukie,Clackamas,"18819 Se Mcloughlin Boulevard , Milwaukie, Or",-122.6096771,45.3862521
Maritime Cafe,Milwaukie,Clackamas,"17417 Se Mcloughlin Blvd. , Milwaukie, Or",-122.6179271,45.3963789
Nectar,Milwaukie,Clackamas,"6335 Se Harmony Road , Milwaukie, Or",-122.5976858,45.4322163
"Nectar Markets, Llc",Milwaukie,Clackamas,"13800 Se Mcloughlin Blvd , Milwaukie, Or",-122.6330071,45.4234172
Paradise Found,Milwaukie,Clackamas,"10655 Se 42Nd Avenue , Milwaukie, Or",-122.6198741,45.446227
The Green Planet,Milwaukie,Clackamas,"15080 Se Mcloughlin Blvd  , Milwaukie, Or",-122.6302029,45.4146018
"Today'S Herbal Choice Milwaukie, Llc",Milwaukie,Clackamas,"3087 Se Monroe St , Milwaukie, Or",-122.6301321,45.4455794
Top Hat Express,Milwaukie,Clackamas,"11916 Se 22Nd Avenue Suite B, Milwaukie, Or",-122.6407998,45.4377713
Bigfoot Bud Company,Molalla,Clackamas,"109 West Main Street , Molalla, Or",-122.5775454,45.1477985
"Today'S Herbal Choice, Inc.",Molalla,Clackamas,"31568 S Hwy 213 , Molalla, Or",-122.606552,45.149632
Cannabis Nation Oregon City,Oregon City,Clackamas,"1128 Main St , Oregon City, Or",-122.6031821,45.3604722
Electric Lettuce Oregon City,Oregon City,Clackamas,"1279 Molalla Ave , Oregon City, Or",-122.5905887,45.3371899
Five Zero Trees Oregon City,Oregon City,Clackamas,"719 Main St  , Oregon City, Or",-122.6078166,45.3583454
Gnome Grown Oregon,Oregon City,Clackamas,"2005 Beavercreek Rd. , Oregon City, Or",-122.5814376,45.3330731
Gnome Grown Oregon,Oregon City,Clackamas,"719 Molalla Ave , Oregon City, Or",-122.5964083,45.3453883
Kaleafa,Oregon City,Clackamas,"19197 S Molalla Avenue , Oregon City, Or",-122.585007,45.3283947
West,Oregon City,Clackamas,"921 7Th St.  , Oregon City, Or",-122.6015973,45.3548725
Wild West Emporium,Oregon City,Clackamas,"222 Molalla Ave , Oregon City, Or",-122.5970548,45.3488438
Electric Lettuce Sandy,Portland,Clackamas,"2026 Ne Sandy Blvd , Portland, Or",-122.6448376,45.5259373
Green Lion,Portland,Clackamas,"7000 Se Johnson Creek Blvd. , Portland, Or",-122.5905128,45.4557907
Green Stop Meds,Portland,Clackamas,"17030 Se Mcloughlin Blvd , Portland, Or",-122.6194804,45.400655
Mount Hood Cannabis Company,Rhododendron,Clackamas,"73410 Us-26 , Rhododendron, Or",-121.9092306,45.3269656
Smoke On The Mountain Llc,Welches,Clackamas,"23860 E Arrah Wanna Blvd , Welches, Or",-121.9731087,45.350362
Five Zero Trees Astoria,Astoria,Clatsop,"1169 Commercial St , Astoria, Or",-123.8307203,46.1889057
Hashstoria,Astoria,Clatsop,"229 W Marine Dr #C, Astoria, Or",-123.8482455,46.1894671
Hi Casual Cannabis,Astoria,Clatsop,"193 Marine Drive , Astoria, Or",-123.8407887,46.1904511
Mr. Nice Guy Astoria,Astoria,Clatsop,"690 Olney Ave. , Astoria, Or",-123.8364774,46.1734053
Mr. Nice Guy Bond St.,Astoria,Clatsop,"730 Bond Street Ste. B , Astoria, Or",-123.8353654,46.1900366
Sweet Relief Natural Medicine,Astoria,Clatsop,"1444 Commercial St. , Astoria, Or",-123.828053,46.1892176
The Farmacy,Astoria,Clatsop,"2911 Marine Dr. Suite B, Astoria, Or",-123.8115323,46.1898588
The Farmacy Warrenton,Astoria,Clatsop,"2911 Marine Drive  Suite A, Astoria, Or",-123.8115323,46.1898588
Bahama Buds,Cannon Beach,Clatsop,"1088 S Hemlock St  , Cannon Beach, Or",-123.9621462,45.890161
Five Zero Trees Cannon Beach,Cannon Beach,Clatsop,"140 S Hemlock St , Cannon Beach, Or",-123.9612269,45.8963023
Oregrown Cannon Beach,Cannon Beach,Clatsop,"215 N Hemlock St , Cannon Beach, Or",-123.9606526,45.8985453
Sweet Relief Gearhart,Gearhart,Clatsop,"4210 Hwy 101 N. , Gearhart, Or",-123.913678,46.0352426
Canna Beach Junction,Seaside,Clatsop,"84834 Highway 101 , Seaside, Or",-123.9220974,45.9448015
Cannabis Nation,Seaside,Clatsop,"550 S Roosevelt Dr , Seaside, Or",-123.9221029,45.9900941
Highway 420,Seaside,Clatsop,"1803 S Roosevelt Dr  Suite C, Seaside, Or",-123.9257016,45.9823903
Oasis Cannabis,Seaside,Clatsop,"1111 S. Holladay Drive , Seaside, Or",-123.9234803,45.9866249
Tsunami Marijuana Llc,Seaside,Clatsop,"36412 Hwy 26 , Seaside, Or",-123.8180618,45.9084854
Western Oregon Dispensary,Seaside,Clatsop,"38012 Hwy 26 #2 , Seaside, Or",-123.7594284,45.9018548
Hashstoria,Westport,Clatsop,"49332 Us-30 Suite B, Westport, Or",-123.3732221,46.1293578
Green Leaf Therapy,Rainier,Columbia,"74382 Columbia River Hwy , Rainier, Or",-122.9051193,46.0739163
Green Leaf Therapy,Rainier,Columbia,"74382 Columbia River Hwy , Rainier, Or",-122.9051193,46.0739163
"Today'S Herbal Choice Rainier, Llc",Rainier,Columbia,"75940 Rockcrest St C-2 , Rainier, Or",-122.961269,46.095616
Emerald City Dispensary ,Scappoose,Columbia,"50414 Columbia River , Scappoose, Or",-122.8753814,45.7272807
Green Lion 2,Scappoose,Columbia,"50178 Columbia River Highway , Scappoose, Or",-122.8752564,45.7238415
Sweet Relief Scappoose,Scappoose,Columbia,"52515 Columbia River Hwy , Scappoose, Or",-122.8784572,45.7576176
Good Good ,St. Helens,Columbia,"100 St. Helens Street , St. Helens, Or",-122.7987864,45.8641183
Green Lion,St. Helens,Columbia,"365 S. Columbia River Hwy , St. Helens, Or",-122.8247181,45.8560939
Sweet Relief St. Helens,St. Helens,Columbia,"1809 Columbia Blvd , St. Helens, Or",-122.8159648,45.8587963
Vernonia'S Natural Choice,Vernonia,Columbia,"736 Bridge Street Ste 1 Po Box 385, Vernonia, Or",-123.1927033,45.8588567
The Flowershop St. Helens,Warren,Columbia,"56821 Columbia River Hwy , Warren, Or",-122.8486822,45.8202336
Coastal Cannabis,Bandon,Coos,"87360 Hoffer Lane , Bandon, Or",-124.4208571,43.0324443
Herbal Choices ,Bandon,Coos,"50375 Hwy 101  , Bandon, Or",-124.4148196,43.104628
Red Barn Dispensary,Bandon,Coos,"265 North Ave. , Bandon, Or",-124.3976835,43.1192741
Arathi,Coos Bay,Coos,"63049 Highway 101 , Coos Bay, Or",-124.2064049,43.3560559
Bahama Buds,Coos Bay,Coos,"1415 N Bayshore Dr  , Coos Bay, Or",-124.2175813,43.3783087
Herbal Choices,Coos Bay,Coos,"63247 Troller Road , Coos Bay, Or",-124.318561,43.3382457
Herbal Choices,Coos Bay,Coos,"965 S 1St St , Coos Bay, Or",-124.2124236,43.35864
King Kannabis,Coos Bay,Coos,"1544 Newmark Avenue , Coos Bay, Or",-124.2614949,43.3919843
Mr. Nice Guy Coos Bay,Coos Bay,Coos,"852 S Broadway , Coos Bay, Or",-124.2129198,43.3603242
Mr. Nice Guy Retail,Coos Bay,Coos,"275 S. Broadway , Coos Bay, Or",-124.2133078,43.3662174
Positive Vibrations,Coos Bay,Coos,"1195 Newmark Ave Suite A , Coos Bay, Or",-124.2669043,43.3912334
Redbarn Dispensary,Coos Bay,Coos,"170 S Empire Blvd. , Coos Bay, Or",-124.2778897,43.392426
Rooted Coast Cannabis,Coos Bay,Coos,"2770 Woodland Drive Suite A, Coos Bay, Or",-124.238609,43.3873133
S & S Emporium,Coos Bay,Coos,"294 Central , Coos Bay, Or",-124.214889,43.368057
Cannabinoid Exchange,Coquille,Coos,"1080 W Central Blvd , Coquille, Or",-124.2001806,43.1864264
Natural High,Coquille,Coos,"749 Riverside Drive Suite A , Coquille, Or",-124.197078,43.1741886
Red Barn Dispensary,Coquille,Coos,"0 North Birch Street , Coquille, Or",-124.190877,43.175559
Buds 4 U,Lakeside,Coos,"72217 Hwy101 , Lakeside, Or",-124.1818405,43.5914812
La Mota,Myrtle Point,Coos,"1994 Roseburg Road , Myrtle Point, Or",-124.1300564,43.0508083
Redbarn Dispensary,Myrtle Point,Coos,"1107 Maryland Ave. , Myrtle Point, Or",-124.1363202,43.0596148
Coastal High Ways,North Bend,Coos,"2233 Broadway , North Bend, Or",-124.2391068,43.403425
Herbal Choices,North Bend,Coos,"1845 Sherman Avenue , North Bend, Or",-124.2236738,43.4087967
The Pursuits Of Happiness,North Bend,Coos,"1760 Virginia Avenue  , North Bend, Or",-124.2359918,43.4067899
"Today'S Herbal Choice Nb, Llc",North Bend,Coos,"3682 Tremont Ave , North Bend, Or",-124.2207415,43.389503
Bud Bros Llc,Brookings,Curry,"1240 Chetco Ave., Ste E, F , Brookings, Or",-124.2970109,42.0575137
High Tide Wellness Center,Brookings,Curry,"15957 Us-101 Suite #4, Brookings, Or",-124.2487558,42.0421671
La Mota Brookings ,Brookings,Curry,"307 Fern Ave , Brookings, Or",-124.2807668,42.0515913
South Coast Dispensaries And More,Brookings,Curry,"1025 Chetco Ave #4 , Brookings, Or",-124.2919429,42.0550965
Stateline Cannabis,Brookings,Curry,"14377 Highway 101 S.,  Unit B , Brookings, Or",-124.2079237,41.9997036
"Tryke City, Llc",Brookings,Curry,"407 Oak St. Unit B , Brookings, Or",-124.2782718,42.0529923
West Coast Organics,Brookings,Curry,"855 Railroad Street Ste. C, Brookings, Or",-124.288959,42.0519758
World Famous Top Shelf Cannabis,Brookings,Curry,"704 Chetco Ave Suite A , Brookings, Or",-124.2836323,42.0525829
Club Sockeye,Gold Beach,Curry,"29970 Ellensburg Ave , Gold Beach, Or",-124.4179407,42.4208485
La Mota ,Gold Beach,Curry,"29846 Ellensburg Ave , Gold Beach, Or",-124.4196801,42.4176752
Budmart,Harbor,Curry,"97900 Shopping Center Ave. Suite #37 , Harbor, Or",-124.2620753,42.0494837
5Th Lmnt,Bend,Deschutes,"63552 N Hwy 97 , Bend, Or",-121.2948934,44.1079884
Cannabend,Bend,Deschutes,"3312 N Highway 97 , Bend, Or",-121.3058414,44.0860927
Cannabis Nation Sunriver,Bend,Deschutes,"56789 Lunar Drive , Bend, Or",-121.456825,43.8627226
Creative Crops Rec,Bend,Deschutes,"265 Se Scott Street , Bend, Or",-121.3031247,44.0496483
Diamondtree,Bend,Deschutes,"2715 E Highway 20 , Bend, Or",-121.2631518,44.0546495
Diamondtree,Bend,Deschutes,"1233 Nw Galveston Ave , Bend, Or",-121.3295721,44.0563948
Dr. Jolly'S,Bend,Deschutes,"415 Se 3Rd St , Bend, Or",-121.3027633,44.0461063
Fyre,Bend,Deschutes,"2650 Ne Division St , Bend, Or",-121.3052458,44.0758947
Green Cross Cannabis Emporium,Bend,Deschutes,"341 Sw Century Dr. , Bend, Or",-121.332137,44.046447
Higher Elevation,Bend,Deschutes,"817 Nw Hill Street , Bend, Or",-121.3090102,44.0583048
Jenny'S Dispensary,Bend,Deschutes,"932 Ne 3Rd St , Bend, Or",-121.3021573,44.059521
Miracle Greens,Bend,Deschutes,"905 Se 3Rd St , Bend, Or",-121.3033979,44.0414255
Mr. Nice Guy Bend,Bend,Deschutes,"224 Se Davis Ave , Bend, Or",-121.3032762,44.0493758
Nw Chronic,Bend,Deschutes,"325 Ne Franklin Ave , Bend, Or",-121.3017599,44.0557431
Oregon Euphorics,Bend,Deschutes,"70 Sw Century Dr. Suite #170, Bend, Or",-121.3304754,44.0509553
Oregrown Bend,Bend,Deschutes,"1199 Nw Wall St. , Bend, Or",-121.3116487,44.0616776
Plantae,Bend,Deschutes,"2115 Ne Hwy 20 Suite 107, Bend, Or",-121.2717822,44.0540778
Smokelore,Bend,Deschutes,"324 Nw Hill St , Bend, Or",-121.3084765,44.0539775
Substance,Bend,Deschutes,"1814 Ne Division St. , Bend, Or",-121.3055765,44.0679742
Substance,Bend,Deschutes,"20365 Empire Ave. Ste 140 , Bend, Or",-121.3057519,44.091334
Substance,Bend,Deschutes,"61406 S Hwy 97 , Bend, Or",-121.3105844,44.0300306
The Herb Center,Bend,Deschutes,"2205 Ne Division St.  , Bend, Or",-121.3061175,44.0718392
The Local Market,Bend,Deschutes,"1216 Ne 1St Street Suite 100 , Bend, Or",-121.305224,44.06237
Tokyo South,Bend,Deschutes,"61230 S Hwy 97 , Bend, Or",-121.314631,44.0236644
Tokyo Starfish,Bend,Deschutes,"542 Nw Arizona Avenue , Bend, Or",-121.3151897,44.0516612
Tokyo Starfish 3,Bend,Deschutes,"923 Se 3Rd St. , Bend, Or",-121.3034572,44.0411852
Top Shelf Medicine,Bend,Deschutes,"815 Ne Greenwood Ave , Bend, Or",-121.2935081,44.059589
Green Knottz,La Pine,Deschutes,"51546 Highway 97 #7 , La Pine, Or",-121.5010769,43.6726035
Hd Botanicals,La Pine,Deschutes,"51366 Hwy 97 , La Pine, Or",-121.5067651,43.6660106
House Of Hash,La Pine,Deschutes,"51456 Hwy 97 #3 , La Pine, Or",-121.5034263,43.6689082
La Mota,Drain,Douglas,"257 2Nd St , Drain, Or",-123.3163886,43.6633132
Redbarn Cannabis,Myrtle Creek,Douglas,"1069 N Old Pacific Hwy , Myrtle Creek, Or",-123.2999196,43.0064426
Coastal High Ways Reedsport,Reedsport,Douglas,"470 Fir Ave , Reedsport, Or",-124.0980088,43.7017441
Herbal Choices,Reedsport,Douglas,"1891 Winchester Avenue , Reedsport, Or",-124.1185435,43.6964111
Redbarn Dispensary,Reedsport,Douglas,"1780 Winchester Ave , Reedsport, Or",-124.1160158,43.6963502
The House Of Dank Llc,Reedsport,Douglas,"379 Fir Ave  Units 6-8 , Reedsport, Or",-124.0967292,43.7025906
"Today'S Herbal Choice Reedsport, Llc",Reedsport,Douglas,"1051 Hwy 101 S , Reedsport, Or",-123.4675447,48.1067027
420 Club Llc,Roseburg,Douglas,"2566 Ne Stephens St , Roseburg, Or",-123.3532114,43.241517
Cannaking Marijuana Dispensaries,Roseburg,Douglas,"1449 Nw Mulholland Dr , Roseburg, Or",-123.3591627,43.2271168
Cougar Cannabis Llc,Roseburg,Douglas,"1989 Ne Diamond Lake Blvd , Roseburg, Or",-123.3337758,43.2131287
Fx 420 Inc,Roseburg,Douglas,"161 Nw Garden Valley Blvd, Suite 105 , Roseburg, Or",-123.3552174,43.2263451
La Mota ,Roseburg,Douglas,"644 Se Cass Ave , Roseburg, Or",-123.3466539,43.2088657
La Mota Roseburg 2 Llc,Roseburg,Douglas,"573 Ne Stephen'S St , Roseburg, Or",-123.343154,43.21798
Redbarn Dispensary,Roseburg,Douglas,"634 W Umpqua St , Roseburg, Or",-123.359493,43.2133404
Redbarn Dispensary,Roseburg,Douglas,"1810 Ne Stephens St. , Roseburg, Or",-123.3512389,43.2316587
Umpqua Green Cross,Roseburg,Douglas,"2485 Ne Diamond Lake Blvd  , Roseburg, Or",-123.3244078,43.2127229
Green Knottz Chiloquin,Chiloquin,Error,"131 S 1St Ave. , Chiloquin, Or",-121.8631055,42.5756704
Rocky Mtn Dispensary,John Day,Error,"27877 Apple Road , John Day, Or",-118.9852051,44.421433
M Thrive Organics Llc,Joseph,Error,"600 N Main Street , Joseph, Or",-117.2294502,45.357397
"A Better Way Medicinal Alternatives, Llc.",Klamath Falls,Error,"3255 Washburn Way #5 , Klamath Falls, Or",-121.756377,42.1983062
Emerald Triangle Dispensary,Klamath Falls,Error,"2226 Washburn Way , Klamath Falls, Or",-121.7580508,42.2070733
Emerald Triangle Dispensary,Klamath Falls,Error,"3480 Washburn Way Suite D , Klamath Falls, Or",-121.7579249,42.1945889
High Lakes Cannabis Co,Klamath Falls,Error,"2820 Maywood Dr , Klamath Falls, Or",-121.7595261,42.201343
Burnt River Farms Llc. ,Ontario,Error,"1055 Nw Washington , Ontario, Or",-116.9774885,44.0451326
Cannabis & Glass,Ontario,Error,"182 East Lane , Ontario, Or",-116.9403995,44.0234442
Elevation 2150,Ontario,Error,"2876 Sw 4Th Ave  Suite 1, Ontario, Or",-117.0034416,44.0248252
Hotbox Farms,Ontario,Error,"325 Ne Goodfellow Street , Ontario, Or",-116.9437467,44.0277591
The Bud House,Ontario,Error,"115 Ne 2Nd St , Ontario, Or",-116.9586911,44.026978
Top Crop Cannabis,Ontario,Error,"297 Se 10Th Street , Ontario, Or",-116.9508104,44.0225814
Treasure Valley Cannabis Company,Ontario,Error,"560 Se 12Th Avenue , Ontario, Or",-116.956609,44.0144806
Weedology,Ontario,Error,"591 East Idaho , Ontario, Or",-116.954193,44.0254691
Zion,Ontario,Error,"340 Se 13Th St , Ontario, Or",-116.9447176,44.0227065
Blazen Cannabis,Hines,Harney,"800 Highway 20 S  , Hines, Or",-119.085174,43.5461229
Tumbleweed Cannabis Co. Llc,Hines,Harney,"310 North Highway 20 , Hines, Or",-119.0795085,43.5670543
Evergreen Hood River,Hood River,Hood River,"1408 13Th St , Hood River, Or",-121.5249166,45.699943
Farm Grass Table,Hood River,Hood River,"4140 Westcliff Drive , Hood River, Or",-121.5581082,45.7100732
Frontier Farms,Hood River,Hood River,"602 Oak St. , Hood River, Or",-121.5165695,45.7090811
Gorge Greenery ,Hood River,Hood River,"13 Oak Street , Hood River, Or",-121.5110042,45.7085765
High Winds,Hood River,Hood River,"1817 Cascade Ave , Hood River, Or",-121.5309722,45.7093121
Hood River Naturals,Hood River,Hood River,"1020 Wasco Suite K , Hood River, Or",-121.5226893,45.7117691
Breeze Botanicals Ashland,Ashland,Jackson,"1526 Siskiyou Blvd , Ashland, Or",-122.6886811,42.183626
"House Of Leaves, Llc",Ashland,Jackson,"488 N Main Street , Ashland, Or",-122.7200206,42.2052216
Kaleafa,Ashland,Jackson,"1253 Siskiyou Blvd., Ste. C , Ashland, Or",-122.6935403,42.1866317
Madrone Cannabis Club,Ashland,Jackson,"481 Applegate Way , Ashland, Or",-122.6553961,42.1843934
Rogue Valley Cannabis - Ashland,Ashland,Jackson,"505 Siskiyou Blvd , Ashland, Or",-122.7078138,42.1937337
Rogue Valley Cannabis,Central Point,Jackson,"6388 Crater Lake , Central Point, Or",-122.8553625,42.4090844
Breeze Botanicals Gold Hill,Gold Hill,Jackson,"315 2Nd Ave   , Gold Hill, Or",-123.0472997,42.4313879
Skunkrx,Grants Pass,Jackson,"8979 Rogue River Hwy , Grants Pass, Or",-123.1722048,42.4301305
American Cannabis Company,Medford,Jackson,"2131 W Main Suite A , Medford, Or",-122.8963437,42.3232771
C&C Farms Rec Shop,Medford,Jackson,"2390 W Main St Suite D , Medford, Or",-122.901613,42.3249201
"Cannabiz Experience, Llc",Medford,Jackson,"333 N. Riverside , Medford, Or",-122.8729474,42.3307886
Cloud 9 Wellness,Medford,Jackson,"1411 Hilton Rd Tim@Cloud9Wellness.Com, Medford, Or",-122.8674576,42.354242
Dab Town Usa,Medford,Jackson,"1244 S Riverside Ave. , Medford, Or",-122.8617148,42.3139287
Emerald Triangle Dispensary,Medford,Jackson,"246 East 10Th Street , Medford, Or",-122.8690097,42.3241694
Emerald Triangle Dispensary,Medford,Jackson,"250 East 10Th Street , Medford, Or",-122.8689178,42.3242036
Emerald Triangle Dispensary,Medford,Jackson,"1818 Mcandrews , Medford, Or",-122.8584758,42.3412646
Fireside Dispensary,Medford,Jackson,"4149 S Pacific Hwy Unit A , Medford, Or",-122.8221869,42.2806273
Grateful Meds,Medford,Jackson,"2021 W Main St , Medford, Or",-122.8948879,42.3227153
Ground Up,Medford,Jackson,"429 S Central Avenue , Medford, Or",-122.8684623,42.3229382
Hijinx Cannabis Co,Medford,Jackson,"3943 S. Pacific Highway , Medford, Or",-122.8263368,42.2830676
House Of Leaves Medford,Medford,Jackson,"259 E Barnett Rd #1 , Medford, Or",-122.8589443,42.3173567
Kanopy 7,Medford,Jackson,"1252 W Mcandrews Road Unit 2, Medford, Or",-122.8985932,42.3278776
La Mota,Medford,Jackson,"1945 W Main St , Medford, Or",-122.8942144,42.3234665
La Mota,Medford,Jackson,"1258 S Riverside Avenue , Medford, Or",-122.8612254,42.3132468
La Mota ,Medford,Jackson,"620 W Stewart Ave , Medford, Or",-122.8770928,42.3131789
La Mota 6 Llc,Medford,Jackson,"17 S Riverside Ave , Medford, Or",-122.8701493,42.3271086
La Mota Medford 3 Llc,Medford,Jackson,"3460 N Pacific Hwy , Medford, Or",-122.9030934,42.3581234
Market Street Wellness,Medford,Jackson,"633 Market St #102 , Medford, Or",-122.8698614,42.3379653
Mother Earth Medicines,Medford,Jackson,"36 S. Riverside Avenue , Medford, Or",-122.8702591,42.3265581
Mr. Nice Guy Medford,Medford,Jackson,"35 W 8Th St , Medford, Or",-122.8729649,42.3246667
Mr. Nice Guy Retail,Medford,Jackson,"609 E. Jackson Street , Medford, Or",-122.8667424,42.331131
Ocean Grown Cannabis Company,Medford,Jackson,"1597 E Vilas Road East , Medford, Or",-122.8539636,42.3896045
Oregon Farmacy,Medford,Jackson,"1 West 6Th Street Suite 104 , Medford, Or",-122.8743599,42.3263106
Oregon Grown Cannabis Recreational Dispensary,Medford,Jackson,"1201 W. Stewart Ave , Medford, Or",-122.8886181,42.3125173
Pharm To Table,Medford,Jackson,"3528 S. Pacific Highway , Medford, Or",-122.8339463,42.2875414
Pharm To Table,Medford,Jackson,"3434 North Pacific Highway , Medford, Or",-122.9027234,42.3576522
Rogue Valley Cannabis - West Main,Medford,Jackson,"2060 West Main St , Medford, Or",-122.8954841,42.3240883
Sensible Cannabis Company,Medford,Jackson,"3338 N Pacific Hwy , Medford, Or",-122.9010192,42.3558325
The Spot Cannabis Collective,Medford,Jackson,"2590 Crater Lake Highway , Medford, Or",-122.8670178,42.3553852
The Wicked Flower Shoppe,Medford,Jackson,"600 East Jackson , Medford, Or",-122.8669716,42.3309361
Weedbucks,Medford,Jackson,"437 S. Central Avenue , Medford, Or",-122.8683815,42.3228101
Top Shelf Wellness Center,Phoenix,Jackson,"205 N Phoenix Rd Suite #C , Phoenix, Or",-122.8172365,42.2819878
Gold River Botanicals ,Rogue River,Jackson,"204 Madrone St. , Rogue River, Or",-123.1678251,42.4315712
Rogue River Herbal Pmc,Rogue River,Jackson,"510 East Main St  Ste C, Rogue River, Or",-123.1636931,42.4323659
Grateful Meds,Talent,Jackson,"630 Hwy 99 , Talent, Or",-122.7871599,42.247125
Green Valley Wellness,Talent,Jackson,"103 N Pacific Hwy  Units B & C, Talent, Or",-122.7850972,42.2456637
Talent Health Club,Talent,Jackson,"1007 S Pacific Highway Unit G, Talent, Or",-122.7694511,42.2377276
Top Shelf Wellness Center,White City,Jackson,"7162 Crater Lake Hwy , White City, Or",-122.8514193,42.4207249
Central Organics,Madras,Jefferson,"780 Sw 4Th St , Madras, Or",-121.1310409,44.6243942
Diamondtree,Madras,Jefferson,"380 N Highway 26 , Madras, Or",-121.1299298,44.6407337
Green Knottz Madras,Madras,Jefferson,"108 Sw D St  Ste A, Madras, Or",-121.1316536,44.633795
Pioneer Cannabis Co.,Madras,Jefferson,"141 Se 5Th Street , Madras, Or",-121.1313021,44.622509
Plantae,Madras,Jefferson,"1100 Sw Hwy 97  Ste 103, Madras, Or",-121.1328346,44.6203695
Bud Bros Llc,Cave Junction,Josephine,"335 South Redwood Highway , Cave Junction, Or",-123.6455429,42.1708034
Papa'S Dispensary,Cave Junction,Josephine,"214 N. Redwood Hwy. Suite E, Cave Junction, Or",-123.6464428,42.1703197
Cafe Verde,Grants Pass,Josephine,"2455 Rogue River Highway , Grants Pass, Or",-123.2910865,42.4240489
Diamond Cannabis ,Grants Pass,Josephine,"300 Sw 6Th Street , Grants Pass, Or",-123.32798,42.43817
Forward Cannabis,Grants Pass,Josephine,"1580 Ne 7Th Street Suite A, Grants Pass, Or",-123.3213783,42.4559834
Pure Cannabis & Cbd,Grants Pass,Josephine,"3600 Merlin Rd , Grants Pass, Or",-123.3681878,42.4966758
Redwood Cannabis Dispensary,Grants Pass,Josephine,"825 Ne F St , Grants Pass, Or",-123.3151863,42.4381211
Southern Oregon Cannabis Connection,Grants Pass,Josephine,"1950 Ne 7Th Street , Grants Pass, Or",-123.3211979,42.4612336
Tamerans,Grants Pass,Josephine,"3388 Merlin Rd.  , Grants Pass, Or",-123.370799,42.4971079
Bud Junction,Kerby,Josephine,"24394 Redwood Hwy , Kerby, Or",-123.6503987,42.1935726
River City Retail,Merlin,Josephine,"115 Galice Rd Suite A, Merlin, Or",-123.4246147,42.516727
The New Amsterdam,Lakeview,Lake,"15 N F St , Lakeview, Or",-120.3461652,42.1898558
Top Shelf Medicine 2,Lakeview,Lake,"18 North F Street , Lakeview, Or",-120.3456884,42.1898243
Blue River Grass Station,Blue River,Lane,"51752 Blue River Drive , Blue River, Or",-122.3393967,44.1540435
Apothecaria,Cottage Grove,Lane,"700 Row River Road , Cottage Grove, Or",-123.0398074,43.8025023
Mandy'S Sugar Shack,Cottage Grove,Lane,"339 Hwy 99 South , Cottage Grove, Or",-123.0616599,43.7941834
The Holistic Coop Llc,Cottage Grove,Lane,"1049 E Main St , Cottage Grove, Or",-123.0569507,43.7969628
The Medication Station,Cottage Grove,Lane,"1041 Hwy 99 North , Cottage Grove, Or",-123.1442693,44.0724373
Amazon Organics,Eugene,Lane,"3443 Hilyard St.  Suite F, Eugene, Or",-123.080992,44.0193458
Apothca,Eugene,Lane,"1205 Alder St , Eugene, Or",-123.0799525,44.046532
Cannabliss & Co. ,Eugene,Lane,"588 E. 11Th , Eugene, Or",-123.0838986,44.0474524
Electric Lettuce Eugene,Eugene,Lane,"1201 W 11Th Ave , Eugene, Or",-123.1112013,44.0478991
Elev8 Cannabis ,Eugene,Lane,"1409 Oak St , Eugene, Or",-123.0909076,44.0442532
Emerald City Medicinal ,Eugene,Lane,"1474 West 6Th Avenue  , Eugene, Or",-123.1150442,44.0530166
Eugene Og,Eugene,Lane,"2045 Franklin Blvd. , Eugene, Or",-123.0624264,44.0453177
Eugreen Health Center,Eugene,Lane,"1000 Obie Street Suite A , Eugene, Or",-123.1517272,44.0491278
Eugreen Health Center,Eugene,Lane,"1111 Willamette St. , Eugene, Or",-123.092495,44.0475561
Firehorse Trading Co.,Eugene,Lane,"233 W. 7Th Ave.  Suite B, Eugene, Or",-123.0963085,44.0523331
Flowr Of Lyfe,Eugene,Lane,"114 West Broadway , Eugene, Or",-123.0945991,44.049812
Going Green Eugene,Eugene,Lane,"439 W 1St Ave , Eugene, Or",-123.0993481,44.0589289
Grasslands Dispensary,Eugene,Lane,"154 Lawrence St , Eugene, Or",-123.0990295,44.0581553
Green Health Eugene ,Eugene,Lane,"607 Highway 99 N  , Eugene, Or",-123.1408903,44.0680056
Green Therapy ,Eugene,Lane,"85938 Hwy 99 S  , Eugene, Or",-123.1719789,44.1030411
High 5 Cannabis,Eugene,Lane,"86531 College View Road , Eugene, Or",-123.0216997,44.0131348
Higher Ground Dispensary,Eugene,Lane,"324 E 12Th Ave. Unit 2, Eugene, Or",-123.087786,44.04641
Holy Grail,Eugene,Lane,"1293 Lincoln Street , Eugene, Or",-123.0971012,44.0456547
Hunky Dory,Eugene,Lane,"675 Lincoln St , Eugene, Or",-123.0970943,44.0524392
"Hwy 99 Cannabis, Co.",Eugene,Lane,"1083 B Hwy 99 N. , Eugene, Or",-123.1448522,44.073116
Inhale Dispensary,Eugene,Lane,"86784 Franklin Blvd Unit A , Eugene, Or",-123.0246067,44.0179644
Jamaica Joel'S,Eugene,Lane,"37 W. 13Th Ave. Suite 201 , Eugene, Or",-123.0930938,44.0456901
Koda Boy Investments,Eugene,Lane,"86305 College View Rd , Eugene, Or",-123.0198892,44.0081688
La Mota ,Eugene,Lane,"1291 W 7Th Ave , Eugene, Or",-123.1120584,44.0526338
Lucky Lion,Eugene,Lane,"2164 W 7Th Ave , Eugene, Or",-123.1261763,44.052179
Mood,Eugene,Lane,"40 River Loop 2 Building 1 Suite B , Eugene, Or",-123.1373016,44.1187856
Moss Crossing,Eugene,Lane,"2751 Friendly St. , Eugene, Or",-123.105192,44.0284594
Mr. Nice Guy Eugene,Eugene,Lane,"771 Washington St , Eugene, Or",-123.1001313,44.0513054
Nectar,Eugene,Lane,"340 River Road , Eugene, Or",-123.1179898,44.0658573
Nectar,Eugene,Lane,"698 W. 6Th Avenue , Eugene, Or",-123.1030838,44.0530061
Next Level Wellness ,Eugene,Lane,"2837 Willamette Street Suite A , Eugene, Or",-123.0904646,44.0272986
Nodak Green Prairie,Eugene,Lane,"390 Coburg Road Suite A - 2, Eugene, Or",-123.0732575,44.0668432
Oregon Cannabis Outlet,Eugene,Lane,"1416 W 7Th Ave , Eugene, Or",-123.1146084,44.0518625
Oregon Cannabis Outlet-Willamette,Eugene,Lane,"1361 Willamette Street , Eugene, Or",-123.0924749,44.0449787
Oregon Medigreen,Eugene,Lane,"570 Lawrence St #112 , Eugene, Or",-123.09909,44.053729
Oregon'S Green Rush,Eugene,Lane,"2644 River Road #5 , Eugene, Or",-123.1313268,44.1023589
Peach Cannabis,Eugene,Lane,"1553 Oak Street , Eugene, Or",-123.0907486,44.0427862
Phresh Start,Eugene,Lane,"1055 Bailey Hill Rd Ste. C & G , Eugene, Or",-123.1475902,44.049082
Prohibitions Falls,Eugene,Lane,"2270 W 11Th Ave , Eugene, Or",-123.1269426,44.047582
Quick Stop Cannabis,Eugene,Lane,"1681 W. 7Th Avenue , Eugene, Or",-123.1178922,44.0524471
Rare Earth Dispensary Llc,Eugene,Lane,"2880 Elmira Rd Suite B, Eugene, Or",-123.1392119,44.0654394
River Valley Remedies,Eugene,Lane,"1985 W 7Th Ave , Eugene, Or",-123.122301,44.052449
Solutions Of The Millennium Llc,Eugene,Lane,"2893 Oak St , Eugene, Or",-123.089518,44.0264077
Spacebuds,Eugene,Lane,"741 Lincoln Street , Eugene, Or",-123.0970499,44.0516621
Sweet Tree Farms,Eugene,Lane,"4097 West 11Th Ave , Eugene, Or",-123.1618482,44.0485958
Terpene Station,Eugene,Lane,"645 River Road Suite 3 , Eugene, Or",-123.118157,44.0718871
The Greener Side Detroit Lake,Eugene,Lane,"1407 River Road , Eugene, Or",-123.1236909,44.0861054
The Herbal Connection ,Eugene,Lane,"463 River Ave. , Eugene, Or",-123.1181915,44.0968801
The Oz. House,Eugene,Lane,"1775 W 6Th St. Suite A , Eugene, Or",-123.11945,44.0535346
The People'S Wellness Center,Eugene,Lane,"71 Centennial Loop Suite B, Eugene, Or",-123.0787384,44.0606751
Tj'S On The Alley,Eugene,Lane,"1027 Willamette Street  , Eugene, Or",-123.092319,44.0484581
Tj'S Provisions,Eugene,Lane,"1910 Empire Park Drive , Eugene, Or",-123.1539895,44.0827266
Top Crop Cannabis,Eugene,Lane,"3170 W. 11Th Avenue, Unit A , Eugene, Or",-123.1398367,44.0475637
Track Town Collective,Eugene,Lane,"3675 Franklin Blvd , Eugene, Or",-123.0391837,44.0452604
Twenty After Four Wellness Center,Eugene,Lane,"420 Blair Blvd Suite A , Eugene, Or",-123.1092306,44.0550709
Buds 4 U,Florence,Lane,"1480 Rhododendron Dr , Florence, Or",-124.1049541,43.9708792
Harvest Moon Cannabis,Florence,Lane,"85289 Hwy 101 , Florence, Or",-124.1038922,43.9511145
Premium Choice Marijuana,Florence,Lane,"1770 Hwy 126  , Florence, Or",-124.1022369,43.9739839
The Arboretum,Florence,Lane,"1541 Hwy 101 , Florence, Or",-124.1015096,43.9804257
Buds 4 U,Mapleton,Lane,"10778 Highway 126 , Mapleton, Or",-123.8570988,44.0250832
Green Oaks,Oakridge,Lane,"48122 Oregon 58 #A , Oakridge, Or",-122.4643711,43.7433277
Phresh Start,Oakridge,Lane,"47670 Hwy. 58 Suite B , Oakridge, Or",-122.4819806,43.7460449
Mr. Nice Guy Retail,Salem,Lane,"4340 Commercial St Se Ste 120 , Salem, Or",-123.0344377,44.8919201
"Cannabis, Llc",Springfield,Lane,"1936 Main Street , Springfield, Or",-122.9961872,44.0462299
Cannabliss & Co. ,Springfield,Lane,"2600 Main Street Suite E, Springfield, Or",-122.9889204,44.0463365
Deep Roots Cannabis,Springfield,Lane,"2155 Olympic St. , Springfield, Or",-122.9934813,44.0592608
Good Karma,Springfield,Lane,"3332 Main St , Springfield, Or",-122.9788173,44.0461674
Hashstoria,Springfield,Lane,"1840 Main St , Springfield, Or",-122.9976618,44.0461168
K9 Chronic Llc,Springfield,Lane,"1505 18Th St. Ste. Ab, Springfield, Or",-122.9979426,44.0587696
Mid Valley Cannabis,Springfield,Lane,"2147 Main St , Springfield, Or",-122.9938222,44.0455232
Nectar Markets,Springfield,Lane,"3650 Main Street , Springfield, Or",-122.9741023,44.0461426
Old School Bliss,Springfield,Lane,"2090 Olympic St  Ste D, Springfield, Or",-122.9950653,44.0602413
Phresh Start Llc,Springfield,Lane,"1623 21St St  Ste B, Springfield, Or",-122.9938445,44.0589038
Urban Canna Apothecary ,Springfield,Lane,"1815 Main Street #A , Springfield, Or",-122.9746767,44.0455189
Canna Royal Llc,Veneta,Lane,"25805 Hwy 126 Suite 1-B  , Veneta, Or",-123.323961,44.053571
Mr. Nice Guy Veneta,Veneta,Lane,"25561 Hwy 126 , Veneta, Or",-123.3326795,44.0529862
Oregon'S Herbal Remedies,Veneta,Lane,"88344 Territorial Rd  , Veneta, Or",-123.3538752,44.0553082
Flower Pot,Depoe Bay,Lincoln,"433 N Hwy 101 , Depoe Bay, Or",-124.0631793,44.8170998
Hippy Trip,Depoe Bay,Lincoln,"249 S Us-101 , Depoe Bay, Or",-124.0620422,44.8085739
Mr. Nice Guy Depoe,Depoe Bay,Lincoln,"104 N Hwy 101 , Depoe Bay, Or",-124.0621259,44.8130045
Touch Of Aloha,Depoe Bay,Lincoln,"3885 N Highway 101  Suite B , Depoe Bay, Or",-124.0448918,44.8492246
Attis Trading Company,Lincoln City,Lincoln,"3026 Ne Hwy 101 #1 , Lincoln City, Or",-124.005429,44.9874192
Lincoln City Collective,Lincoln City,Lincoln,"1266 Sw 50Th St , Lincoln City, Or",-124.0156765,44.9285093
Nw Advantage,Lincoln City,Lincoln,"3478 Ne Hwy 101 , Lincoln City, Or",-124.0057284,44.9907357
Pacific Wave,Lincoln City,Lincoln,"1543 Nw 19Th Suite B , Lincoln City, Or",-124.0114993,44.9786742
Pipe Dreams Dispensary,Lincoln City,Lincoln,"1745 Sw Highway 101 Suites A, B & C, Lincoln City, Or",-124.014168,44.9554535
Renee'S Herb Store Llc,Lincoln City,Lincoln,"3203 Sw Hwy 101 , Lincoln City, Or",-124.021062,44.943238
Sunray Cannabis ,Lincoln City,Lincoln,"1347 Nw Hwy 101 , Lincoln City, Or",-124.0130246,44.9751278
T.E.R.P Collective Inc,Lincoln City,Lincoln,"4355 Ne Hwy 101 Suite A , Lincoln City, Or",-124.0049732,44.9968599
Cannamedicine Newport,Newport,Lincoln,"157 Nw 15Th St. , Newport, Or",-124.0543344,44.6480487
I And I Newport,Newport,Lincoln,"452 Sw Bay Blvd , Newport, Or",-124.0543618,44.6295706
Oregon Bud Company Llc,Newport,Lincoln,"837 Sw Bay Blvd , Newport, Or",-124.0560252,44.62692
Oregon Coast Dispensary Inc,Newport,Lincoln,"861 A. Nw Beach Drive , Newport, Or",-124.0610999,44.6391563
The Medication Station,Newport,Lincoln,"454 Sw Coast Highway , Newport, Or",-124.0578627,44.6327908
Otis Collective,Otis,Lincoln,"1257 Salmon River Hwy , Otis, Or",-123.949561,45.0195242
Bernie'S Universal Dispensaries,South Beach,Lincoln,"3842 S Coast Hwy , South Beach, Or",-124.0517905,44.6102812
Green Dragon Herbal Clinic,Toledo,Lincoln,"185 N. Main St , Toledo, Or",-123.9375555,44.621027
Coastal Cannabinoids,Waldport,Lincoln,"1466 Sw Pacific Coast Highway , Waldport, Or",-124.081435,44.41588
Discovery Cannabis,Waldport,Lincoln,"250 Sw Hwy 101 , Waldport, Or",-124.0688062,44.4246305
Mr. Nice Guy Waldport,Waldport,Lincoln,"220 Nw Alsea Hwy #34 , Waldport, Or",-124.0627624,44.4275348
Yachats Cannabis Company,Yachats,Lincoln,"430 N Hwy 101 , Yachats, Or",-124.1041914,44.312717
Albany Alternative Health Solutions,Albany,Linn,"820 Pacific Blvd Se B , Albany, Or",-123.0944716,44.6326881
Beaver Bowls,Albany,Linn,"1434 Pacific Blvd Se , Albany, Or",-123.0863308,44.6336164
Cloud 9 Cannabis,Albany,Linn,"154 Manor St Ne , Albany, Or",-123.0591124,44.6450647
Emerald Triangle Dispensary,Albany,Linn,"838 Pacific Blvd Se , Albany, Or",-123.093767,44.6327698
Four Seasons Dispensary And Resource Center,Albany,Linn,"30943 Ehlen Drive Ste A , Albany, Or",-123.1518972,44.568286
"Going Green Albany, Inc.",Albany,Linn,"1225 S Commercial Way Se , Albany, Or",-123.0543014,44.6303468
Homegrown Oregon,Albany,Linn,"921 Se 9Th Ave , Albany, Or",-123.092992,44.6326586
Oregon Cannabis Co. ,Albany,Linn,"1977 Santiam Hwy.  , Albany, Or",-123.081215,44.634401
Green Cross Dispensary,Brownsville,Linn,"221 West Bishop Way  , Brownsville, Or",-122.9866727,44.3867089
La Mota,Lebanon,Linn,"620 S Main St , Lebanon, Or",-122.9072014,44.5397959
La Mota Lebanon 2 Llc ,Lebanon,Linn,"260 N Santiam Hwy , Lebanon, Or",-122.9074858,44.5475596
La Mota Lebanon 3 Llc ,Lebanon,Linn,"2645 S Main Rd  , Lebanon, Or",-122.90678,44.5207282
Modern Forest,Lebanon,Linn,"634 S. Main Street , Lebanon, Or",-122.9074821,44.539617
Mr. Nice Guy Lebanon,Lebanon,Linn,"700 Park St , Lebanon, Or",-122.9057487,44.5388783
The Oz. House,Lebanon,Linn,"712 Park St , Lebanon, Or",-122.9057302,44.5389447
Wanderlust Lebanon Llc,Lebanon,Linn,"1111 S Main St , Lebanon, Or",-122.9067639,44.5353887
"17 Farms, Llc",Sweet Home,Linn,"550 Main Street , Sweet Home, Or",-122.7377478,44.3984258
Going Green Sweet Home,Sweet Home,Linn,"925 Main St  , Sweet Home, Or",-122.7333659,44.3970877
La Mota ,Sweet Home,Linn,"4320 Hwy 20 , Sweet Home, Or",-122.6898772,44.4047612
La Mota Sweet Home Llc,Sweet Home,Linn,"1025-1027 Main Street , Sweet Home, Or",-122.7315235,44.3973114
Tangent Farmacy,Tangent,Linn,"32990 Hwy 99E , Tangent, Or",-123.1104419,44.5411376
Justice Cannabis Company,Aurora,Marion,"21558 Or-99E , Aurora, Or",-122.7555435,45.2310728
Canyon Cannabis,Gates,Marion,"106 E Central St , Gates, Or",-122.4158751,44.7553811
Hierba Buena ,Hubbard,Marion,"3674 Pacific Hwy , Hubbard, Or",-122.8039153,45.1814832
"Alpha Alternative Solutions, Llc",Keizer,Marion,"3700 River Road N Suite 11, Keizer, Or",-123.026161,44.9797391
Oregon Bud Company ,Keizer,Marion,"3450 River Rd N , Keizer, Or",-123.0268221,44.975619
The Grass Hut Ii,Keizer,Marion,"4085 Cherry Avenue Ne  , Keizer, Or",-123.0253042,44.98415
A Prime Leaf,Salem,Marion,"2974 12Th St Se , Salem, Or",-123.0303998,44.9117862
Cannamedicine,Salem,Marion,"3212 Triangle Dr Se , Salem, Or",-123.0461613,44.9100089
Capitol Green Leaf,Salem,Marion,"1890 Capitol St Ne , Salem, Or",-123.0201465,44.9546489
Cherry City Compassion,Salem,Marion,"1855 25Th Street , Salem, Or",-123.0107157,44.9201081
Club Pitbull,Salem,Marion,"1860 State St , Salem, Or",-123.0186424,44.9346361
Crush Cannabis,Salem,Marion,"2345 Center St. Ne , Salem, Or",-123.0092726,44.9402229
Crush Cannabis,Salem,Marion,"1026 Commercial St Ne , Salem, Or",-123.0354357,44.9506999
Diem,Salem,Marion,"1040 Commercial Street Se , Salem, Or",-123.0436139,44.9308456
Eden,Salem,Marion,"4618 Portland Rd. Ne #110 , Salem, Or",-122.9891176,44.9869466
Green Cross Cannabis Emporium,Salem,Marion,"4550 Commercial St Se , Salem, Or",-123.0331346,44.8884837
Green Cross Cannabis Emporium,Salem,Marion,"3165 River Road N , Salem, Or",-123.0301617,44.9722712
Herbal Remedies 2,Salem,Marion,"3940 Commercial St Se , Salem, Or",-123.0379973,44.8989309
Hi Cascade,Salem,Marion,"5070 Commercial St Se Suite 115 & 120, Salem, Or",-123.0293173,44.8817618
Homegrown Oregon,Salem,Marion,"2820 Liberty Street Ne , Salem, Or",-123.0313958,44.9679624
Homegrown Oregon,Salem,Marion,"1803 Lansing Ne  , Salem, Or",-122.9981015,44.9517203
Inhale Dispensary,Salem,Marion,"2410 Mission Street Se Suite 010 , Salem, Or",-123.0126853,44.923092
Kaya Shack (2),Salem,Marion,"5757 Commercial St Se  Suite 108, Salem, Or",-123.0243225,44.8711594
Kaya Shack (4),Salem,Marion,"1252 23Rd St Suite 150 , Salem, Or",-123.014331,44.9231379
Livewell Cannabis,Salem,Marion,"696 Hawthorne Ave Ne , Salem, Or",-122.9914549,44.9392567
Livewell Dispensary,Salem,Marion,"1522 Broadway St Ne , Salem, Or",-123.0294439,44.9537938
Market Street Station,Salem,Marion,"3175 Market Street Ne , Salem, Or",-122.9967462,44.9509957
Moon Beam Budz,Salem,Marion,"2390  Fairgrounds Ne , Salem, Or",-123.0159334,44.9592933
Mr. Nice Guy Market St,Salem,Marion,"2794 Market St Ne , Salem, Or",-123.0010413,44.9495657
Mr. Nice Guy Retail,Salem,Marion,"4340 Commercial Street Se Suite 170, Salem, Or",-123.0344377,44.8919201
Mr. Nice Guy Salem,Salem,Marion,"1460 State Street , Salem, Or",-123.0235334,44.9358529
Mr. Nice Guy Salem,Salem,Marion,"3755 Commercial St Se , Salem, Or",-123.0407662,44.90179
Mr. Nice Guy Salem,Salem,Marion,"1640 Capitol St Ne  , Salem, Or",-123.0211509,44.9525629
Nectar,Salem,Marion,"4142 Liberty Road S , Salem, Or",-123.0553809,44.8954451
Nectar ,Salem,Marion,"1130 Royvonne Ave Se, #104 , Salem, Or",-123.0318444,44.8853279
Og Collective,Salem,Marion,"1617 Liberty St Ne , Salem, Or",-123.0323384,44.9553225
"Og Collective, Llc",Salem,Marion,"3537 Commercial St Se , Salem, Or",-123.0415611,44.9038077
"Og Collective, Llc",Salem,Marion,"3410 Hawthorne Ave Ne , Salem, Or",-122.9907995,44.9688186
"Og Collective, Llc",Salem,Marion,"1255 Cross St Se Suite 150, Salem, Or",-123.0298231,44.9259598
Oregon Cannabis Outlet,Salem,Marion,"1330 12Th Street Se Suite 100, Salem, Or",-123.0302173,44.9245304
Piper'S Dispensary,Salem,Marion,"1729 Center St. Ne #170 , Salem, Or",-123.017607,44.9396903
Preserve Oregon,Salem,Marion,"1201 Commercial St Se  , Salem, Or",-123.0444862,44.9291048
Reefer Madness,Salem,Marion,"1675 Fairgrounds Rd. Ne , Salem, Or",-123.0249453,44.9540863
River Valley Remedies,Salem,Marion,"1487 Broadway St Ne , Salem, Or",-123.0307916,44.953394
"Salem Organics, Llc",Salem,Marion,"4980 Commercial Street Se , Salem, Or",-123.0311255,44.8840178
Thc Recreation Station Salem,Salem,Marion,"1295 Oxford St Se , Salem, Or",-123.0294968,44.9222436
The Bake Shop,Salem,Marion,"3125B Portland Rd Ne  , Salem, Or",-123.0092255,44.9672508
The Holistic Choice,Salem,Marion,"1045 Commercial St Se , Salem, Or",-123.0447359,44.9306981
The Joint ,Salem,Marion,"3270 Market St. Ne , Salem, Or",-122.9945841,44.9497708
The Joint On State,Salem,Marion,"2350 State St , Salem, Or",-123.0132812,44.9331653
Tokyo Starfish 4,Salem,Marion,"1695 Center Street , Salem, Or",-123.01826,44.939529
Truth Dispensary,Salem,Marion,"1735 Lancaster Dr. Ne , Salem, Or",-122.9839854,44.9510958
World Famous Top Shelf Cannabis,Salem,Marion,"2440 Mcgilchrist Street, Se , Salem, Or",-123.0111642,44.9163703
"Yak, Inc.",Salem,Marion,"1215 Wilbur St Se , Salem, Or",-123.0300633,44.9250887
Silver Creek Dispensary,Silverton,Marion,"307 E. Main Street , Silverton, Or",-122.7816999,45.0058933
The Lucky Leaf,Silverton,Marion,"208 Jersey St , Silverton, Or",-122.7816598,45.004135
Canna Bros. Stayton,Stayton,Marion,"2440 Martin Dr , Stayton, Or",-122.7930295,44.8130563
Homegrown Remedies,Stayton,Marion,"277 N 3Rd Ave , Stayton, Or",-122.7925667,44.7969864
"Today'S Herbal Choice Stayton, Llc",Stayton,Marion,"494 Wilco Road , Stayton, Or",-122.8146191,44.7985627
Hgr2,Turner,Marion,"7314 3Rd St Se , Turner, Or",-122.9546727,44.8491352
Treestar,Woodburn,Marion,"1385 Industrial Ave. , Woodburn, Or",-122.8304041,45.1578379
Cannabis Nation,Gresham,Multnomah,"1500 Ne Division St , Gresham, Or",-122.4164357,45.5045348
Green Mountain Fire,Gresham,Multnomah,"21951 Se Stark St. , Gresham, Or",-122.4361964,45.5192801
Kaleafa Gresham,Gresham,Multnomah,"1450 Se Orient Drive , Gresham, Or",-122.3970904,45.4863837
Nectar,Gresham,Multnomah,"505 Nw Burnside , Gresham, Or",-122.4370705,45.5107775
Swed.Co,Gresham,Multnomah,"2058 Nw Burnside , Gresham, Or",-122.4535661,45.514242
La Mota Court Llc,Medford,Multnomah,"1037 Court St , Medford, Or",-122.8806008,42.3366955
4.0 Belmont,Portland,Multnomah,"4011 Se Belmont St. , Portland, Or",-122.621418,45.5167232
Alternative Remedies,Portland,Multnomah,"8109 Se Flavel , Portland, Or",-122.5802249,45.4688257
Alternative Solutions ,Portland,Multnomah,"13560 Se Powell Blvd. , Portland, Or",-122.523903,45.497592
Amberlight Cannabis House,Portland,Multnomah,"2407 Se 49Th Ave , Portland, Or",-122.6122374,45.5050959
Americanna Rx,Portland,Multnomah,"8654 Ne Sandy Blvd , Portland, Or",-122.5734855,45.5543049
Arathi,Portland,Multnomah,"3376 Ne Sandy Blvd , Portland, Or",-122.629286,45.5320487
Archive Portland,Portland,Multnomah,"10645 Se Henry Street Suite B, Portland, Or",-122.5532162,45.4767263
Ascend Dispensary,Portland,Multnomah,"13836 & 13826 Ne Sandy Blvd , Portland, Or",-122.5206833,45.5534626
Attis Trading Company,Portland,Multnomah,"7737 Sw Barbur Blvd , Portland, Or",-122.6925977,45.4688952
Attis Trading Company,Portland,Multnomah,"4920 Ne Cully Blvd , Portland, Or",-122.5978496,45.5587277
Attis Trading Company,Portland,Multnomah,"2606 Se Gladstone St, #101 , Portland, Or",-122.639317,45.4930354
B And M Holdings,Portland,Multnomah,"2410 N Mississippi Ave Suite 100, Portland, Or",-122.6754708,45.5400641
Be Wonderful Wellness-Dispensary,Portland,Multnomah,"4565 Ne 60Th Ave. , Portland, Or",-122.6011285,45.5564037
Belmont Collective,Portland,Multnomah,"2036 Se Belmont St , Portland, Or",-122.644721,45.516246
Big Medicine Botanicals Llc,Portland,Multnomah,"5594 Ne Columbia Blvd , Portland, Or",-122.6055362,45.5692233
Bridge City Collective,Portland,Multnomah,"4312 N Williams Ave , Portland, Or",-122.6665644,45.5550209
Bridge City Collective,Portland,Multnomah,"215 Se Grand Avenue , Portland, Or",-122.661031,45.5212015
Broadway Cannabis Market,Portland,Multnomah,"427 Nw Broadway Ave , Portland, Or",-122.6779195,45.5263501
Brothers Cannabis,Portland,Multnomah,"3609 Se Division St , Portland, Or",-122.6261699,45.5049336
Brothers Cannabis,Portland,Multnomah,"1328 Se Morrison St. , Portland, Or",-122.6520865,45.5169485
Brothers Cannabis,Portland,Multnomah,"1639 Se Flavel , Portland, Or",-122.6486609,45.4710351
Bthcr Pdx Llc,Portland,Multnomah,"6611 Se Powell Blvd , Portland, Or",-122.5952538,45.4977944
Budding Culture ,Portland,Multnomah,"6802 Ne Broadway St  , Portland, Or",-122.5931546,45.5347159
Budlandia,Portland,Multnomah,"16440 Se Division St Suite B , Portland, Or",-122.494031,45.5042908
Budlandia,Portland,Multnomah,"8135 Se Woodward St , Portland, Or",-122.5791349,45.5016085
Budlandia,Portland,Multnomah,"7536 Ne Martin Luther King Blvd , Portland, Or",-122.6609394,45.5778522
Canna Daddy'S,Portland,Multnomah,"17020 Se Division St. , Portland, Or",-122.4870142,45.5044117
Cannabis Corner,Portland,Multnomah,"5431 Se  72Nd Ave. , Portland, Or",-122.5894743,45.4832412
Cannabliss & Co. ,Portland,Multnomah,"1917 Se 7Th Ave , Portland, Or",-122.6590664,45.5090527
Cannabliss & Co. ,Portland,Multnomah,"2231 W Burnside St , Portland, Or",-122.6970349,45.523471
Cannabliss And Co,Portland,Multnomah,"8701 Se Powell Blvd. , Portland, Or",-122.5730278,45.4977713
Cannasource,Portland,Multnomah,"4435 Ne 148Th Ave Unit C , Portland, Or",-122.5117159,45.5550878
Carefree Cannabis,Portland,Multnomah,"5926 Ne Killingsworth St , Portland, Or",-122.6013462,45.5625854
Chalice Farms,Portland,Multnomah,"13315 Ne Airport Way, 700A , Portland, Or",-122.525338,45.562685
Chalice Farms,Portland,Multnomah,"5333 Se Powell Blvd , Portland, Or",-122.6073072,45.4977356
Chalice Farms,Portland,Multnomah,"823 Sw Naito Parkway , Portland, Or",-122.6734059,45.5164783
Club Sky High,Portland,Multnomah,"8957 N Lombard St. , Portland, Or",-122.756702,45.5922812
Collective Awakenings,Portland,Multnomah,"2823 Ne Sandy Blvd. , Portland, Or",-122.636966,45.5295013
Curaleaf,Portland,Multnomah,"5103 Ne Fremont St  , Portland, Or",-122.610087,45.5484022
Cured Green,Portland,Multnomah,"3715 N Lombard St Ste. B , Portland, Or",-122.7050846,45.5772944
Deanz Greenz,Portland,Multnomah,"10415 Ne Sandy Blvd. , Portland, Or",-122.5553693,45.5591436
Deanz Greenz,Portland,Multnomah,"5625 B Se 85Th Avenue , Portland, Or",-122.5761366,45.4817166
Deanz Greenz,Portland,Multnomah,"14154 Se Division St , Portland, Or",-122.5172857,45.503879
Deanz Greenz,Portland,Multnomah,"851 Ne Columbia Blvd , Portland, Or",-122.6562983,45.5798433
Diem,Portland,Multnomah,"305 Se 3Rd Ave Suite #203 , Portland, Or",-122.663022,45.5206251
Doctor'S Orders,Portland,Multnomah,"3424 Ne 82Nd Ave , Portland, Or",-122.578445,45.5475428
Eden,Portland,Multnomah,"7420 Ne Sandy Boulevard , Portland, Or",-122.5864769,45.549004
Eden,Portland,Multnomah,"128 Se 12Th Ave. , Portland, Or",-122.6532447,45.521765
Eden,Portland,Multnomah,"4124 Se 60Th Ave. Suite B, Portland, Or",-122.6015748,45.4927434
Electric Lettuce,Portland,Multnomah,"12131 Se Holgate Blvd , Portland, Or",-122.5382728,45.4899659
Electric Lettuce Alberta,Portland,Multnomah,"1313 Ne Alberta St , Portland, Or",-122.6522553,45.5592855
Electric Lettuce Lloyd District,Portland,Multnomah,"203 Ne Weidler St. , Portland, Or",-122.6634883,45.5345115
Electric Lettuce Old Town,Portland,Multnomah,"214 Nw Couch Street , Portland, Or",-122.6726458,45.5237048
Electric Lettuce Sellwood,Portland,Multnomah,"7703 Se 13Th Ave. , Portland, Or",-122.6531851,45.4691457
Exodus Wellness Center,Portland,Multnomah,"16211 Se Powell , Portland, Or",-122.496387,45.4948841
Farma,Portland,Multnomah,"916 Se Hawthorne Blvd.  , Portland, Or",-122.6562628,45.5120876
Fidus Pdx,Portland,Multnomah,"7501 Sw Capitol Hwy , Portland, Or",-122.7079535,45.4702282
Five Zero Trees Dekum,Portland,Multnomah,"909 Ne Dekum St , Portland, Or",-122.6563248,45.5719213
Five Zero Trees Portland East ,Portland,Multnomah,"10209-02 Se Division Ave. , Portland, Or",-122.5583379,45.5047772
Five Zero Trees Portland West,Portland,Multnomah,"5336 Sw Beaverton-Hillsdale Hwy. , Portland, Or",-122.7323812,45.4866973
Floyd'S,Portland,Multnomah,"2515 Nw Nicolai , Portland, Or",-122.7041144,45.540867
Floyd'S Fine Cannabis,Portland,Multnomah,"5217 Se 28Th Ave , Portland, Or",-122.6377604,45.4850758
Floyd'S Fine Cannabis,Portland,Multnomah,"5944 Ne Sandy Blvd , Portland, Or",-122.6016598,45.5432145
Floyd'S Fine Cannabis,Portland,Multnomah,"801 Ne Broadway , Portland, Or",-122.6573773,45.5352777
Floyd'S Fine Cannabis,Portland,Multnomah,"9240 N Whitaker Suite B, Portland, Or",-122.6801852,45.5898929
Foster Buds Ne,Portland,Multnomah,"7201 Ne Glisan St. Suite D, Portland, Or",-122.5884152,45.5266701
Foster Buds Se,Portland,Multnomah,"5522 Se Foster Road, , Portland, Or",-122.6058693,45.4939976
Gnome Grown Oregon,Portland,Multnomah,"5012 Ne 28Th Ave , Portland, Or",-122.6365787,45.5592888
Gram Central Station,Portland,Multnomah,"6430 Ne Martin Luther King Jr Blvd , Portland, Or",-122.6609446,45.5695092
Gras Cannabis,Portland,Multnomah,"621 Se 7Th Ave Suite A , Portland, Or",-122.6589099,45.5184004
Greeley Gallery,Portland,Multnomah,"6512 N Greeley Ave , Portland, Or",-122.6951982,45.5704054
Green Box,Portland,Multnomah,"7966 Se Foster Rd , Portland, Or",-122.5813875,45.4835587
Green Goddess Remedies,Portland,Multnomah,"5435 Sw Taylor'S Ferry Rd , Portland, Or",-122.7332248,45.4549461
Green Gratitude,Portland,Multnomah,"10322 Se Holgate Blvd. , Portland, Or",-122.5565688,45.4895484
Green Muse Llc,Portland,Multnomah,"5515 Ne 16Th Ave , Portland, Or",-122.649274,45.5629414
Greenery,Portland,Multnomah,"8700 Sw Barbur Ct Suite M , Portland, Or",-122.7030837,45.4618596
Halsey Organic ,Portland,Multnomah,"16102 Ne Halsey St , Portland, Or",-122.4969096,45.5337872
Happy Leaf,Portland,Multnomah,"1301 Ne Broadway St , Portland, Or",-122.6521626,45.5353041
Hapy Kitchen,Portland,Multnomah,"422 Ne Failing St , Portland, Or",-122.6609955,45.5506045
High Profile,Portland,Multnomah,"2637 Ne Martin Luther King Jr. Blvd, Ste B , Portland, Or",-122.6619631,45.5414544
Higher Healing,Portland,Multnomah,"5311 Se Powell Blvd. Suite L02 , Portland, Or",-122.6076703,45.4977427
Homegrown Oregon,Portland,Multnomah,"6330 Sw Beaverton Hillsdale Hwy , Portland, Or",-122.7423314,45.4868477
Ivy Cannabis,Portland,Multnomah,"11850 N Center Ave , Portland, Or",-122.6814814,45.60893
Jayne,Portland,Multnomah,"2145 Ne Martin Luther King Jr Blvd Suite A, Portland, Or",-122.6621475,45.5385946
Kaleafa,Portland,Multnomah,"5232 Se Woodstock Blvd , Portland, Or",-122.6080262,45.4789927
Kaleafa,Portland,Multnomah,"11821 Ne Glisan St , Portland, Or",-122.5404705,45.5265145
Kaya Shack,Portland,Multnomah,"1719 Se Hawthorne Blvd , Portland, Or",-122.6481285,45.5123328
Kind Heart Collective,Portland,Multnomah,"8217 N Denver Ave , Portland, Or",-122.6871016,45.5827195
Kings Of Canna,Portland,Multnomah,"1465 Ne Prescott Ste C , Portland, Or",-122.6503926,45.5557287
Kush Cart,Portland,Multnomah,"5100 Se Harney Dr, Suites 214A, 214B, & 214C , Portland, Or",-122.6108921,45.462627
La Cannaisseur,Portland,Multnomah,"11324 Nw St Helens Rd , Portland, Or",-122.7885737,45.6030614
La Mota,Portland,Multnomah,"4450 & 4460 Ne Sandy Blvd , Portland, Or",-122.6173062,45.537304
La Mota,Portland,Multnomah,"3226 Se Johnson Creek Blvd  , Portland, Or",-122.6293161,45.4624554
La Mota,Portland,Multnomah,"9440 N. St. Louis Avenue , Portland, Or",-122.7505817,45.5961714
La Mota,Portland,Multnomah,"13828 E Burnside , Portland, Or",-122.5213692,45.5220635
La Mota ,Portland,Multnomah,"4999 Ne 99Th Ave , Portland, Or",-122.5609904,45.558983
La Mota ,Portland,Multnomah,"7435 Se 52Nd Ave , Portland, Or",-122.6102591,45.4692916
La Mota Front Ave Llc,Portland,Multnomah,"3075 Nw Front Ave , Portland, Or",-122.6994056,45.5442496
La Mota Sandy Blvd Llc,Portland,Multnomah,"9046 Ne Sandy Blvd , Portland, Or",-122.569155,45.5560167
La Mota Sw Portland ,Portland,Multnomah,"1103 Sw Taylors Ferry Rd , Portland, Or",-122.6903831,45.4630577
Left Coast Connections,Portland,Multnomah,"10055 Ne Glisan St , Portland, Or",-122.5596963,45.5266628
Lemonnade,Portland,Multnomah,"11321 Sw 64Th Ave  , Portland, Or",-122.743097,45.4436036
Lemonnade Pdx,Portland,Multnomah,"6218 Ne Columbia Blvd , Portland, Or",-122.5986687,45.5682201
Lifted North West,Portland,Multnomah,"11121 Se Division St , Portland, Or",-122.5486971,45.5044473
Little Amsterdam Wellness Center,Portland,Multnomah,"7035 Sw Macadam Avenue , Portland, Or",-122.6716816,45.4731837
Local Herb,Portland,Multnomah,"15948 Se Division , Portland, Or",-122.4987544,45.5038945
Lucky Lion,Portland,Multnomah,"7817 Ne Halsey St , Portland, Or",-122.582686,45.5337384
Lucky Lion,Portland,Multnomah,"14800 Se Powell Blvd #1, Portland, Or",-122.5103614,45.4977471
Lucky Lion,Portland,Multnomah,"16148 Ne Sandy Blvd , Portland, Or",-122.4965804,45.5492909
Marijuana Paradise,Portland,Multnomah,"9663 Sw Barbur Blvd , Portland, Or",-122.7170758,45.4556183
Medigreen Collective,Portland,Multnomah,"729 Se Powell Blvd , Portland, Or",-122.6584808,45.5019016
Mindrite,Portland,Multnomah,"1780 Nw Marshall St , Portland, Or",-122.6893386,45.53056
Mongoose Cannabis,Portland,Multnomah,"3123 Se Belmont St. , Portland, Or",-122.6331639,45.5166418
Moss Crossing,Portland,Multnomah,"5938 N Greeley Ave , Portland, Or",-122.6953291,45.5662888
Mr. Nice Guy - Portland,Portland,Multnomah,"1034 Se 122Nd Avenue , Portland, Or",-122.5374133,45.5155829
Mr. Nice Guy Holgate,Portland,Multnomah,"11030 Se Holgate Blvd , Portland, Or",-122.5492966,45.4895469
Mr. Nice Guy Portland,Portland,Multnomah,"5230 Se 52Nd Ave , Portland, Or",-122.6086128,45.4847572
Multnomah Greens,Portland,Multnomah,"3005 Sw Multnomah Blvd. , Portland, Or",-122.7078859,45.4666161
Natural Remedies,Portland,Multnomah,"8720 Sw Barbur Ct Suite Z , Portland, Or",-122.7036445,45.4619102
Natural Wonders,Portland,Multnomah,"3831 Se Main St. , Portland, Or",-122.6237958,45.5137847
Nebula Cannabis,Portland,Multnomah,"11605 Se Powell Blvd , Portland, Or",-122.5432427,45.4971002
Nectar,Portland,Multnomah,"3350 Ne Sandy Blvd , Portland, Or",-122.6296643,45.5318842
Nectar,Portland,Multnomah,"10931 Sw 53Rd Avenue , Portland, Or",-122.7313051,45.4462854
Nectar,Portland,Multnomah,"4125 N Mississippi Avenue , Portland, Or",-122.675788,45.5536463
Nectar,Portland,Multnomah,"5918 Se 89Th Ave , Portland, Or",-122.5711781,45.4796074
Nectar,Portland,Multnomah,"9127 Se Stark Street , Portland, Or",-122.5694955,45.5192631
Nectar,Portland,Multnomah,"8601 Sw Terwilliger Blvd , Portland, Or",-122.6853259,45.4624019
Nectar,Portland,Multnomah,"4709 Sw Beaverton Hillsdale Hwy. , Portland, Or",-122.7250891,45.486185
Nectar Markets,Portland,Multnomah,"1019 Ne 122Nd Avenue , Portland, Or",-122.5380381,45.5300417
One Draw Two,Portland,Multnomah,"11711 Ne Halsey Street , Portland, Or",-122.5424342,45.5337267
Orcl Llc,Portland,Multnomah,"604 Nw 12Th Ave. , Portland, Or",-122.6830421,45.5276052
Oregon Bud Company,Portland,Multnomah,"5515 Se 122 Ave , Portland, Or",-122.5382736,45.4826835
Oregon Bud Company,Portland,Multnomah,"4511 Se Cesar E Chavez Blvd , Portland, Or",-122.6231117,45.4900316
Oregon Grown,Portland,Multnomah,"324 Se 82Nd Ave , Portland, Or",-122.5786593,45.520074
Oregon High,Portland,Multnomah,"3944 Ne Cully Blvd , Portland, Or",-122.6038886,45.5515353
Oregon House Of Herbs,Portland,Multnomah,"8105 N Fessenden , Portland, Or",-122.746267,45.5962476
Oregon Weedery,Portland,Multnomah,"2312 Nw Kearney St , Portland, Or",-122.6989696,45.5289287
Oregon'S Best Buds,Portland,Multnomah,"10128 East Burnside St. A, Portland, Or",-122.558723,45.5222713
Oregon'S Finest,Portland,Multnomah,"736 Ne Martin Luther King Jr. Blvd  , Portland, Or",-122.6612713,45.5283576
Oregon'S Finest,Portland,Multnomah,"1327 Nw Kearney St , Portland, Or",-122.6848883,45.5294552
Oregon'S Own,Portland,Multnomah,"7881 Sw Capitol Hwy , Portland, Or",-122.7145241,45.4678105
Oregrown Portland,Portland,Multnomah,"111 Ne 12Th Ave Suite A  , Portland, Or",-122.6538538,45.5237889
Pacific Gold,Portland,Multnomah,"1010 Sw Gibbs St , Portland, Or",-122.6904574,45.4990733
Pacific Green,Portland,Multnomah,"710 Ne Killingsworth Street , Portland, Or",-122.6584313,45.5624937
Pakalolo,Portland,Multnomah,"1528 Se Holgate Blvd , Portland, Or",-122.6497223,45.4901547
Papa Buds,Portland,Multnomah,"4020 Se Cesar E Chavez Blvd , Portland, Or",-122.6223212,45.4935896
Paradise Found,Portland,Multnomah,"10735 Ne Halsey St , Portland, Or",-122.5521077,45.5338285
Pdxweedz,Portland,Multnomah,"9810 E. Burnside Street , Portland, Or",-122.5629036,45.5223889
Plane Jane'S,Portland,Multnomah,"10530 Ne Simpson St. , Portland, Or",-122.554312,45.5650921
Plus Dispensary ,Portland,Multnomah,"45 Ne 122Nd Ave , Portland, Or",-122.5380776,45.5232538
Portland Best Buds,Portland,Multnomah,"6313B N. Lombard St , Portland, Or",-122.7312097,45.5854525
Portland Canna Connection ,Portland,Multnomah,"1515 Se 46Th Ave , Portland, Or",-122.6154757,45.511754
Portland Extracts,Portland,Multnomah,"2123 Se Division St , Portland, Or",-122.6439941,45.5050903
Portland Green Oasis Llc,Portland,Multnomah,"1035 Se Tacoma Street Unit A  , Portland, Or",-122.6552115,45.4645449
Portland Pot Shop,Portland,Multnomah,"4730 N Lombard St , Portland, Or",-122.7164832,45.5795
Potmates,Portland,Multnomah,"4607 Sw Beaverton Hillsdale Hwy , Portland, Or",-122.7243009,45.4860685
Puddletown Organics,Portland,Multnomah,"8201 Se Powell Blvd Suite F, Portland, Or",-122.5780656,45.4978656
Pur Roots,Portland,Multnomah,"5816 Ne Portland Hwy , Portland, Or",-122.6027601,45.5671498
Pure Green,Portland,Multnomah,"3738 Ne Sandy Blvd , Portland, Or",-122.624239,45.5340102
Rebirth Portland,Portland,Multnomah,"10215 Se Foster Rd. , Portland, Or",-122.5580531,45.4771926
Refinery Canna Connoisseur,Portland,Multnomah,"2707 Ne Broadway St. , Portland, Or",-122.6379357,45.5353804
Releaf Health,Portland,Multnomah,"3213 Ne Martin Luther King Jr Blvd , Portland, Or",-122.6618467,45.5463433
Rip City Delivery,Portland,Multnomah,"3518 Sw Multnomah Blvd , Portland, Or",-122.7133611,45.4670002
Rj'S Leaf,Portland,Multnomah,"5501 Nw St. Helen'S Road , Portland, Or",-122.7439504,45.5618256
Rko,Portland,Multnomah,"8265 Se Mcloughlin Blvd , Portland, Or",-122.6389578,45.4630207
Sap House,Portland,Multnomah,"2367 Southeast 122Nd Ave , Portland, Or",-122.5380577,45.5051154
Satchel,Portland,Multnomah,"6900 N. Interstate Avenue , Portland, Or",-122.6818282,45.5728013
Sensimilla,Portland,Multnomah,"3210 N Lombard St , Portland, Or",-122.6996189,45.5769217
Serra Belmont,Portland,Multnomah,"2519 Se Belmont , Portland, Or",-122.6396581,45.5165842
Serra Downtown,Portland,Multnomah,"220 Sw First Avenue , Portland, Or",-122.6718377,45.5206144
Shaman Cannabis - Columbia,Portland,Multnomah,"3829 Ne Columbia Blvd , Portland, Or",-122.6236996,45.5726642
Shaman Cannabis - Halsey,Portland,Multnomah,"11134 Ne Halsey St , Portland, Or",-122.5478876,45.533101
Shango Premium Cannabis,Portland,Multnomah,"6033-A Ne Win Sivers Drive , Portland, Or",-122.5384469,45.566803
Shango Premium Cannabis,Portland,Multnomah,"8056 Harold Street , Portland, Or",-122.5801289,45.4829033
Shango Premium Cannabis,Portland,Multnomah,"8056 Se Harold St , Portland, Or",-122.5801289,45.4829033
Silver Stem,Portland,Multnomah,"1926 Ne 40Th Ave  , Portland, Or",-122.6218168,45.5369292
Slabtown,Portland,Multnomah,"2507 Nw Nicolai St. , Portland, Or",-122.7039543,45.5405675
Somewhere,Portland,Multnomah,"2128 Nw Overton Street , Portland, Or",-122.6950631,45.5318442
Stoney Only Portland,Portland,Multnomah,"110 Se Main St. Suite C, Portland, Or",-122.664238,45.5135328
Stumptown Cannabis - Lents,Portland,Multnomah,"6130 Se 82Nd Ave , Portland, Or",-122.5787688,45.4782702
Sweet Leaf Illusions,Portland,Multnomah,"8434 Se 82Nd Ave , Portland, Or",-122.578877,45.4626444
The Canna Shoppe ,Portland,Multnomah,"6316 Ne Halsey St , Portland, Or",-122.5984885,45.5335771
The Dime Store Cannabis,Portland,Multnomah,"8218 Se Holgate Blvd. , Portland, Or",-122.5783225,45.489985
The Dispensary On 52Nd,Portland,Multnomah,"4452 Se 52Nd Ave , Portland, Or",-122.608702,45.4904144
The Flowershop Powellhurst,Portland,Multnomah,"12550 Se Division St , Portland, Or",-122.5336184,45.5037663
The Green Front,Portland,Multnomah,"6834 Ne Glisan St. , Portland, Or",-122.5926722,45.526316
The Green Remedy ,Portland,Multnomah,"12436 Se Powell Blvd , Portland, Or",-122.5349333,45.4969602
The New Amsterdam,Portland,Multnomah,"2201 N Killingsworth St , Portland, Or",-122.6894287,45.5629168
The People'S Dispensary,Portland,Multnomah,"6714 Ne Sandy Blvd , Portland, Or",-122.5938606,45.5462238
Thurman Street Collective ,Portland,Multnomah,"2384 Nw Thurman St , Portland, Or",-122.7005718,45.5352759
Tj'S On Powell,Portland,Multnomah,"7827 Se Powell Blvd , Portland, Or",-122.5821524,45.4977146
"Today'S Herbal Choice Barbur, Llc",Portland,Multnomah,"9220 S.W Barbur Blvd Suite 107 , Portland, Or",-122.7088734,45.4586899
"Today'S Herbal Choice Fremont, Llc",Portland,Multnomah,"4605 Ne Fremont St Suite #105 , Portland, Or",-122.6156771,45.5485049
Tree House Collective,Portland,Multnomah,"2419 Ne Sandy Blvd , Portland, Or",-122.6411621,45.5277718
Tree Pdx,Portland,Multnomah,"5135 Nw St Helens Rd , Portland, Or",-122.7405565,45.5589659
Trees 102,Portland,Multnomah,"1234 Ne 102Nd Ave. , Portland, Or",-122.5577241,45.531769
Trees Corbett,Portland,Multnomah,"3607 Sw Corbett Ave. , Portland, Or",-122.6761251,45.497094
Truly Og,Portland,Multnomah,"4936 N Williams Ave , Portland, Or",-122.6664566,45.5588476
Truly Pure,Portland,Multnomah,"1006 Se Grand Ave Suite 104 , Portland, Or",-122.6603517,45.5155843
Uplift Botanicals,Portland,Multnomah,"5421 Ne 33Rd Ave , Portland, Or",-122.6308829,45.5624445
Urban Farmacy,Portland,Multnomah,"420 Ne 60Th Avenue , Portland, Or",-122.6020554,45.526079
Vidaverde,Portland,Multnomah,"7333 Ne Glisan St. , Portland, Or",-122.5870273,45.5265907
Virtue Supply Company,Portland,Multnomah,"510 Nw 11Th Ave , Portland, Or",-122.6819117,45.5268119
Weed Land Inc,Portland,Multnomah,"4027 N Interstate Ave , Portland, Or",-122.68132,45.5525605
"Wild West Emporium, Duke Street",Portland,Multnomah,"6126 Se Duke St, Unit A , Portland, Or",-122.6003996,45.4756862
"Wild West Emporium, Sandy Blvd",Portland,Multnomah,"15350 Ne Sandy Blvd, Unit C , Portland, Or",-122.5040511,45.551101
"Yak, Inc.",Portland,Multnomah,"1536 Nw 23Rd Ave. , Portland, Or",-122.698509,45.5339286
Zion Cannabis,Portland,Multnomah,"2331 Sw 6Th Ave. , Portland, Or",-122.6845588,45.5060977
Tetra Cannabis,Troutdale,Multnomah,"809 Ne Harlow Road , Troutdale, Or",-122.3866944,45.5453643
"Nw Compassion Medical Center, Inc",Wood Village,Multnomah,"1970 Ne 238Th Drive Suite B, Wood Village, Or",-122.4180889,45.5366427
Blackbird Indica,Independence,Polk,"319 S 10Th Street , Independence, Or",-123.1977767,44.8508604
Knotty Leaves,Independence,Polk,"769 N Main Suite C , Independence, Or",-123.1842961,44.8602285
Mary Jane,Independence,Polk,"905 N Main Street , Independence, Or",-123.1841505,44.8622375
Blackbird Crow,Monmouth,Polk,"593 & 597 Jackson St E  , Monmouth, Or",-123.2295593,44.8494834
Monmouth Cannabis,Monmouth,Polk,"210 South Pacific Highway Suite A , Monmouth, Or",-122.7870956,42.2474572
Oasis Cannabis,Monmouth,Polk,"221 Main Street East , Monmouth, Or",-123.2337093,44.8484053
Og Collective,Monmouth,Polk,"140/142/144 N Pacific Hwy , Monmouth, Or",-123.2296321,44.8491436
Homegrown Oregon,Salem,Polk,"1077 Edgewater St. Nw , Salem, Or",-123.0559564,44.9418245
Og Collective,Salem,Polk,"908 Edgewater St Nw Suite 100, Salem, Or",-123.0530664,44.9426632
West Salem Cannabis,Salem,Polk,"2625 Salem Dallas Hwy Nw Ste 100 , Salem, Or",-123.0810976,44.929551
Going Green Grand Ronde,Willamina,Polk,"8675 Fort Hill Rd. , Willamina, Or",-123.5554015,45.0608254
Oregon Coast Cannabis,Manzanita,Tillamook,"868 Laneda Avenue , Manzanita, Or",-123.9275047,45.7187952
Citi Zen,Pacific City,Tillamook,"6305 Pacific Ave , Pacific City, Or",-123.9632519,45.2018303
West,Pacific City,Tillamook,"34970 Brooten Road , Pacific City, Or",-123.962008,45.202082
La Mota,Rockaway Beach,Tillamook,"158 S Hwy 101 , Rockaway Beach, Or",-123.9436619,45.6121985
Mr. Nice Guy Rockaway,Rockaway Beach,Tillamook,"656 S. Highway 101 , Rockaway Beach, Or",-123.9452327,45.6037312
West,Rockaway Beach,Tillamook,"480 Hwy101 South , Rockaway Beach, Or",-123.9446348,45.6064261
Attis Trading Company,Tillamook,Tillamook,"1830 Goodspeed Road North , Tillamook, Or",-123.8456052,45.4709222
Nectar,Tillamook,Tillamook,"575 Main Avenue North , Tillamook, Or",-123.8440228,45.4614743
Sweet Relief Tillamook,Tillamook,Tillamook,"1906 1St St. , Tillamook, Or",-123.8446389,45.4580144
Today'S Herbal Choice Tillamook Llc,Tillamook,Tillamook,"2180 Larson Rd , Tillamook, Or",-123.8427362,45.469648
Green Man Collective,Wheeler,Tillamook,"675 Nehalem Blvd., Ste. A , Wheeler, Or",-123.882643,45.6892334
"High Desert Cannabis, Llc",Pendleton,Umatilla,"341 Sw 20Th St , Pendleton, Or",-118.8052111,45.6649665
Kind Leaf Pendleton,Pendleton,Umatilla,"1733 Sw Court Ave , Pendleton, Or",-118.8043002,45.6681972
Pendleton Cannabis,Pendleton,Umatilla,"816 Southgate , Pendleton, Or",-118.8073758,45.6603334
Thur'S Smoke Shop,Pendleton,Umatilla,"502 Se 16Th St , Pendleton, Or",-118.7694324,45.6744871
Columbia River Herbals Llc,The Dalles,Wasco,"2630 W 6Th St , The Dalles, Or",-121.2106047,45.6161238
High Mountain Recreational,The Dalles,Wasco,"2722 W 2Nd St , The Dalles, Or",-121.2091973,45.6182034
M Thrive Organics Llc,The Dalles,Wasco,"3226 West 2Nd Street , The Dalles, Or",-121.2116863,45.6224615
The Downtown Dispensary,The Dalles,Wasco,"705 E Second St , The Dalles, Or",-121.176604,45.599075
Three Kings Organics,The Dalles,Wasco,"224 Terminal Ave , The Dalles, Or",-121.1983875,45.6096335
Blooming Deals By Cannabis Nation,Beaverton,Washington,"15915 Nw Schendel Ave #104 , Beaverton, Or",-122.8407206,45.5204322
Electric Lettuce Denny,Beaverton,Washington,"6950 Sw 105Th  , Beaverton, Or",-122.7840766,45.4695961
"Green Mart, Llc",Beaverton,Washington,"12745 Sw Walker Rd. Ste 100A , Beaverton, Or",-122.808016,45.5026376
Growing Releaf,Beaverton,Washington,"4160 Sw 109Th Ave , Beaverton, Or",-122.7885886,45.4899641
Kaleafa,Beaverton,Washington,"10920 Sw Beaverton Hillsdale Hwy. , Beaverton, Or",-122.7890342,45.4862858
La Mota,Beaverton,Washington,"18918 Sw Shaw St , Beaverton, Or",-122.8717138,45.493513
La Mota ,Beaverton,Washington,"3695 Sw Elliot Place  , Beaverton, Or",-122.8530732,45.4930594
Nectar,Beaverton,Washington,"8705 Sw Hall Blvd , Beaverton, Or",-122.7834751,45.457035
Nectar ,Beaverton,Washington,"15930 Sw Regatta Ln , Beaverton, Or",-122.841356,45.5160095
Nectar ,Beaverton,Washington,"20595 Sw Tualatin Valley Highway Ste 102 , Beaverton, Or",-122.8890436,45.4966374
Oregon Bud Company Llc,Beaverton,Washington,"3270 Sw Cedar Hills Blvd #104, Beaverton, Or",-122.8083672,45.4962128
Sunshine Weed Company,Beaverton,Washington,"14195 Sw Allen Blvd. , Beaverton, Or",-122.8229022,45.4767259
The Green Planet,Beaverton,Washington,"10100 Sw Canyon Rd  , Beaverton, Or",-122.7808232,45.4928961
Mr. Nice Guy Retail,Cornelius,Washington,"3146 Baseline St , Cornelius, Or",-123.0326459,45.5203887
Oregrown Eugene,Eugene,Washington,"211 W. 6Th Avenue , Eugene, Or",-123.0962327,44.0535232
Defyne Premium Cannabis,Forest Grove,Washington,"3821 Pacific Avenue , Forest Grove, Or",-123.0804114,45.5206616
La Mota,Forest Grove,Washington,"3139 Pacific Ave , Forest Grove, Or",-123.0911175,45.5203587
Nectar ,Forest Grove,Washington,"3331 Pacific Avenue , Forest Grove, Or",-123.0884935,45.5204303
Phresh Cannabis,Forest Grove,Washington,"2743 19Th Avenue , Forest Grove, Or",-123.0973921,45.5186441
Defyne Premium Cannabis,Hillsboro,Washington,"1775 Se Tualatin Valley Highway  Building A, Hillsboro, Or",-122.9646145,45.5085538
Electric Lettuce Hillsboro,Hillsboro,Washington,"2795 Se Tualatin Valley Hwy , Hillsboro, Or",-122.9533306,45.5044716
Kaleafa,Hillsboro,Washington,"353 Sw Walnut St. , Hillsboro, Or",-122.9941986,45.5177975
Mr. Nice Guy Retail,Hillsboro,Washington,"778 West Main Street , Hillsboro, Or",-122.998269,45.522509
Nectar ,Hillsboro,Washington,"1180 Se 13Th Ave , Hillsboro, Or",-122.9686203,45.5105695
Speedy Janes,Hillsboro,Washington," 733 Sw Dennis Ave , Hillsboro, Or",-122.9961452,45.5145707
The Vth,Hillsboro,Washington,"1234 Sw Baseline St. Suite A , Hillsboro, Or",-123.0031206,45.5195558
Western Oregon Dispensary,Hillsboro,Washington,"652 Sw Baseline St. , Hillsboro, Or",-122.9975106,45.519853
The Green Planet,King City,Washington,"15350 Sw 116Th Ave  , King City, Or",-122.7952411,45.4085805
Puff Oregon,Manning,Washington,"47700 Nw Sunset Hwy , Manning, Or",-123.1680255,45.6672389
Chalice Farms,Portland,Washington,"16735 Sw Pacific Hwy, , Portland, Or",-122.7992888,45.3989229
Electric Lettuce Cedar Hills,Portland,Washington,"1450 Sw Marlow , Portland, Or",-122.7832136,45.5093112
Local Leaf,Portland,Washington,"7570 Sw 74Th Ave , Portland, Or",-122.751933,45.4655602
Parlour Cannabis Shoppe,Portland,Washington,"4702 Sw Scholls Ferry Road , Portland, Or",-122.749366,45.4853763
Stone Age Farmacy,Portland,Washington,"8621 Sw Canyon Dr. , Portland, Or",-122.7652719,45.4986616
Western Oregon Dispensary,Portland,Washington,"760 Nw Dale Ave , Portland, Or",-122.8123695,45.5252443
Western Oregon Dispensary,Sherwood,Washington,"15025 Sw Tualatin Sherwood Rd  Suite B, Sherwood, Or",-122.8315975,45.3682493
Cola Cove,Tigard,Washington,"13553 Sw Pacific Hwy , Tigard, Or",-122.7848712,45.422077
Kaleafa,Tigard,Washington,"11540 Sw Pacific Hwy , Tigard, Or",-122.7492355,45.4404395
The Cdc Dispensary,Tigard,Washington,"10015 Sw Hall Blvd Ste B , Tigard, Or",-122.7661796,45.4475719
The Herbary,Tigard,Washington,"11642 Sw Pacific Highway  Suite 100, Tigard, Or",-122.754254,45.4380042
Chalice Farms,Dundee,Yamhill,"1178 N Hwy 99W , Dundee, Or",-123.0148869,45.2739878
Green Ridge Apothecary,Mcminnville,Yamhill,"106 Ne 8Th St , Mcminnville, Or",-123.1987481,45.2134308
Medicine Tree Llc,Mcminnville,Yamhill,"2046 Or Hwy 99 Ste A , Mcminnville, Or",-123.2050852,44.2148789
New Leaf Midtown,Mcminnville,Yamhill,"2215 Ne Evans , Mcminnville, Or",-123.1948412,45.2247738
Ocean Grown Cannabis Company Llc,Mcminnville,Yamhill,"13580 Sw Hwy 99W Suite #1 , Mcminnville, Or",-123.204336,45.161171
Smooth Roots,Mcminnville,Yamhill,"1500 Sw Baker Street , Mcminnville, Or",-123.2055166,45.1981568
Top Shelf Cannabis ,Mcminnville,Yamhill,"353 Se Baker St.  Suite C, Mcminnville, Or",-123.1985502,45.2065787
Canna Bros.,Newberg,Yamhill,"2316 E Portland Rd Suite C-2 , Newberg, Or",-122.957201,45.302847
Oasis Cannabis,Newberg,Yamhill,"308 Villa Road, Suite 115 , Newberg, Or",-122.9617894,45.3025925
Western Oregon Dispensary Inc,Newberg,Yamhill,"1013 N. Springbrook Rd. , Newberg, Or",-122.947303,45.30696
Canna Bros.,Sheridan,Yamhill,"1210 W Main St , Sheridan, Or",-123.4182551,45.0975107
Pottonmouth Retail Cannabis,Sheridan,Yamhill,"950 Se Sheridan Road , Sheridan, Or",-123.3817135,45.0939535