TRADE NAME,POSTAL CITY,COUNTY,STREET ADDRESS,ZIP,Med Grade,Delivery,Full Address,long,lat
420VILLE,HUNTINGTON,BAKER,210 W. WASHINGTON ST. ,97907,,,"210 W. WASHINGTON ST. , HUNTINGTON, OR",-117.2711377,44.35094489999999
HOTBOX FARMS,HUNTINGTON,BAKER,120 E WASHINGTON ST ,97907,Yes,,"120 E WASHINGTON ST , HUNTINGTON, OR",-117.2661845,44.3511435
SUMPTER NUGGET,SUMPTER,BAKER,"160 N. MILL STREET, SUITE #102 ",97877,Yes,,"160 N. MILL STREET, SUITE #102 , SUMPTER, OR",-118.2021633,44.74570689999999
THE COUGHIE POT,SUMPTER,BAKER,363 B SOUTH MILL STREET PO BOX 74,97877,,,"363 B SOUTH MILL STREET PO BOX 74, SUMPTER, OR",-118.2023311,44.7430577
BEATNICK'S FINEST,CORVALLIS,BENTON,126 SW AVERY AVE ,97333,,,"126 SW AVERY AVE , CORVALLIS, OR",-123.2661048,44.5516046
BEAVER BOWLS,CORVALLIS,BENTON,227 SW 6TH ST ,97333,Yes,Yes,"227 SW 6TH ST , CORVALLIS, OR",-123.2645768,44.5635576
BLOOMINATI CANNABIS CORP,CORVALLIS,BENTON,240 SW WASHINGTON AVE ,97333,,,"240 SW WASHINGTON AVE , CORVALLIS, OR",-123.2623093,44.5600393
GREEN ROOM,CORVALLIS,BENTON,2521 NW 9TH ST ,97330,Yes,Yes,"2521 NW 9TH ST , CORVALLIS, OR",-123.2516316,44.5934984
GREEN ROOM (CAMPUS),CORVALLIS,BENTON,111 NW 16TH ST ,97330,Yes,Yes,"111 NW 16TH ST , CORVALLIS, OR",-123.2737373,44.5678658
GREEN ROOM (SOUTH),CORVALLIS,BENTON,1665 SE 3RD ST ,97333,,,"1665 SE 3RD ST , CORVALLIS, OR",-123.2650162,44.5496797
HIGH QUALITY COMPASSION,CORVALLIS,BENTON,1300 NW 9TH ST ,97330,Yes,Yes,"1300 NW 9TH ST , CORVALLIS, OR",-123.2610086,44.5785016
HIGH QUALITY COMPASSION,CORVALLIS,BENTON,1435 NW 9TH ST. ,97330,,,"1435 NW 9TH ST. , CORVALLIS, OR",-123.2585034,44.5810857
MARIE JANES CANNABIS CONNECTION,CORVALLIS,BENTON,568 SW 3RD ST. ,97333,Yes,Yes,"568 SW 3RD ST. , CORVALLIS, OR",-123.2638206,44.5596547
MIRACLE GREENS,CORVALLIS,BENTON,220 NW 2ND ST ,97330,,,"220 NW 2ND ST , CORVALLIS, OR",-123.2592622,44.5655749
MR. NICE GUY - 3RD ST,CORVALLIS,BENTON,504 NW 3RD ST ,97330,Yes,Yes,"504 NW 3RD ST , CORVALLIS, OR",-123.2591208,44.5685385
MR. NICE GUY CORVALLIS,CORVALLIS,BENTON,687 SW 15TH ST. ,97333,Yes,Yes,"687 SW 15TH ST. , CORVALLIS, OR",-123.2739832,44.56132059999999
NATURE'S PATH,CORVALLIS,BENTON,711 NW 3RD ST. ,97333,,,"711 NW 3RD ST. , CORVALLIS, OR",-123.2576389,44.5700547
SATIVA'S PLACE,CORVALLIS,BENTON,1106 NW VANBUREN ,97330,,,"1106 NW VANBUREN , CORVALLIS, OR",-123.2688236,44.5684373
THE AGRESTIC NORTH INC,CORVALLIS,BENTON,1945 NW 9TH ST ,97330,Yes,Yes,"1945 NW 9TH ST , CORVALLIS, OR",-123.2549424,44.5876489
OREGON BUD COMPANY ,CLACKAMAS,CLACKAMAS,16631 SE 82ND DR ,97015,Yes,Yes,"16631 SE 82ND DR , CLACKAMAS, OR",-122.5695976,45.4023444
STONEY ONLY CLACKAMAS,CLACKAMAS,CLACKAMAS,10289 SE HWY 212 ,97015,Yes,Yes,"10289 SE HWY 212 , CLACKAMAS, OR",-122.5579314,45.408242
CHALICE FARMS,DAMASCUS,CLACKAMAS,"15252 SE HIGHWAY 224, SUITE B ",97089,Yes,Yes,"15252 SE HIGHWAY 224, SUITE B , DAMASCUS, OR",-122.5054354,45.408865
GREEN APPLE NW,DAMASCUS,CLACKAMAS,24180 SE BORGES RD #A ,97089,,,"24180 SE BORGES RD #A , DAMASCUS, OR",-122.4141971,45.4547322
HASHSTORIA,GLADSTONE,CLACKAMAS,17763 SE 82ND DR STE D ,97027,,,"17763 SE 82ND DR STE D , GLADSTONE, OR",-122.5744239,45.3945219
ELECTRIC LETTUCE SUNNYSIDE,HAPPY VALLEY,CLACKAMAS,16416 SE SUNNYSIDE ROAD ,97015,,,"16416 SE SUNNYSIDE ROAD , HAPPY VALLEY, OR",-122.4942589,45.426738
STUMPTOWN CANNABIS ,HAPPY VALLEY,CLACKAMAS,10587 SE 82ND AVE ,97086,Yes,Yes,"10587 SE 82ND AVE , HAPPY VALLEY, OR",-122.5792684,45.4463511
LITTLE AMSTERDAM WELLNESS CENTER,MILWAUKIE,CLACKAMAS,18819 SE MCLOUGHLIN BOULEVARD ,97267,Yes,,"18819 SE MCLOUGHLIN BOULEVARD , MILWAUKIE, OR",-122.6096771,45.3862521
MARITIME CAFE,MILWAUKIE,CLACKAMAS,17417 SE MCLOUGHLIN BLVD. ,97267,Yes,Yes,"17417 SE MCLOUGHLIN BLVD. , MILWAUKIE, OR",-122.6179271,45.39637889999999
NECTAR,MILWAUKIE,CLACKAMAS,6335 SE HARMONY ROAD ,97222,,,"6335 SE HARMONY ROAD , MILWAUKIE, OR",-122.5976858,45.4322163
"NECTAR MARKETS, LLC",MILWAUKIE,CLACKAMAS,13800 SE MCLOUGHLIN BLVD ,97222,Yes,Yes,"13800 SE MCLOUGHLIN BLVD , MILWAUKIE, OR",-122.6330071,45.4234172
PARADISE FOUND,MILWAUKIE,CLACKAMAS,10655 SE 42ND AVENUE ,97222,,,"10655 SE 42ND AVENUE , MILWAUKIE, OR",-122.6198741,45.446227
THE GREEN PLANET,MILWAUKIE,CLACKAMAS,15080 SE MCLOUGHLIN BLVD  ,97267,Yes,Yes,"15080 SE MCLOUGHLIN BLVD  , MILWAUKIE, OR",-122.6302029,45.4146018
"TODAY'S HERBAL CHOICE MILWAUKIE, LLC",MILWAUKIE,CLACKAMAS,3087 SE MONROE ST ,97222,,,"3087 SE MONROE ST , MILWAUKIE, OR",-122.6301321,45.4455794
TOP HAT EXPRESS,MILWAUKIE,CLACKAMAS,11916 SE 22ND AVENUE SUITE B,97222,,,"11916 SE 22ND AVENUE SUITE B, MILWAUKIE, OR",-122.6407998,45.4377713
BIGFOOT BUD COMPANY,MOLALLA,CLACKAMAS,109 WEST MAIN STREET ,97038,Yes,Yes,"109 WEST MAIN STREET , MOLALLA, OR",-122.5775454,45.1477985
"TODAY'S HERBAL CHOICE, INC.",MOLALLA,CLACKAMAS,31568 S HWY 213 ,97038,Yes,,"31568 S HWY 213 , MOLALLA, OR",-122.606552,45.149632
CANNABIS NATION OREGON CITY,OREGON CITY,CLACKAMAS,1128 MAIN ST ,97045,Yes,,"1128 MAIN ST , OREGON CITY, OR",-122.6031821,45.3604722
ELECTRIC LETTUCE OREGON CITY,OREGON CITY,CLACKAMAS,1279 MOLALLA AVE ,97045,,,"1279 MOLALLA AVE , OREGON CITY, OR",-122.5905887,45.3371899
FIVE ZERO TREES OREGON CITY,OREGON CITY,CLACKAMAS,719 MAIN ST  ,97045,,,"719 MAIN ST  , OREGON CITY, OR",-122.6078166,45.3583454
GNOME GROWN OREGON,OREGON CITY,CLACKAMAS,2005 BEAVERCREEK RD. ,97045,Yes,Yes,"2005 BEAVERCREEK RD. , OREGON CITY, OR",-122.5814376,45.3330731
GNOME GROWN OREGON,OREGON CITY,CLACKAMAS,719 MOLALLA AVE ,97045,Yes,Yes,"719 MOLALLA AVE , OREGON CITY, OR",-122.5964083,45.3453883
KALEAFA,OREGON CITY,CLACKAMAS,19197 S MOLALLA AVENUE ,97045,,,"19197 S MOLALLA AVENUE , OREGON CITY, OR",-122.585007,45.3283947
WEST,OREGON CITY,CLACKAMAS,921 7TH ST.  ,97045,Yes,Yes,"921 7TH ST.  , OREGON CITY, OR",-122.6015973,45.3548725
WILD WEST EMPORIUM,OREGON CITY,CLACKAMAS,222 MOLALLA AVE ,97045,Yes,Yes,"222 MOLALLA AVE , OREGON CITY, OR",-122.5970548,45.3488438
ELECTRIC LETTUCE SANDY,PORTLAND,CLACKAMAS,2026 NE SANDY BLVD ,97232,,,"2026 NE SANDY BLVD , PORTLAND, OR",-122.6448376,45.5259373
GREEN LION,PORTLAND,CLACKAMAS,7000 SE JOHNSON CREEK BLVD. ,97206,,,"7000 SE JOHNSON CREEK BLVD. , PORTLAND, OR",-122.5905128,45.4557907
GREEN STOP MEDS,PORTLAND,CLACKAMAS,17030 SE MCLOUGHLIN BLVD ,97267,,,"17030 SE MCLOUGHLIN BLVD , PORTLAND, OR",-122.6194804,45.400655
MOUNT HOOD CANNABIS COMPANY,RHODODENDRON,CLACKAMAS,73410 US-26 ,97049,Yes,Yes,"73410 US-26 , RHODODENDRON, OR",-121.9092306,45.3269656
SMOKE ON THE MOUNTAIN LLC,WELCHES,CLACKAMAS,23860 E ARRAH WANNA BLVD ,97067,Yes,Yes,"23860 E ARRAH WANNA BLVD , WELCHES, OR",-121.9731087,45.350362
FIVE ZERO TREES ASTORIA,ASTORIA,CLATSOP,1169 COMMERCIAL ST ,97103,,,"1169 COMMERCIAL ST , ASTORIA, OR",-123.8307203,46.1889057
HASHSTORIA,ASTORIA,CLATSOP,229 W MARINE DR #C,97103,Yes,Yes,"229 W MARINE DR #C, ASTORIA, OR",-123.8482455,46.18946709999999
HI CASUAL CANNABIS,ASTORIA,CLATSOP,193 MARINE DRIVE ,97103,Yes,Yes,"193 MARINE DRIVE , ASTORIA, OR",-123.8407887,46.1904511
MR. NICE GUY ASTORIA,ASTORIA,CLATSOP,690 OLNEY AVE. ,97103,Yes,Yes,"690 OLNEY AVE. , ASTORIA, OR",-123.8364774,46.1734053
MR. NICE GUY BOND ST.,ASTORIA,CLATSOP,730 BOND STREET STE. B ,97103,Yes,Yes,"730 BOND STREET STE. B , ASTORIA, OR",-123.8353654,46.1900366
SWEET RELIEF NATURAL MEDICINE,ASTORIA,CLATSOP,1444 COMMERCIAL ST. ,97103,Yes,Yes,"1444 COMMERCIAL ST. , ASTORIA, OR",-123.828053,46.1892176
THE FARMACY,ASTORIA,CLATSOP,2911 MARINE DR. SUITE B,97103,Yes,Yes,"2911 MARINE DR. SUITE B, ASTORIA, OR",-123.8115323,46.1898588
THE FARMACY WARRENTON,ASTORIA,CLATSOP,2911 MARINE DRIVE  SUITE A,97103,,,"2911 MARINE DRIVE  SUITE A, ASTORIA, OR",-123.8115323,46.1898588
BAHAMA BUDS,CANNON BEACH,CLATSOP,1088 S HEMLOCK ST  ,97110,,,"1088 S HEMLOCK ST  , CANNON BEACH, OR",-123.9621462,45.890161
FIVE ZERO TREES CANNON BEACH,CANNON BEACH,CLATSOP,140 S HEMLOCK ST ,97110,,,"140 S HEMLOCK ST , CANNON BEACH, OR",-123.9612269,45.8963023
OREGROWN CANNON BEACH,CANNON BEACH,CLATSOP,215 N HEMLOCK ST ,97110,,,"215 N HEMLOCK ST , CANNON BEACH, OR",-123.9606526,45.89854529999999
SWEET RELIEF GEARHART,GEARHART,CLATSOP,4210 HWY 101 N. ,97138,Yes,Yes,"4210 HWY 101 N. , GEARHART, OR",-123.913678,46.0352426
CANNA BEACH JUNCTION,SEASIDE,CLATSOP,84834 HIGHWAY 101 ,97138,Yes,Yes,"84834 HIGHWAY 101 , SEASIDE, OR",-123.9220974,45.9448015
CANNABIS NATION,SEASIDE,CLATSOP,550 S ROOSEVELT DR ,97138,Yes,,"550 S ROOSEVELT DR , SEASIDE, OR",-123.9221029,45.9900941
HIGHWAY 420,SEASIDE,CLATSOP,1803 S ROOSEVELT DR  SUITE C,97138,Yes,,"1803 S ROOSEVELT DR  SUITE C, SEASIDE, OR",-123.9257016,45.9823903
OASIS CANNABIS,SEASIDE,CLATSOP,1111 S. HOLLADAY DRIVE ,97138,Yes,Yes,"1111 S. HOLLADAY DRIVE , SEASIDE, OR",-123.9234803,45.9866249
TSUNAMI MARIJUANA LLC,SEASIDE,CLATSOP,36412 HWY 26 ,97138,Yes,Yes,"36412 HWY 26 , SEASIDE, OR",-123.8180618,45.9084854
WESTERN OREGON DISPENSARY,SEASIDE,CLATSOP,38012 HWY 26 #2 ,97138,,,"38012 HWY 26 #2 , SEASIDE, OR",-123.7594284,45.9018548
HASHSTORIA,WESTPORT,CLATSOP,49332 US-30 SUITE B,97016,,,"49332 US-30 SUITE B, WESTPORT, OR",-123.3732221,46.1293578
GREEN LEAF THERAPY,RAINIER,COLUMBIA,74382 COLUMBIA RIVER HWY ,97048,,Yes,"74382 COLUMBIA RIVER HWY , RAINIER, OR",-122.9051193,46.07391630000001
GREEN LEAF THERAPY,RAINIER,COLUMBIA,74382 COLUMBIA RIVER HWY ,97048,,,"74382 COLUMBIA RIVER HWY , RAINIER, OR",-122.9051193,46.07391630000001
"TODAY'S HERBAL CHOICE RAINIER, LLC",RAINIER,COLUMBIA,75940 ROCKCREST ST C-2 ,97048,Yes,,"75940 ROCKCREST ST C-2 , RAINIER, OR",-122.961269,46.095616
EMERALD CITY DISPENSARY ,SCAPPOOSE,COLUMBIA,50414 COLUMBIA RIVER ,97056,Yes,Yes,"50414 COLUMBIA RIVER , SCAPPOOSE, OR",-122.8753814,45.7272807
GREEN LION 2,SCAPPOOSE,COLUMBIA,50178 COLUMBIA RIVER HIGHWAY ,97056,,,"50178 COLUMBIA RIVER HIGHWAY , SCAPPOOSE, OR",-122.8752564,45.7238415
SWEET RELIEF SCAPPOOSE,SCAPPOOSE,COLUMBIA,52515 COLUMBIA RIVER HWY ,97056,Yes,Yes,"52515 COLUMBIA RIVER HWY , SCAPPOOSE, OR",-122.8784572,45.7576176
GOOD GOOD ,ST. HELENS,COLUMBIA,100 ST. HELENS STREET ,97051,,,"100 ST. HELENS STREET , ST. HELENS, OR",-122.7987864,45.8641183
GREEN LION,ST. HELENS,COLUMBIA,365 S. COLUMBIA RIVER HWY ,97051,Yes,Yes,"365 S. COLUMBIA RIVER HWY , ST. HELENS, OR",-122.8247181,45.8560939
SWEET RELIEF ST. HELENS,ST. HELENS,COLUMBIA,1809 COLUMBIA BLVD ,97051,Yes,Yes,"1809 COLUMBIA BLVD , ST. HELENS, OR",-122.8159648,45.85879629999999
VERNONIA'S NATURAL CHOICE,VERNONIA,COLUMBIA,736 BRIDGE STREET STE 1 PO BOX 385,97064,Yes,,"736 BRIDGE STREET STE 1 PO BOX 385, VERNONIA, OR",-123.1927033,45.8588567
THE FLOWERSHOP ST. HELENS,WARREN,COLUMBIA,56821 COLUMBIA RIVER HWY ,97053,Yes,,"56821 COLUMBIA RIVER HWY , WARREN, OR",-122.8486822,45.8202336
COASTAL CANNABIS,BANDON,COOS,87360 HOFFER LANE ,97411,,,"87360 HOFFER LANE , BANDON, OR",-124.4208571,43.03244429999999
HERBAL CHOICES ,BANDON,COOS,50375 HWY 101  ,97411,Yes,,"50375 HWY 101  , BANDON, OR",-124.4148196,43.104628
RED BARN DISPENSARY,BANDON,COOS,265 NORTH AVE. ,97411,,,"265 NORTH AVE. , BANDON, OR",-124.3976835,43.1192741
ARATHI,COOS BAY,COOS,63049 HIGHWAY 101 ,97420,,,"63049 HIGHWAY 101 , COOS BAY, OR",-124.2064049,43.35605590000001
BAHAMA BUDS,COOS BAY,COOS,1415 N BAYSHORE DR  ,97420,Yes,Yes,"1415 N BAYSHORE DR  , COOS BAY, OR",-124.2175813,43.3783087
HERBAL CHOICES,COOS BAY,COOS,63247 TROLLER ROAD ,97420,Yes,,"63247 TROLLER ROAD , COOS BAY, OR",-124.318561,43.33824569999999
HERBAL CHOICES,COOS BAY,COOS,965 S 1ST ST ,97420,Yes,,"965 S 1ST ST , COOS BAY, OR",-124.2124236,43.35864
KING KANNABIS,COOS BAY,COOS,1544 NEWMARK AVENUE ,97420,Yes,,"1544 NEWMARK AVENUE , COOS BAY, OR",-124.2614949,43.3919843
MR. NICE GUY COOS BAY,COOS BAY,COOS,852 S BROADWAY ,97420,,Yes,"852 S BROADWAY , COOS BAY, OR",-124.2129198,43.36032420000001
MR. NICE GUY RETAIL,COOS BAY,COOS,275 S. BROADWAY ,97420,,,"275 S. BROADWAY , COOS BAY, OR",-124.2133078,43.3662174
POSITIVE VIBRATIONS,COOS BAY,COOS,1195 NEWMARK AVE SUITE A ,97420,Yes,Yes,"1195 NEWMARK AVE SUITE A , COOS BAY, OR",-124.2669043,43.3912334
REDBARN DISPENSARY,COOS BAY,COOS,170 S EMPIRE BLVD. ,97420,,,"170 S EMPIRE BLVD. , COOS BAY, OR",-124.2778897,43.392426
ROOTED COAST CANNABIS,COOS BAY,COOS,2770 WOODLAND DRIVE SUITE A,97420,Yes,Yes,"2770 WOODLAND DRIVE SUITE A, COOS BAY, OR",-124.238609,43.3873133
S & S EMPORIUM,COOS BAY,COOS,294 CENTRAL ,97420,Yes,Yes,"294 CENTRAL , COOS BAY, OR",-124.214889,43.368057
CANNABINOID EXCHANGE,COQUILLE,COOS,1080 W CENTRAL BLVD ,97423,,,"1080 W CENTRAL BLVD , COQUILLE, OR",-124.2001806,43.18642639999999
NATURAL HIGH,COQUILLE,COOS,749 RIVERSIDE DRIVE SUITE A ,97423,Yes,Yes,"749 RIVERSIDE DRIVE SUITE A , COQUILLE, OR",-124.197078,43.1741886
RED BARN DISPENSARY,COQUILLE,COOS,0 NORTH BIRCH STREET ,97423,,,"0 NORTH BIRCH STREET , COQUILLE, OR",-124.190877,43.175559
BUDS 4 U,LAKESIDE,COOS,72217 HWY101 ,97449,,,"72217 HWY101 , LAKESIDE, OR",-124.1818405,43.5914812
LA MOTA,MYRTLE POINT,COOS,1994 ROSEBURG ROAD ,97458,,,"1994 ROSEBURG ROAD , MYRTLE POINT, OR",-124.1300564,43.0508083
REDBARN DISPENSARY,MYRTLE POINT,COOS,1107 MARYLAND AVE. ,97458,,,"1107 MARYLAND AVE. , MYRTLE POINT, OR",-124.1363202,43.0596148
COASTAL HIGH WAYS,NORTH BEND,COOS,2233 BROADWAY ,97459,,,"2233 BROADWAY , NORTH BEND, OR",-124.2391068,43.403425
HERBAL CHOICES,NORTH BEND,COOS,1845 SHERMAN AVENUE ,97459,,,"1845 SHERMAN AVENUE , NORTH BEND, OR",-124.2236738,43.4087967
THE PURSUITS OF HAPPINESS,NORTH BEND,COOS,1760 VIRGINIA AVENUE  ,97459,Yes,Yes,"1760 VIRGINIA AVENUE  , NORTH BEND, OR",-124.2359918,43.40678990000001
"TODAY'S HERBAL CHOICE NB, LLC",NORTH BEND,COOS,3682 TREMONT AVE ,97459,,,"3682 TREMONT AVE , NORTH BEND, OR",-124.2207415,43.389503
BUD BROS LLC,BROOKINGS,CURRY,"1240 CHETCO AVE., STE E, F ",97415,Yes,Yes,"1240 CHETCO AVE., STE E, F , BROOKINGS, OR",-124.2970109,42.0575137
HIGH TIDE WELLNESS CENTER,BROOKINGS,CURRY,15957 US-101 SUITE #4,97415,Yes,Yes,"15957 US-101 SUITE #4, BROOKINGS, OR",-124.2487558,42.0421671
LA MOTA BROOKINGS ,BROOKINGS,CURRY,307 FERN AVE ,97415,,,"307 FERN AVE , BROOKINGS, OR",-124.2807668,42.0515913
SOUTH COAST DISPENSARIES AND MORE,BROOKINGS,CURRY,1025 CHETCO AVE #4 ,97415,Yes,Yes,"1025 CHETCO AVE #4 , BROOKINGS, OR",-124.2919429,42.0550965
STATELINE CANNABIS,BROOKINGS,CURRY,"14377 HIGHWAY 101 S.,  UNIT B ",97415,Yes,Yes,"14377 HIGHWAY 101 S.,  UNIT B , BROOKINGS, OR",-124.2079237,41.9997036
"TRYKE CITY, LLC",BROOKINGS,CURRY,407 OAK ST. UNIT B ,97415,Yes,Yes,"407 OAK ST. UNIT B , BROOKINGS, OR",-124.2782718,42.0529923
WEST COAST ORGANICS,BROOKINGS,CURRY,855 RAILROAD STREET STE. C,97415,Yes,Yes,"855 RAILROAD STREET STE. C, BROOKINGS, OR",-124.288959,42.05197580000001
WORLD FAMOUS TOP SHELF CANNABIS,BROOKINGS,CURRY,704 CHETCO AVE SUITE A ,97415,,Yes,"704 CHETCO AVE SUITE A , BROOKINGS, OR",-124.2836323,42.0525829
CLUB SOCKEYE,GOLD BEACH,CURRY,29970 ELLENSBURG AVE ,97444,Yes,Yes,"29970 ELLENSBURG AVE , GOLD BEACH, OR",-124.4179407,42.4208485
LA MOTA ,GOLD BEACH,CURRY,29846 ELLENSBURG AVE ,97444,,,"29846 ELLENSBURG AVE , GOLD BEACH, OR",-124.4196801,42.4176752
BUDMART,HARBOR,CURRY,97900 SHOPPING CENTER AVE. SUITE #37 ,97415,Yes,Yes,"97900 SHOPPING CENTER AVE. SUITE #37 , HARBOR, OR",-124.2620753,42.0494837
5TH LMNT,BEND,DESCHUTES,63552 N HWY 97 ,97701,Yes,Yes,"63552 N HWY 97 , BEND, OR",-121.2948934,44.1079884
CANNABEND,BEND,DESCHUTES,3312 N HIGHWAY 97 ,97703,Yes,Yes,"3312 N HIGHWAY 97 , BEND, OR",-121.3058414,44.08609269999999
CANNABIS NATION SUNRIVER,BEND,DESCHUTES,56789 LUNAR DRIVE ,97707,Yes,,"56789 LUNAR DRIVE , BEND, OR",-121.456825,43.8627226
CREATIVE CROPS REC,BEND,DESCHUTES,265 SE SCOTT STREET ,97702,Yes,Yes,"265 SE SCOTT STREET , BEND, OR",-121.3031247,44.0496483
DIAMONDTREE,BEND,DESCHUTES,2715 E HIGHWAY 20 ,97701,Yes,,"2715 E HIGHWAY 20 , BEND, OR",-121.2631518,44.0546495
DIAMONDTREE,BEND,DESCHUTES,1233 NW GALVESTON AVE ,97701,Yes,,"1233 NW GALVESTON AVE , BEND, OR",-121.3295721,44.0563948
DR. JOLLY'S,BEND,DESCHUTES,415 SE 3RD ST ,97702,Yes,Yes,"415 SE 3RD ST , BEND, OR",-121.3027633,44.0461063
FYRE,BEND,DESCHUTES,2650 NE DIVISION ST ,97703,,,"2650 NE DIVISION ST , BEND, OR",-121.3052458,44.0758947
GREEN CROSS CANNABIS EMPORIUM,BEND,DESCHUTES,341 SW CENTURY DR. ,97702,,,"341 SW CENTURY DR. , BEND, OR",-121.332137,44.046447
HIGHER ELEVATION,BEND,DESCHUTES,817 NW HILL STREET ,97703,Yes,Yes,"817 NW HILL STREET , BEND, OR",-121.3090102,44.05830479999999
JENNY'S DISPENSARY,BEND,DESCHUTES,932 NE 3RD ST ,97701,Yes,,"932 NE 3RD ST , BEND, OR",-121.3021573,44.059521
MIRACLE GREENS,BEND,DESCHUTES,905 SE 3RD ST ,97702,Yes,Yes,"905 SE 3RD ST , BEND, OR",-121.3033979,44.0414255
MR. NICE GUY BEND,BEND,DESCHUTES,224 SE DAVIS AVE ,97702,Yes,Yes,"224 SE DAVIS AVE , BEND, OR",-121.3032762,44.0493758
NW CHRONIC,BEND,DESCHUTES,325 NE FRANKLIN AVE ,97701,,,"325 NE FRANKLIN AVE , BEND, OR",-121.3017599,44.05574310000001
OREGON EUPHORICS,BEND,DESCHUTES,70 SW CENTURY DR. SUITE #170,97702,,,"70 SW CENTURY DR. SUITE #170, BEND, OR",-121.3304754,44.0509553
OREGROWN BEND,BEND,DESCHUTES,1199 NW WALL ST. ,97703,Yes,Yes,"1199 NW WALL ST. , BEND, OR",-121.3116487,44.0616776
PLANTAE,BEND,DESCHUTES,2115 NE HWY 20 SUITE 107,97701,Yes,Yes,"2115 NE HWY 20 SUITE 107, BEND, OR",-121.2717822,44.05407779999999
SMOKELORE,BEND,DESCHUTES,324 NW HILL ST ,97703,,,"324 NW HILL ST , BEND, OR",-121.3084765,44.05397749999999
SUBSTANCE,BEND,DESCHUTES,1814 NE DIVISION ST. ,97701,Yes,Yes,"1814 NE DIVISION ST. , BEND, OR",-121.3055765,44.06797419999999
SUBSTANCE,BEND,DESCHUTES,20365 EMPIRE AVE. STE 140 ,97703,Yes,Yes,"20365 EMPIRE AVE. STE 140 , BEND, OR",-121.3057519,44.091334
SUBSTANCE,BEND,DESCHUTES,61406 S HWY 97 ,97702,Yes,Yes,"61406 S HWY 97 , BEND, OR",-121.3105844,44.0300306
THE HERB CENTER,BEND,DESCHUTES,2205 NE DIVISION ST.  ,97703,Yes,Yes,"2205 NE DIVISION ST.  , BEND, OR",-121.3061175,44.07183920000001
THE LOCAL MARKET,BEND,DESCHUTES,1216 NE 1ST STREET SUITE 100 ,97701,Yes,Yes,"1216 NE 1ST STREET SUITE 100 , BEND, OR",-121.305224,44.06237
TOKYO SOUTH,BEND,DESCHUTES,61230 S HWY 97 ,97702,Yes,Yes,"61230 S HWY 97 , BEND, OR",-121.314631,44.0236644
TOKYO STARFISH,BEND,DESCHUTES,542 NW ARIZONA AVENUE ,97701,Yes,Yes,"542 NW ARIZONA AVENUE , BEND, OR",-121.3151897,44.0516612
TOKYO STARFISH 3,BEND,DESCHUTES,923 SE 3RD ST. ,97702,Yes,Yes,"923 SE 3RD ST. , BEND, OR",-121.3034572,44.0411852
TOP SHELF MEDICINE,BEND,DESCHUTES,815 NE GREENWOOD AVE ,97701,,,"815 NE GREENWOOD AVE , BEND, OR",-121.2935081,44.059589
GREEN KNOTTZ,LA PINE,DESCHUTES,51546 HIGHWAY 97 #7 ,97739,Yes,,"51546 HIGHWAY 97 #7 , LA PINE, OR",-121.5010769,43.6726035
HD BOTANICALS,LA PINE,DESCHUTES,51366 HWY 97 ,97739,Yes,,"51366 HWY 97 , LA PINE, OR",-121.5067651,43.6660106
HOUSE OF HASH,LA PINE,DESCHUTES,51456 HWY 97 #3 ,97739,,,"51456 HWY 97 #3 , LA PINE, OR",-121.5034263,43.6689082
LA MOTA,DRAIN,DOUGLAS,257 2ND ST ,97435,Yes,Yes,"257 2ND ST , DRAIN, OR",-123.3163886,43.6633132
REDBARN CANNABIS,MYRTLE CREEK,DOUGLAS,1069 N OLD PACIFIC HWY ,97457,Yes,Yes,"1069 N OLD PACIFIC HWY , MYRTLE CREEK, OR",-123.2999196,43.0064426
COASTAL HIGH WAYS REEDSPORT,REEDSPORT,DOUGLAS,470 FIR AVE ,97467,,,"470 FIR AVE , REEDSPORT, OR",-124.0980088,43.7017441
HERBAL CHOICES,REEDSPORT,DOUGLAS,1891 WINCHESTER AVENUE ,97467,,,"1891 WINCHESTER AVENUE , REEDSPORT, OR",-124.1185435,43.6964111
REDBARN DISPENSARY,REEDSPORT,DOUGLAS,1780 WINCHESTER AVE ,97467,,,"1780 WINCHESTER AVE , REEDSPORT, OR",-124.1160158,43.6963502
THE HOUSE OF DANK LLC,REEDSPORT,DOUGLAS,379 FIR AVE  UNITS 6-8 ,97467,Yes,,"379 FIR AVE  UNITS 6-8 , REEDSPORT, OR",-124.0967292,43.7025906
"TODAY'S HERBAL CHOICE REEDSPORT, LLC",REEDSPORT,DOUGLAS,1051 HWY 101 S ,97467,,,"1051 HWY 101 S , REEDSPORT, OR",-123.4675447,48.1067027
420 CLUB LLC,ROSEBURG,DOUGLAS,2566 NE STEPHENS ST ,97470,Yes,Yes,"2566 NE STEPHENS ST , ROSEBURG, OR",-123.3532114,43.24151699999999
CANNAKING MARIJUANA DISPENSARIES,ROSEBURG,DOUGLAS,1449 NW MULHOLLAND DR ,97470,Yes,Yes,"1449 NW MULHOLLAND DR , ROSEBURG, OR",-123.3591627,43.2271168
COUGAR CANNABIS LLC,ROSEBURG,DOUGLAS,1989 NE DIAMOND LAKE BLVD ,97470,Yes,,"1989 NE DIAMOND LAKE BLVD , ROSEBURG, OR",-123.3337758,43.2131287
FX 420 INC,ROSEBURG,DOUGLAS,"161 NW GARDEN VALLEY BLVD, SUITE 105 ",97470,Yes,,"161 NW GARDEN VALLEY BLVD, SUITE 105 , ROSEBURG, OR",-123.3552174,43.2263451
LA MOTA ,ROSEBURG,DOUGLAS,644 SE CASS AVE ,97470,Yes,Yes,"644 SE CASS AVE , ROSEBURG, OR",-123.3466539,43.2088657
LA MOTA ROSEBURG 2 LLC,ROSEBURG,DOUGLAS,573 NE STEPHEN'S ST ,97478,,,"573 NE STEPHEN'S ST , ROSEBURG, OR",-123.343154,43.21798
REDBARN DISPENSARY,ROSEBURG,DOUGLAS,634 W UMPQUA ST ,97471,,,"634 W UMPQUA ST , ROSEBURG, OR",-123.359493,43.2133404
REDBARN DISPENSARY,ROSEBURG,DOUGLAS,1810 NE STEPHENS ST. ,97470,Yes,Yes,"1810 NE STEPHENS ST. , ROSEBURG, OR",-123.3512389,43.2316587
UMPQUA GREEN CROSS,ROSEBURG,DOUGLAS,2485 NE DIAMOND LAKE BLVD  ,97470,Yes,,"2485 NE DIAMOND LAKE BLVD  , ROSEBURG, OR",-123.3244078,43.2127229
GREEN KNOTTZ CHILOQUIN,CHILOQUIN,ERROR,131 S 1ST AVE. ,97624,,,"131 S 1ST AVE. , CHILOQUIN, OR",-121.8631055,42.5756704
ROCKY MTN DISPENSARY,JOHN DAY,ERROR,27877 APPLE ROAD ,97845,Yes,,"27877 APPLE ROAD , JOHN DAY, OR",-118.9852051,44.421433
M THRIVE ORGANICS LLC,JOSEPH,ERROR,600 N MAIN STREET ,97846,,,"600 N MAIN STREET , JOSEPH, OR",-117.2294502,45.357397
"A BETTER WAY MEDICINAL ALTERNATIVES, LLC.",KLAMATH FALLS,ERROR,3255 WASHBURN WAY #5 ,97603,,,"3255 WASHBURN WAY #5 , KLAMATH FALLS, OR",-121.756377,42.1983062
EMERALD TRIANGLE DISPENSARY,KLAMATH FALLS,ERROR,2226 WASHBURN WAY ,97603,,,"2226 WASHBURN WAY , KLAMATH FALLS, OR",-121.7580508,42.2070733
EMERALD TRIANGLE DISPENSARY,KLAMATH FALLS,ERROR,3480 WASHBURN WAY SUITE D ,97603,,,"3480 WASHBURN WAY SUITE D , KLAMATH FALLS, OR",-121.7579249,42.1945889
HIGH LAKES CANNABIS CO,KLAMATH FALLS,ERROR,2820 MAYWOOD DR ,97601,,,"2820 MAYWOOD DR , KLAMATH FALLS, OR",-121.7595261,42.201343
BURNT RIVER FARMS LLC. ,ONTARIO,ERROR,1055 NW WASHINGTON ,97914,,,"1055 NW WASHINGTON , ONTARIO, OR",-116.9774885,44.0451326
CANNABIS & GLASS,ONTARIO,ERROR,182 EAST LANE ,97914,,,"182 EAST LANE , ONTARIO, OR",-116.9403995,44.02344420000001
ELEVATION 2150,ONTARIO,ERROR,2876 SW 4TH AVE  SUITE 1,97914,Yes,Yes,"2876 SW 4TH AVE  SUITE 1, ONTARIO, OR",-117.0034416,44.0248252
HOTBOX FARMS,ONTARIO,ERROR,325 NE GOODFELLOW STREET ,97914,,,"325 NE GOODFELLOW STREET , ONTARIO, OR",-116.9437467,44.0277591
THE BUD HOUSE,ONTARIO,ERROR,115 NE 2ND ST ,97914,,,"115 NE 2ND ST , ONTARIO, OR",-116.9586911,44.026978
TOP CROP CANNABIS,ONTARIO,ERROR,297 SE 10TH STREET ,97914,,,"297 SE 10TH STREET , ONTARIO, OR",-116.9508104,44.0225814
TREASURE VALLEY CANNABIS COMPANY,ONTARIO,ERROR,560 SE 12TH AVENUE ,97914,,,"560 SE 12TH AVENUE , ONTARIO, OR",-116.956609,44.0144806
WEEDOLOGY,ONTARIO,ERROR,591 EAST IDAHO ,97914,,,"591 EAST IDAHO , ONTARIO, OR",-116.954193,44.0254691
ZION,ONTARIO,ERROR,340 SE 13TH ST ,97914,,,"340 SE 13TH ST , ONTARIO, OR",-116.9447176,44.0227065
BLAZEN CANNABIS,HINES,HARNEY,800 HIGHWAY 20 S  ,97738,Yes,Yes,"800 HIGHWAY 20 S  , HINES, OR",-119.085174,43.5461229
TUMBLEWEED CANNABIS CO. LLC,HINES,HARNEY,310 NORTH HIGHWAY 20 ,97738,Yes,Yes,"310 NORTH HIGHWAY 20 , HINES, OR",-119.0795085,43.5670543
EVERGREEN HOOD RIVER,HOOD RIVER,HOOD RIVER,1408 13TH ST ,97031,Yes,Yes,"1408 13TH ST , HOOD RIVER, OR",-121.5249166,45.699943
FARM GRASS TABLE,HOOD RIVER,HOOD RIVER,4140 WESTCLIFF DRIVE ,97031,Yes,Yes,"4140 WESTCLIFF DRIVE , HOOD RIVER, OR",-121.5581082,45.7100732
FRONTIER FARMS,HOOD RIVER,HOOD RIVER,602 OAK ST. ,97031,,,"602 OAK ST. , HOOD RIVER, OR",-121.5165695,45.7090811
GORGE GREENERY ,HOOD RIVER,HOOD RIVER,13 OAK STREET ,97031,Yes,,"13 OAK STREET , HOOD RIVER, OR",-121.5110042,45.7085765
HIGH WINDS,HOOD RIVER,HOOD RIVER,1817 CASCADE AVE ,97031,Yes,,"1817 CASCADE AVE , HOOD RIVER, OR",-121.5309722,45.7093121
HOOD RIVER NATURALS,HOOD RIVER,HOOD RIVER,1020 WASCO SUITE K ,97031,Yes,Yes,"1020 WASCO SUITE K , HOOD RIVER, OR",-121.5226893,45.71176910000001
BREEZE BOTANICALS ASHLAND,ASHLAND,JACKSON,1526 SISKIYOU BLVD ,97539,Yes,,"1526 SISKIYOU BLVD , ASHLAND, OR",-122.6886811,42.183626
"HOUSE OF LEAVES, LLC",ASHLAND,JACKSON,488 N MAIN STREET ,97520,Yes,Yes,"488 N MAIN STREET , ASHLAND, OR",-122.7200206,42.2052216
KALEAFA,ASHLAND,JACKSON,"1253 SISKIYOU BLVD., STE. C ",97520,Yes,Yes,"1253 SISKIYOU BLVD., STE. C , ASHLAND, OR",-122.6935403,42.1866317
MADRONE CANNABIS CLUB,ASHLAND,JACKSON,481 APPLEGATE WAY ,97520,Yes,,"481 APPLEGATE WAY , ASHLAND, OR",-122.6553961,42.1843934
ROGUE VALLEY CANNABIS - ASHLAND,ASHLAND,JACKSON,505 SISKIYOU BLVD ,97520,Yes,Yes,"505 SISKIYOU BLVD , ASHLAND, OR",-122.7078138,42.1937337
ROGUE VALLEY CANNABIS,CENTRAL POINT,JACKSON,6388 CRATER LAKE ,97502,Yes,Yes,"6388 CRATER LAKE , CENTRAL POINT, OR",-122.8553625,42.4090844
BREEZE BOTANICALS GOLD HILL,GOLD HILL,JACKSON,315 2ND AVE   ,97525,Yes,,"315 2ND AVE   , GOLD HILL, OR",-123.0472997,42.4313879
SKUNKRX,GRANTS PASS,JACKSON,8979 ROGUE RIVER HWY ,97527,,,"8979 ROGUE RIVER HWY , GRANTS PASS, OR",-123.1722048,42.4301305
AMERICAN CANNABIS COMPANY,MEDFORD,JACKSON,2131 W MAIN SUITE A ,97501,Yes,Yes,"2131 W MAIN SUITE A , MEDFORD, OR",-122.8963437,42.3232771
C&C FARMS REC SHOP,MEDFORD,JACKSON,2390 W MAIN ST SUITE D ,97501,,,"2390 W MAIN ST SUITE D , MEDFORD, OR",-122.901613,42.3249201
"CANNABIZ EXPERIENCE, LLC",MEDFORD,JACKSON,333 N. RIVERSIDE ,97501,Yes,Yes,"333 N. RIVERSIDE , MEDFORD, OR",-122.8729474,42.3307886
CLOUD 9 WELLNESS,MEDFORD,JACKSON,1411 HILTON RD TIM@CLOUD9WELLNESS.COM,97504,Yes,Yes,"1411 HILTON RD TIM@CLOUD9WELLNESS.COM, MEDFORD, OR",-122.8674576,42.354242
DAB TOWN USA,MEDFORD,JACKSON,1244 S RIVERSIDE AVE. ,97501,,,"1244 S RIVERSIDE AVE. , MEDFORD, OR",-122.8617148,42.3139287
EMERALD TRIANGLE DISPENSARY,MEDFORD,JACKSON,246 EAST 10TH STREET ,97501,Yes,Yes,"246 EAST 10TH STREET , MEDFORD, OR",-122.8690097,42.3241694
EMERALD TRIANGLE DISPENSARY,MEDFORD,JACKSON,250 EAST 10TH STREET ,97501,,,"250 EAST 10TH STREET , MEDFORD, OR",-122.8689178,42.3242036
EMERALD TRIANGLE DISPENSARY,MEDFORD,JACKSON,1818 MCANDREWS ,97501,,,"1818 MCANDREWS , MEDFORD, OR",-122.8584758,42.3412646
FIRESIDE DISPENSARY,MEDFORD,JACKSON,4149 S PACIFIC HWY UNIT A ,97535,Yes,,"4149 S PACIFIC HWY UNIT A , MEDFORD, OR",-122.8221869,42.2806273
GRATEFUL MEDS,MEDFORD,JACKSON,2021 W MAIN ST ,97501,Yes,,"2021 W MAIN ST , MEDFORD, OR",-122.8948879,42.3227153
GROUND UP,MEDFORD,JACKSON,429 S CENTRAL AVENUE ,97501,Yes,Yes,"429 S CENTRAL AVENUE , MEDFORD, OR",-122.8684623,42.3229382
HIJINX CANNABIS CO,MEDFORD,JACKSON,3943 S. PACIFIC HIGHWAY ,97501,Yes,Yes,"3943 S. PACIFIC HIGHWAY , MEDFORD, OR",-122.8263368,42.2830676
HOUSE OF LEAVES MEDFORD,MEDFORD,JACKSON,259 E BARNETT RD #1 ,97501,Yes,Yes,"259 E BARNETT RD #1 , MEDFORD, OR",-122.8589443,42.3173567
KANOPY 7,MEDFORD,JACKSON,1252 W MCANDREWS ROAD UNIT 2,97501,Yes,Yes,"1252 W MCANDREWS ROAD UNIT 2, MEDFORD, OR",-122.8985932,42.3278776
LA MOTA,MEDFORD,JACKSON,1945 W MAIN ST ,97501,,,"1945 W MAIN ST , MEDFORD, OR",-122.8942144,42.32346649999999
LA MOTA,MEDFORD,JACKSON,1258 S RIVERSIDE AVENUE ,97501,,,"1258 S RIVERSIDE AVENUE , MEDFORD, OR",-122.8612254,42.31324679999999
LA MOTA ,MEDFORD,JACKSON,620 W STEWART AVE ,97501,Yes,Yes,"620 W STEWART AVE , MEDFORD, OR",-122.8770928,42.3131789
LA MOTA 6 LLC,MEDFORD,JACKSON,17 S RIVERSIDE AVE ,97501,,,"17 S RIVERSIDE AVE , MEDFORD, OR",-122.8701493,42.3271086
LA MOTA MEDFORD 3 LLC,MEDFORD,JACKSON,3460 N PACIFIC HWY ,97501,,,"3460 N PACIFIC HWY , MEDFORD, OR",-122.9030934,42.3581234
MARKET STREET WELLNESS,MEDFORD,JACKSON,633 MARKET ST #102 ,97504,,,"633 MARKET ST #102 , MEDFORD, OR",-122.8698614,42.3379653
MOTHER EARTH MEDICINES,MEDFORD,JACKSON,36 S. RIVERSIDE AVENUE ,97501,Yes,Yes,"36 S. RIVERSIDE AVENUE , MEDFORD, OR",-122.8702591,42.3265581
MR. NICE GUY MEDFORD,MEDFORD,JACKSON,35 W 8TH ST ,97501,,,"35 W 8TH ST , MEDFORD, OR",-122.8729649,42.32466669999999
MR. NICE GUY RETAIL,MEDFORD,JACKSON,609 E. JACKSON STREET ,97504,,,"609 E. JACKSON STREET , MEDFORD, OR",-122.8667424,42.331131
OCEAN GROWN CANNABIS COMPANY,MEDFORD,JACKSON,1597 E VILAS ROAD EAST ,97502,,,"1597 E VILAS ROAD EAST , MEDFORD, OR",-122.8539636,42.3896045
OREGON FARMACY,MEDFORD,JACKSON,1 WEST 6TH STREET SUITE 104 ,97501,Yes,,"1 WEST 6TH STREET SUITE 104 , MEDFORD, OR",-122.8743599,42.3263106
OREGON GROWN CANNABIS RECREATIONAL DISPENSARY,MEDFORD,JACKSON,1201 W. STEWART AVE ,97501,Yes,Yes,"1201 W. STEWART AVE , MEDFORD, OR",-122.8886181,42.3125173
PHARM TO TABLE,MEDFORD,JACKSON,3528 S. PACIFIC HIGHWAY ,97501,Yes,Yes,"3528 S. PACIFIC HIGHWAY , MEDFORD, OR",-122.8339463,42.28754139999999
PHARM TO TABLE,MEDFORD,JACKSON,3434 NORTH PACIFIC HIGHWAY ,97501,Yes,Yes,"3434 NORTH PACIFIC HIGHWAY , MEDFORD, OR",-122.9027234,42.3576522
ROGUE VALLEY CANNABIS - WEST MAIN,MEDFORD,JACKSON,2060 WEST MAIN ST ,97501,Yes,Yes,"2060 WEST MAIN ST , MEDFORD, OR",-122.8954841,42.3240883
SENSIBLE CANNABIS COMPANY,MEDFORD,JACKSON,3338 N PACIFIC HWY ,97504,,Yes,"3338 N PACIFIC HWY , MEDFORD, OR",-122.9010192,42.35583250000001
THE SPOT CANNABIS COLLECTIVE,MEDFORD,JACKSON,2590 CRATER LAKE HIGHWAY ,97504,,,"2590 CRATER LAKE HIGHWAY , MEDFORD, OR",-122.8670178,42.3553852
THE WICKED FLOWER SHOPPE,MEDFORD,JACKSON,600 EAST JACKSON ,97501,,,"600 EAST JACKSON , MEDFORD, OR",-122.8669716,42.3309361
WEEDBUCKS,MEDFORD,JACKSON,437 S. CENTRAL AVENUE ,97501,Yes,,"437 S. CENTRAL AVENUE , MEDFORD, OR",-122.8683815,42.3228101
TOP SHELF WELLNESS CENTER,PHOENIX,JACKSON,205 N PHOENIX RD SUITE #C ,97535,,,"205 N PHOENIX RD SUITE #C , PHOENIX, OR",-122.8172365,42.2819878
GOLD RIVER BOTANICALS ,ROGUE RIVER,JACKSON,204 MADRONE ST. ,97537,Yes,Yes,"204 MADRONE ST. , ROGUE RIVER, OR",-123.1678251,42.4315712
ROGUE RIVER HERBAL PMC,ROGUE RIVER,JACKSON,510 EAST MAIN ST  STE C,97537,Yes,Yes,"510 EAST MAIN ST  STE C, ROGUE RIVER, OR",-123.1636931,42.4323659
GRATEFUL MEDS,TALENT,JACKSON,630 HWY 99 ,97540,Yes,,"630 HWY 99 , TALENT, OR",-122.7871599,42.247125
GREEN VALLEY WELLNESS,TALENT,JACKSON,103 N PACIFIC HWY  UNITS B & C,97540,Yes,,"103 N PACIFIC HWY  UNITS B & C, TALENT, OR",-122.7850972,42.2456637
TALENT HEALTH CLUB,TALENT,JACKSON,1007 S PACIFIC HIGHWAY UNIT G,97540,Yes,,"1007 S PACIFIC HIGHWAY UNIT G, TALENT, OR",-122.7694511,42.2377276
TOP SHELF WELLNESS CENTER,WHITE CITY,JACKSON,7162 CRATER LAKE HWY ,97503,Yes,Yes,"7162 CRATER LAKE HWY , WHITE CITY, OR",-122.8514193,42.4207249
CENTRAL ORGANICS,MADRAS,JEFFERSON,780 SW 4TH ST ,97741,Yes,,"780 SW 4TH ST , MADRAS, OR",-121.1310409,44.6243942
DIAMONDTREE,MADRAS,JEFFERSON,380 N HIGHWAY 26 ,97741,Yes,,"380 N HIGHWAY 26 , MADRAS, OR",-121.1299298,44.6407337
GREEN KNOTTZ MADRAS,MADRAS,JEFFERSON,108 SW D ST  STE A,97741,Yes,,"108 SW D ST  STE A, MADRAS, OR",-121.1316536,44.633795
PIONEER CANNABIS CO.,MADRAS,JEFFERSON,141 SE 5TH STREET ,97741,Yes,Yes,"141 SE 5TH STREET , MADRAS, OR",-121.1313021,44.622509
PLANTAE,MADRAS,JEFFERSON,1100 SW HWY 97  STE 103,97741,Yes,,"1100 SW HWY 97  STE 103, MADRAS, OR",-121.1328346,44.6203695
BUD BROS LLC,CAVE JUNCTION,JOSEPHINE,335 SOUTH REDWOOD HIGHWAY ,97523,Yes,Yes,"335 SOUTH REDWOOD HIGHWAY , CAVE JUNCTION, OR",-123.6455429,42.1708034
PAPA'S DISPENSARY,CAVE JUNCTION,JOSEPHINE,214 N. REDWOOD HWY. SUITE E,97523,Yes,Yes,"214 N. REDWOOD HWY. SUITE E, CAVE JUNCTION, OR",-123.6464428,42.1703197
CAFE VERDE,GRANTS PASS,JOSEPHINE,2455 ROGUE RIVER HIGHWAY ,97526,Yes,Yes,"2455 ROGUE RIVER HIGHWAY , GRANTS PASS, OR",-123.2910865,42.4240489
DIAMOND CANNABIS ,GRANTS PASS,JOSEPHINE,300 SW 6TH STREET ,97526,Yes,,"300 SW 6TH STREET , GRANTS PASS, OR",-123.32798,42.43817000000001
FORWARD CANNABIS,GRANTS PASS,JOSEPHINE,1580 NE 7TH STREET SUITE A,97526,Yes,Yes,"1580 NE 7TH STREET SUITE A, GRANTS PASS, OR",-123.3213783,42.4559834
PURE CANNABIS & CBD,GRANTS PASS,JOSEPHINE,3600 MERLIN RD ,97526,,,"3600 MERLIN RD , GRANTS PASS, OR",-123.3681878,42.4966758
REDWOOD CANNABIS DISPENSARY,GRANTS PASS,JOSEPHINE,825 NE F ST ,97526,,,"825 NE F ST , GRANTS PASS, OR",-123.3151863,42.4381211
SOUTHERN OREGON CANNABIS CONNECTION,GRANTS PASS,JOSEPHINE,1950 NE 7TH STREET ,97526,Yes,Yes,"1950 NE 7TH STREET , GRANTS PASS, OR",-123.3211979,42.4612336
TAMERANS,GRANTS PASS,JOSEPHINE,3388 MERLIN RD.  ,97526,Yes,Yes,"3388 MERLIN RD.  , GRANTS PASS, OR",-123.370799,42.4971079
BUD JUNCTION,KERBY,JOSEPHINE,24394 REDWOOD HWY ,97531,Yes,Yes,"24394 REDWOOD HWY , KERBY, OR",-123.6503987,42.1935726
RIVER CITY RETAIL,MERLIN,JOSEPHINE,115 GALICE RD SUITE A,97532,Yes,,"115 GALICE RD SUITE A, MERLIN, OR",-123.4246147,42.516727
THE NEW AMSTERDAM,LAKEVIEW,LAKE,15 N F ST ,97630,Yes,Yes,"15 N F ST , LAKEVIEW, OR",-120.3461652,42.1898558
TOP SHELF MEDICINE 2,LAKEVIEW,LAKE,18 NORTH F STREET ,97630,Yes,Yes,"18 NORTH F STREET , LAKEVIEW, OR",-120.3456884,42.1898243
BLUE RIVER GRASS STATION,BLUE RIVER,LANE,51752 BLUE RIVER DRIVE ,97413,,,"51752 BLUE RIVER DRIVE , BLUE RIVER, OR",-122.3393967,44.1540435
APOTHECARIA,COTTAGE GROVE,LANE,700 ROW RIVER ROAD ,97424,Yes,,"700 ROW RIVER ROAD , COTTAGE GROVE, OR",-123.0398074,43.8025023
MANDY'S SUGAR SHACK,COTTAGE GROVE,LANE,339 HWY 99 SOUTH ,97424,Yes,,"339 HWY 99 SOUTH , COTTAGE GROVE, OR",-123.0616599,43.7941834
THE HOLISTIC COOP LLC,COTTAGE GROVE,LANE,1049 E MAIN ST ,97424,Yes,Yes,"1049 E MAIN ST , COTTAGE GROVE, OR",-123.0569507,43.7969628
THE MEDICATION STATION,COTTAGE GROVE,LANE,1041 HWY 99 NORTH ,97424,Yes,Yes,"1041 HWY 99 NORTH , COTTAGE GROVE, OR",-123.1442693,44.0724373
AMAZON ORGANICS,EUGENE,LANE,3443 HILYARD ST.  SUITE F,97405,Yes,Yes,"3443 HILYARD ST.  SUITE F, EUGENE, OR",-123.080992,44.0193458
APOTHCA,EUGENE,LANE,1205 ALDER ST ,97401,Yes,Yes,"1205 ALDER ST , EUGENE, OR",-123.0799525,44.046532
CANNABLISS & CO. ,EUGENE,LANE,588 E. 11TH ,97401,,Yes,"588 E. 11TH , EUGENE, OR",-123.0838986,44.0474524
ELECTRIC LETTUCE EUGENE,EUGENE,LANE,1201 W 11TH AVE ,97402,,,"1201 W 11TH AVE , EUGENE, OR",-123.1112013,44.0478991
ELEV8 CANNABIS ,EUGENE,LANE,1409 OAK ST ,97401,,,"1409 OAK ST , EUGENE, OR",-123.0909076,44.0442532
EMERALD CITY MEDICINAL ,EUGENE,LANE,1474 WEST 6TH AVENUE  ,97402,Yes,Yes,"1474 WEST 6TH AVENUE  , EUGENE, OR",-123.1150442,44.0530166
EUGENE OG,EUGENE,LANE,2045 FRANKLIN BLVD. ,97403,Yes,Yes,"2045 FRANKLIN BLVD. , EUGENE, OR",-123.0624264,44.0453177
EUGREEN HEALTH CENTER,EUGENE,LANE,1000 OBIE STREET SUITE A ,97402,Yes,Yes,"1000 OBIE STREET SUITE A , EUGENE, OR",-123.1517272,44.0491278
EUGREEN HEALTH CENTER,EUGENE,LANE,1111 WILLAMETTE ST. ,97401,Yes,Yes,"1111 WILLAMETTE ST. , EUGENE, OR",-123.092495,44.0475561
FIREHORSE TRADING CO.,EUGENE,LANE,233 W. 7TH AVE.  SUITE B,97401,Yes,Yes,"233 W. 7TH AVE.  SUITE B, EUGENE, OR",-123.0963085,44.0523331
FLOWR OF LYFE,EUGENE,LANE,114 WEST BROADWAY ,97401,Yes,Yes,"114 WEST BROADWAY , EUGENE, OR",-123.0945991,44.049812
GOING GREEN EUGENE,EUGENE,LANE,439 W 1ST AVE ,97401,,,"439 W 1ST AVE , EUGENE, OR",-123.0993481,44.0589289
GRASSLANDS DISPENSARY,EUGENE,LANE,154 LAWRENCE ST ,97401,,,"154 LAWRENCE ST , EUGENE, OR",-123.0990295,44.0581553
GREEN HEALTH EUGENE ,EUGENE,LANE,607 HIGHWAY 99 N  ,97402,Yes,Yes,"607 HIGHWAY 99 N  , EUGENE, OR",-123.1408903,44.0680056
GREEN THERAPY ,EUGENE,LANE,85938 HWY 99 S  ,97405,Yes,Yes,"85938 HWY 99 S  , EUGENE, OR",-123.1719789,44.1030411
HIGH 5 CANNABIS,EUGENE,LANE,86531 COLLEGE VIEW ROAD ,97405,Yes,Yes,"86531 COLLEGE VIEW ROAD , EUGENE, OR",-123.0216997,44.0131348
HIGHER GROUND DISPENSARY,EUGENE,LANE,324 E 12TH AVE. UNIT 2,97401,Yes,Yes,"324 E 12TH AVE. UNIT 2, EUGENE, OR",-123.087786,44.04641
HOLY GRAIL,EUGENE,LANE,1293 LINCOLN STREET ,97401,,,"1293 LINCOLN STREET , EUGENE, OR",-123.0971012,44.0456547
HUNKY DORY,EUGENE,LANE,675 LINCOLN ST ,97401,Yes,Yes,"675 LINCOLN ST , EUGENE, OR",-123.0970943,44.05243919999999
"HWY 99 CANNABIS, CO.",EUGENE,LANE,1083 B HWY 99 N. ,97402,Yes,,"1083 B HWY 99 N. , EUGENE, OR",-123.1448522,44.073116
INHALE DISPENSARY,EUGENE,LANE,86784 FRANKLIN BLVD UNIT A ,97405,Yes,Yes,"86784 FRANKLIN BLVD UNIT A , EUGENE, OR",-123.0246067,44.0179644
JAMAICA JOEL'S,EUGENE,LANE,37 W. 13TH AVE. SUITE 201 ,97401,Yes,Yes,"37 W. 13TH AVE. SUITE 201 , EUGENE, OR",-123.0930938,44.04569009999999
KODA BOY INVESTMENTS,EUGENE,LANE,86305 COLLEGE VIEW RD ,97405,,,"86305 COLLEGE VIEW RD , EUGENE, OR",-123.0198892,44.0081688
LA MOTA ,EUGENE,LANE,1291 W 7TH AVE ,97402,Yes,Yes,"1291 W 7TH AVE , EUGENE, OR",-123.1120584,44.0526338
LUCKY LION,EUGENE,LANE,2164 W 7TH AVE ,97402,,,"2164 W 7TH AVE , EUGENE, OR",-123.1261763,44.052179
MOOD,EUGENE,LANE,40 RIVER LOOP 2 BUILDING 1 SUITE B ,97404,,,"40 RIVER LOOP 2 BUILDING 1 SUITE B , EUGENE, OR",-123.1373016,44.1187856
MOSS CROSSING,EUGENE,LANE,2751 FRIENDLY ST. ,97405,Yes,Yes,"2751 FRIENDLY ST. , EUGENE, OR",-123.105192,44.0284594
MR. NICE GUY EUGENE,EUGENE,LANE,771 WASHINGTON ST ,97401,,,"771 WASHINGTON ST , EUGENE, OR",-123.1001313,44.0513054
NECTAR,EUGENE,LANE,340 RIVER ROAD ,97404,Yes,Yes,"340 RIVER ROAD , EUGENE, OR",-123.1179898,44.0658573
NECTAR,EUGENE,LANE,698 W. 6TH AVENUE ,97402,,,"698 W. 6TH AVENUE , EUGENE, OR",-123.1030838,44.0530061
NEXT LEVEL WELLNESS ,EUGENE,LANE,2837 WILLAMETTE STREET SUITE A ,97405,Yes,,"2837 WILLAMETTE STREET SUITE A , EUGENE, OR",-123.0904646,44.02729859999999
NODAK GREEN PRAIRIE,EUGENE,LANE,390 COBURG ROAD SUITE A - 2,97401,Yes,Yes,"390 COBURG ROAD SUITE A - 2, EUGENE, OR",-123.0732575,44.0668432
OREGON CANNABIS OUTLET,EUGENE,LANE,1416 W 7TH AVE ,97402,Yes,Yes,"1416 W 7TH AVE , EUGENE, OR",-123.1146084,44.0518625
OREGON CANNABIS OUTLET-WILLAMETTE,EUGENE,LANE,1361 WILLAMETTE STREET ,97401,Yes,Yes,"1361 WILLAMETTE STREET , EUGENE, OR",-123.0924749,44.0449787
OREGON MEDIGREEN,EUGENE,LANE,570 LAWRENCE ST #112 ,97401,,,"570 LAWRENCE ST #112 , EUGENE, OR",-123.09909,44.053729
OREGON'S GREEN RUSH,EUGENE,LANE,2644 RIVER ROAD #5 ,97404,Yes,Yes,"2644 RIVER ROAD #5 , EUGENE, OR",-123.1313268,44.1023589
PEACH CANNABIS,EUGENE,LANE,1553 OAK STREET ,97401,,,"1553 OAK STREET , EUGENE, OR",-123.0907486,44.04278619999999
PHRESH START,EUGENE,LANE,1055 BAILEY HILL RD STE. C & G ,97402,,,"1055 BAILEY HILL RD STE. C & G , EUGENE, OR",-123.1475902,44.049082
PROHIBITIONS FALLS,EUGENE,LANE,2270 W 11TH AVE ,97401,Yes,,"2270 W 11TH AVE , EUGENE, OR",-123.1269426,44.047582
QUICK STOP CANNABIS,EUGENE,LANE,1681 W. 7TH AVENUE ,97402,Yes,Yes,"1681 W. 7TH AVENUE , EUGENE, OR",-123.1178922,44.05244709999999
RARE EARTH DISPENSARY LLC,EUGENE,LANE,2880 ELMIRA RD SUITE B,97402,Yes,,"2880 ELMIRA RD SUITE B, EUGENE, OR",-123.1392119,44.0654394
RIVER VALLEY REMEDIES,EUGENE,LANE,1985 W 7TH AVE ,97402,Yes,Yes,"1985 W 7TH AVE , EUGENE, OR",-123.122301,44.052449
SOLUTIONS OF THE MILLENNIUM LLC,EUGENE,LANE,2893 OAK ST ,97405,Yes,,"2893 OAK ST , EUGENE, OR",-123.089518,44.0264077
SPACEBUDS,EUGENE,LANE,741 LINCOLN STREET ,97401,Yes,Yes,"741 LINCOLN STREET , EUGENE, OR",-123.0970499,44.0516621
SWEET TREE FARMS,EUGENE,LANE,4097 WEST 11TH AVE ,97402,Yes,Yes,"4097 WEST 11TH AVE , EUGENE, OR",-123.1618482,44.0485958
TERPENE STATION,EUGENE,LANE,645 RIVER ROAD SUITE 3 ,97404,Yes,Yes,"645 RIVER ROAD SUITE 3 , EUGENE, OR",-123.118157,44.0718871
THE GREENER SIDE DETROIT LAKE,EUGENE,LANE,1407 RIVER ROAD ,97404,Yes,,"1407 RIVER ROAD , EUGENE, OR",-123.1236909,44.0861054
THE HERBAL CONNECTION ,EUGENE,LANE,463 RIVER AVE. ,97404,Yes,,"463 RIVER AVE. , EUGENE, OR",-123.1181915,44.0968801
THE OZ. HOUSE,EUGENE,LANE,1775 W 6TH ST. SUITE A ,97402,Yes,Yes,"1775 W 6TH ST. SUITE A , EUGENE, OR",-123.11945,44.0535346
THE PEOPLE'S WELLNESS CENTER,EUGENE,LANE,71 CENTENNIAL LOOP SUITE B,97401,Yes,Yes,"71 CENTENNIAL LOOP SUITE B, EUGENE, OR",-123.0787384,44.0606751
TJ'S ON THE ALLEY,EUGENE,LANE,1027 WILLAMETTE STREET  ,97401,,,"1027 WILLAMETTE STREET  , EUGENE, OR",-123.092319,44.0484581
TJ'S PROVISIONS,EUGENE,LANE,1910 EMPIRE PARK DRIVE ,97402,,,"1910 EMPIRE PARK DRIVE , EUGENE, OR",-123.1539895,44.0827266
TOP CROP CANNABIS,EUGENE,LANE,"3170 W. 11TH AVENUE, UNIT A ",97402,Yes,Yes,"3170 W. 11TH AVENUE, UNIT A , EUGENE, OR",-123.1398367,44.0475637
TRACK TOWN COLLECTIVE,EUGENE,LANE,3675 FRANKLIN BLVD ,97403,,,"3675 FRANKLIN BLVD , EUGENE, OR",-123.0391837,44.0452604
TWENTY AFTER FOUR WELLNESS CENTER,EUGENE,LANE,420 BLAIR BLVD SUITE A ,97402,,Yes,"420 BLAIR BLVD SUITE A , EUGENE, OR",-123.1092306,44.0550709
BUDS 4 U,FLORENCE,LANE,1480 RHODODENDRON DR ,97439,Yes,Yes,"1480 RHODODENDRON DR , FLORENCE, OR",-124.1049541,43.9708792
HARVEST MOON CANNABIS,FLORENCE,LANE,85289 HWY 101 ,97439,Yes,,"85289 HWY 101 , FLORENCE, OR",-124.1038922,43.9511145
PREMIUM CHOICE MARIJUANA,FLORENCE,LANE,1770 HWY 126  ,97439,Yes,Yes,"1770 HWY 126  , FLORENCE, OR",-124.1022369,43.9739839
THE ARBORETUM,FLORENCE,LANE,1541 HWY 101 ,97439,Yes,Yes,"1541 HWY 101 , FLORENCE, OR",-124.1015096,43.9804257
BUDS 4 U,MAPLETON,LANE,10778 HIGHWAY 126 ,97453,Yes,,"10778 HIGHWAY 126 , MAPLETON, OR",-123.8570988,44.0250832
GREEN OAKS,OAKRIDGE,LANE,48122 OREGON 58 #A ,97463,Yes,Yes,"48122 OREGON 58 #A , OAKRIDGE, OR",-122.4643711,43.74332769999999
PHRESH START,OAKRIDGE,LANE,47670 HWY. 58 SUITE B ,97463,Yes,,"47670 HWY. 58 SUITE B , OAKRIDGE, OR",-122.4819806,43.7460449
MR. NICE GUY RETAIL,SALEM,LANE,4340 COMMERCIAL ST SE STE 120 ,97302,,,"4340 COMMERCIAL ST SE STE 120 , SALEM, OR",-123.0344377,44.8919201
"CANNABIS, LLC",SPRINGFIELD,LANE,1936 MAIN STREET ,97477,Yes,Yes,"1936 MAIN STREET , SPRINGFIELD, OR",-122.9961872,44.0462299
CANNABLISS & CO. ,SPRINGFIELD,LANE,2600 MAIN STREET SUITE E,97477,,,"2600 MAIN STREET SUITE E, SPRINGFIELD, OR",-122.9889204,44.0463365
DEEP ROOTS CANNABIS,SPRINGFIELD,LANE,2155 OLYMPIC ST. ,97477,Yes,,"2155 OLYMPIC ST. , SPRINGFIELD, OR",-122.9934813,44.0592608
GOOD KARMA,SPRINGFIELD,LANE,3332 MAIN ST ,97478,Yes,Yes,"3332 MAIN ST , SPRINGFIELD, OR",-122.9788173,44.04616739999999
HASHSTORIA,SPRINGFIELD,LANE,1840 MAIN ST ,97477,,,"1840 MAIN ST , SPRINGFIELD, OR",-122.9976618,44.0461168
K9 CHRONIC LLC,SPRINGFIELD,LANE,1505 18TH ST. STE. AB,97477,Yes,Yes,"1505 18TH ST. STE. AB, SPRINGFIELD, OR",-122.9979426,44.0587696
MID VALLEY CANNABIS,SPRINGFIELD,LANE,2147 MAIN ST ,97477,Yes,Yes,"2147 MAIN ST , SPRINGFIELD, OR",-122.9938222,44.0455232
NECTAR MARKETS,SPRINGFIELD,LANE,3650 MAIN STREET ,97478,Yes,Yes,"3650 MAIN STREET , SPRINGFIELD, OR",-122.9741023,44.0461426
OLD SCHOOL BLISS,SPRINGFIELD,LANE,2090 OLYMPIC ST  STE D,97477,,,"2090 OLYMPIC ST  STE D, SPRINGFIELD, OR",-122.9950653,44.0602413
PHRESH START LLC,SPRINGFIELD,LANE,1623 21ST ST  STE B,97477,Yes,,"1623 21ST ST  STE B, SPRINGFIELD, OR",-122.9938445,44.0589038
URBAN CANNA APOTHECARY ,SPRINGFIELD,LANE,1815 MAIN STREET #A ,97477,,,"1815 MAIN STREET #A , SPRINGFIELD, OR",-122.9746767,44.0455189
CANNA ROYAL LLC,VENETA,LANE,25805 HWY 126 SUITE 1-B  ,97487,,,"25805 HWY 126 SUITE 1-B  , VENETA, OR",-123.323961,44.053571
MR. NICE GUY VENETA,VENETA,LANE,25561 HWY 126 ,97487,Yes,Yes,"25561 HWY 126 , VENETA, OR",-123.3326795,44.0529862
OREGON'S HERBAL REMEDIES,VENETA,LANE,88344 TERRITORIAL RD  ,97487,Yes,Yes,"88344 TERRITORIAL RD  , VENETA, OR",-123.3538752,44.0553082
FLOWER POT,DEPOE BAY,LINCOLN,433 N HWY 101 ,97341,Yes,Yes,"433 N HWY 101 , DEPOE BAY, OR",-124.0631793,44.81709980000001
HIPPY TRIP,DEPOE BAY,LINCOLN,249 S US-101 ,97341,Yes,Yes,"249 S US-101 , DEPOE BAY, OR",-124.0620422,44.8085739
MR. NICE GUY DEPOE,DEPOE BAY,LINCOLN,104 N HWY 101 ,97341,Yes,Yes,"104 N HWY 101 , DEPOE BAY, OR",-124.0621259,44.8130045
TOUCH OF ALOHA,DEPOE BAY,LINCOLN,3885 N HIGHWAY 101  SUITE B ,97341,,,"3885 N HIGHWAY 101  SUITE B , DEPOE BAY, OR",-124.0448918,44.8492246
ATTIS TRADING COMPANY,LINCOLN CITY,LINCOLN,3026 NE HWY 101 #1 ,97367,Yes,Yes,"3026 NE HWY 101 #1 , LINCOLN CITY, OR",-124.005429,44.9874192
LINCOLN CITY COLLECTIVE,LINCOLN CITY,LINCOLN,1266 SW 50TH ST ,97367,Yes,Yes,"1266 SW 50TH ST , LINCOLN CITY, OR",-124.0156765,44.92850929999999
NW ADVANTAGE,LINCOLN CITY,LINCOLN,3478 NE HWY 101 ,97367,Yes,Yes,"3478 NE HWY 101 , LINCOLN CITY, OR",-124.0057284,44.99073569999999
PACIFIC WAVE,LINCOLN CITY,LINCOLN,1543 NW 19TH SUITE B ,97367,Yes,,"1543 NW 19TH SUITE B , LINCOLN CITY, OR",-124.0114993,44.9786742
PIPE DREAMS DISPENSARY,LINCOLN CITY,LINCOLN,"1745 SW HIGHWAY 101 SUITES A, B & C",97367,Yes,,"1745 SW HIGHWAY 101 SUITES A, B & C, LINCOLN CITY, OR",-124.014168,44.9554535
RENEE'S HERB STORE LLC,LINCOLN CITY,LINCOLN,3203 SW HWY 101 ,97367,Yes,Yes,"3203 SW HWY 101 , LINCOLN CITY, OR",-124.021062,44.943238
SUNRAY CANNABIS ,LINCOLN CITY,LINCOLN,1347 NW HWY 101 ,97367,Yes,,"1347 NW HWY 101 , LINCOLN CITY, OR",-124.0130246,44.9751278
T.E.R.P COLLECTIVE INC,LINCOLN CITY,LINCOLN,4355 NE HWY 101 SUITE A ,97367,Yes,Yes,"4355 NE HWY 101 SUITE A , LINCOLN CITY, OR",-124.0049732,44.9968599
CANNAMEDICINE NEWPORT,NEWPORT,LINCOLN,157 NW 15TH ST. ,97365,Yes,Yes,"157 NW 15TH ST. , NEWPORT, OR",-124.0543344,44.6480487
I AND I NEWPORT,NEWPORT,LINCOLN,452 SW BAY BLVD ,97365,Yes,,"452 SW BAY BLVD , NEWPORT, OR",-124.0543618,44.6295706
OREGON BUD COMPANY LLC,NEWPORT,LINCOLN,837 SW BAY BLVD ,97365,Yes,Yes,"837 SW BAY BLVD , NEWPORT, OR",-124.0560252,44.62692
OREGON COAST DISPENSARY INC,NEWPORT,LINCOLN,861 A. NW BEACH DRIVE ,97365,Yes,Yes,"861 A. NW BEACH DRIVE , NEWPORT, OR",-124.0610999,44.6391563
THE MEDICATION STATION,NEWPORT,LINCOLN,454 SW COAST HIGHWAY ,97365,Yes,Yes,"454 SW COAST HIGHWAY , NEWPORT, OR",-124.0578627,44.6327908
OTIS COLLECTIVE,OTIS,LINCOLN,1257 SALMON RIVER HWY ,97368,Yes,,"1257 SALMON RIVER HWY , OTIS, OR",-123.949561,45.0195242
BERNIE'S UNIVERSAL DISPENSARIES,SOUTH BEACH,LINCOLN,3842 S COAST HWY ,97366,Yes,Yes,"3842 S COAST HWY , SOUTH BEACH, OR",-124.0517905,44.6102812
GREEN DRAGON HERBAL CLINIC,TOLEDO,LINCOLN,185 N. MAIN ST ,97391,Yes,,"185 N. MAIN ST , TOLEDO, OR",-123.9375555,44.621027
COASTAL CANNABINOIDS,WALDPORT,LINCOLN,1466 SW PACIFIC COAST HIGHWAY ,97394,Yes,Yes,"1466 SW PACIFIC COAST HIGHWAY , WALDPORT, OR",-124.081435,44.41588
DISCOVERY CANNABIS,WALDPORT,LINCOLN,250 SW HWY 101 ,97394,,,"250 SW HWY 101 , WALDPORT, OR",-124.0688062,44.4246305
MR. NICE GUY WALDPORT,WALDPORT,LINCOLN,220 NW ALSEA HWY #34 ,97394,Yes,Yes,"220 NW ALSEA HWY #34 , WALDPORT, OR",-124.0627624,44.4275348
YACHATS CANNABIS COMPANY,YACHATS,LINCOLN,430 N HWY 101 ,97498,Yes,Yes,"430 N HWY 101 , YACHATS, OR",-124.1041914,44.312717
ALBANY ALTERNATIVE HEALTH SOLUTIONS,ALBANY,LINN,820 PACIFIC BLVD SE B ,97321,Yes,,"820 PACIFIC BLVD SE B , ALBANY, OR",-123.0944716,44.6326881
BEAVER BOWLS,ALBANY,LINN,1434 PACIFIC BLVD SE ,97321,,,"1434 PACIFIC BLVD SE , ALBANY, OR",-123.0863308,44.6336164
CLOUD 9 CANNABIS,ALBANY,LINN,154 MANOR ST NE ,97322,Yes,,"154 MANOR ST NE , ALBANY, OR",-123.0591124,44.6450647
EMERALD TRIANGLE DISPENSARY,ALBANY,LINN,838 PACIFIC BLVD SE ,97321,,,"838 PACIFIC BLVD SE , ALBANY, OR",-123.093767,44.6327698
FOUR SEASONS DISPENSARY AND RESOURCE CENTER,ALBANY,LINN,30943 EHLEN DRIVE STE A ,97321,Yes,,"30943 EHLEN DRIVE STE A , ALBANY, OR",-123.1518972,44.568286
"GOING GREEN ALBANY, INC.",ALBANY,LINN,1225 S COMMERCIAL WAY SE ,97322,Yes,Yes,"1225 S COMMERCIAL WAY SE , ALBANY, OR",-123.0543014,44.6303468
HOMEGROWN OREGON,ALBANY,LINN,921 SE 9TH AVE ,97322,,,"921 SE 9TH AVE , ALBANY, OR",-123.092992,44.6326586
OREGON CANNABIS CO. ,ALBANY,LINN,1977 SANTIAM HWY.  ,97322,Yes,Yes,"1977 SANTIAM HWY.  , ALBANY, OR",-123.081215,44.634401
GREEN CROSS DISPENSARY,BROWNSVILLE,LINN,221 WEST BISHOP WAY  ,97327,Yes,Yes,"221 WEST BISHOP WAY  , BROWNSVILLE, OR",-122.9866727,44.3867089
LA MOTA,LEBANON,LINN,620 S MAIN ST ,97355,Yes,Yes,"620 S MAIN ST , LEBANON, OR",-122.9072014,44.5397959
LA MOTA LEBANON 2 LLC ,LEBANON,LINN,260 N SANTIAM HWY ,97355,,,"260 N SANTIAM HWY , LEBANON, OR",-122.9074858,44.5475596
LA MOTA LEBANON 3 LLC ,LEBANON,LINN,2645 S MAIN RD  ,97355,,,"2645 S MAIN RD  , LEBANON, OR",-122.90678,44.5207282
MODERN FOREST,LEBANON,LINN,634 S. MAIN STREET ,97355,Yes,Yes,"634 S. MAIN STREET , LEBANON, OR",-122.9074821,44.539617
MR. NICE GUY LEBANON,LEBANON,LINN,700 PARK ST ,97355,Yes,Yes,"700 PARK ST , LEBANON, OR",-122.9057487,44.5388783
THE OZ. HOUSE,LEBANON,LINN,712 PARK ST ,97355,Yes,Yes,"712 PARK ST , LEBANON, OR",-122.9057302,44.53894469999999
WANDERLUST LEBANON LLC,LEBANON,LINN,1111 S MAIN ST ,97355,,,"1111 S MAIN ST , LEBANON, OR",-122.9067639,44.5353887
"17 FARMS, LLC",SWEET HOME,LINN,550 MAIN STREET ,97386,,,"550 MAIN STREET , SWEET HOME, OR",-122.7377478,44.3984258
GOING GREEN SWEET HOME,SWEET HOME,LINN,925 MAIN ST  ,97386,Yes,Yes,"925 MAIN ST  , SWEET HOME, OR",-122.7333659,44.3970877
LA MOTA ,SWEET HOME,LINN,4320 HWY 20 ,97386,,,"4320 HWY 20 , SWEET HOME, OR",-122.6898772,44.4047612
LA MOTA SWEET HOME LLC,SWEET HOME,LINN,1025-1027 MAIN STREET ,97386,Yes,Yes,"1025-1027 MAIN STREET , SWEET HOME, OR",-122.7315235,44.3973114
TANGENT FARMACY,TANGENT,LINN,32990 HWY 99E ,97389,Yes,,"32990 HWY 99E , TANGENT, OR",-123.1104419,44.5411376
JUSTICE CANNABIS COMPANY,AURORA,MARION,21558 OR-99E ,97002,,,"21558 OR-99E , AURORA, OR",-122.7555435,45.2310728
CANYON CANNABIS,GATES,MARION,106 E CENTRAL ST ,97346,Yes,,"106 E CENTRAL ST , GATES, OR",-122.4158751,44.7553811
HIERBA BUENA ,HUBBARD,MARION,3674 PACIFIC HWY ,97032,,,"3674 PACIFIC HWY , HUBBARD, OR",-122.8039153,45.1814832
"ALPHA ALTERNATIVE SOLUTIONS, LLC",KEIZER,MARION,3700 RIVER ROAD N SUITE 11,97303,Yes,Yes,"3700 RIVER ROAD N SUITE 11, KEIZER, OR",-123.026161,44.9797391
OREGON BUD COMPANY ,KEIZER,MARION,3450 RIVER RD N ,97303,Yes,Yes,"3450 RIVER RD N , KEIZER, OR",-123.0268221,44.97561899999999
THE GRASS HUT II,KEIZER,MARION,4085 CHERRY AVENUE NE  ,97303,Yes,,"4085 CHERRY AVENUE NE  , KEIZER, OR",-123.0253042,44.98415
A PRIME LEAF,SALEM,MARION,2974 12TH ST SE ,97302,Yes,,"2974 12TH ST SE , SALEM, OR",-123.0303998,44.91178619999999
CANNAMEDICINE,SALEM,MARION,3212 TRIANGLE DR SE ,97302,Yes,Yes,"3212 TRIANGLE DR SE , SALEM, OR",-123.0461613,44.91000890000001
CAPITOL GREEN LEAF,SALEM,MARION,1890 CAPITOL ST NE ,97301,Yes,Yes,"1890 CAPITOL ST NE , SALEM, OR",-123.0201465,44.9546489
CHERRY CITY COMPASSION,SALEM,MARION,1855 25TH STREET ,97302,,,"1855 25TH STREET , SALEM, OR",-123.0107157,44.9201081
CLUB PITBULL,SALEM,MARION,1860 STATE ST ,97301,Yes,,"1860 STATE ST , SALEM, OR",-123.0186424,44.9346361
CRUSH CANNABIS,SALEM,MARION,2345 CENTER ST. NE ,97301,,,"2345 CENTER ST. NE , SALEM, OR",-123.0092726,44.94022289999999
CRUSH CANNABIS,SALEM,MARION,1026 COMMERCIAL ST NE ,97301,,,"1026 COMMERCIAL ST NE , SALEM, OR",-123.0354357,44.9506999
DIEM,SALEM,MARION,1040 COMMERCIAL STREET SE ,97302,Yes,Yes,"1040 COMMERCIAL STREET SE , SALEM, OR",-123.0436139,44.9308456
EDEN,SALEM,MARION,4618 PORTLAND RD. NE #110 ,97305,,,"4618 PORTLAND RD. NE #110 , SALEM, OR",-122.9891176,44.9869466
GREEN CROSS CANNABIS EMPORIUM,SALEM,MARION,4550 COMMERCIAL ST SE ,97302,Yes,,"4550 COMMERCIAL ST SE , SALEM, OR",-123.0331346,44.88848369999999
GREEN CROSS CANNABIS EMPORIUM,SALEM,MARION,3165 RIVER ROAD N ,97303,Yes,,"3165 RIVER ROAD N , SALEM, OR",-123.0301617,44.97227119999999
HERBAL REMEDIES 2,SALEM,MARION,3940 COMMERCIAL ST SE ,97302,Yes,Yes,"3940 COMMERCIAL ST SE , SALEM, OR",-123.0379973,44.8989309
HI CASCADE,SALEM,MARION,5070 COMMERCIAL ST SE SUITE 115 & 120,97306,Yes,Yes,"5070 COMMERCIAL ST SE SUITE 115 & 120, SALEM, OR",-123.0293173,44.8817618
HOMEGROWN OREGON,SALEM,MARION,2820 LIBERTY STREET NE ,97301,Yes,Yes,"2820 LIBERTY STREET NE , SALEM, OR",-123.0313958,44.9679624
HOMEGROWN OREGON,SALEM,MARION,1803 LANSING NE  ,97301,Yes,Yes,"1803 LANSING NE  , SALEM, OR",-122.9981015,44.9517203
INHALE DISPENSARY,SALEM,MARION,2410 MISSION STREET SE SUITE 010 ,97302,,,"2410 MISSION STREET SE SUITE 010 , SALEM, OR",-123.0126853,44.923092
KAYA SHACK (2),SALEM,MARION,5757 COMMERCIAL ST SE  SUITE 108,97306,,,"5757 COMMERCIAL ST SE  SUITE 108, SALEM, OR",-123.0243225,44.8711594
KAYA SHACK (4),SALEM,MARION,1252 23RD ST SUITE 150 ,97302,,,"1252 23RD ST SUITE 150 , SALEM, OR",-123.014331,44.92313790000001
LIVEWELL CANNABIS,SALEM,MARION,696 HAWTHORNE AVE NE ,97301,Yes,,"696 HAWTHORNE AVE NE , SALEM, OR",-122.9914549,44.9392567
LIVEWELL DISPENSARY,SALEM,MARION,1522 BROADWAY ST NE ,97301,Yes,,"1522 BROADWAY ST NE , SALEM, OR",-123.0294439,44.9537938
MARKET STREET STATION,SALEM,MARION,3175 MARKET STREET NE ,97301,Yes,,"3175 MARKET STREET NE , SALEM, OR",-122.9967462,44.95099570000001
MOON BEAM BUDZ,SALEM,MARION,2390  FAIRGROUNDS NE ,97301,,,"2390  FAIRGROUNDS NE , SALEM, OR",-123.0159334,44.9592933
MR. NICE GUY MARKET ST,SALEM,MARION,2794 MARKET ST NE ,97301,,,"2794 MARKET ST NE , SALEM, OR",-123.0010413,44.94956570000001
MR. NICE GUY RETAIL,SALEM,MARION,4340 COMMERCIAL STREET SE SUITE 170,97302,,,"4340 COMMERCIAL STREET SE SUITE 170, SALEM, OR",-123.0344377,44.8919201
MR. NICE GUY SALEM,SALEM,MARION,1460 STATE STREET ,97301,Yes,Yes,"1460 STATE STREET , SALEM, OR",-123.0235334,44.9358529
MR. NICE GUY SALEM,SALEM,MARION,3755 COMMERCIAL ST SE ,97302,Yes,Yes,"3755 COMMERCIAL ST SE , SALEM, OR",-123.0407662,44.90179
MR. NICE GUY SALEM,SALEM,MARION,1640 CAPITOL ST NE  ,97301,,,"1640 CAPITOL ST NE  , SALEM, OR",-123.0211509,44.9525629
NECTAR,SALEM,MARION,4142 LIBERTY ROAD S ,97302,Yes,Yes,"4142 LIBERTY ROAD S , SALEM, OR",-123.0553809,44.8954451
NECTAR ,SALEM,MARION,"1130 ROYVONNE AVE SE, #104 ",97302,,,"1130 ROYVONNE AVE SE, #104 , SALEM, OR",-123.0318444,44.8853279
OG COLLECTIVE,SALEM,MARION,1617 LIBERTY ST NE ,97301,,,"1617 LIBERTY ST NE , SALEM, OR",-123.0323384,44.9553225
"OG COLLECTIVE, LLC",SALEM,MARION,3537 COMMERCIAL ST SE ,97302,Yes,Yes,"3537 COMMERCIAL ST SE , SALEM, OR",-123.0415611,44.90380769999999
"OG COLLECTIVE, LLC",SALEM,MARION,3410 HAWTHORNE AVE NE ,97301,Yes,Yes,"3410 HAWTHORNE AVE NE , SALEM, OR",-122.9907995,44.9688186
"OG COLLECTIVE, LLC",SALEM,MARION,1255 CROSS ST SE SUITE 150,97302,Yes,Yes,"1255 CROSS ST SE SUITE 150, SALEM, OR",-123.0298231,44.9259598
OREGON CANNABIS OUTLET,SALEM,MARION,1330 12TH STREET SE SUITE 100,97302,Yes,Yes,"1330 12TH STREET SE SUITE 100, SALEM, OR",-123.0302173,44.92453039999999
PIPER'S DISPENSARY,SALEM,MARION,1729 CENTER ST. NE #170 ,97301,Yes,,"1729 CENTER ST. NE #170 , SALEM, OR",-123.017607,44.9396903
PRESERVE OREGON,SALEM,MARION,1201 COMMERCIAL ST SE  ,97302,Yes,Yes,"1201 COMMERCIAL ST SE  , SALEM, OR",-123.0444862,44.9291048
REEFER MADNESS,SALEM,MARION,1675 FAIRGROUNDS RD. NE ,97301,Yes,,"1675 FAIRGROUNDS RD. NE , SALEM, OR",-123.0249453,44.9540863
RIVER VALLEY REMEDIES,SALEM,MARION,1487 BROADWAY ST NE ,97301,,,"1487 BROADWAY ST NE , SALEM, OR",-123.0307916,44.953394
"SALEM ORGANICS, LLC",SALEM,MARION,4980 COMMERCIAL STREET SE ,97302,Yes,Yes,"4980 COMMERCIAL STREET SE , SALEM, OR",-123.0311255,44.8840178
THC RECREATION STATION SALEM,SALEM,MARION,1295 OXFORD ST SE ,97302,Yes,Yes,"1295 OXFORD ST SE , SALEM, OR",-123.0294968,44.92224359999999
THE BAKE SHOP,SALEM,MARION,3125B PORTLAND RD NE  ,97301,,,"3125B PORTLAND RD NE  , SALEM, OR",-123.0092255,44.9672508
THE HOLISTIC CHOICE,SALEM,MARION,1045 COMMERCIAL ST SE ,97302,Yes,Yes,"1045 COMMERCIAL ST SE , SALEM, OR",-123.0447359,44.9306981
THE JOINT ,SALEM,MARION,3270 MARKET ST. NE ,97301,Yes,Yes,"3270 MARKET ST. NE , SALEM, OR",-122.9945841,44.9497708
THE JOINT ON STATE,SALEM,MARION,2350 STATE ST ,97301,Yes,Yes,"2350 STATE ST , SALEM, OR",-123.0132812,44.9331653
TOKYO STARFISH 4,SALEM,MARION,1695 CENTER STREET ,97301,,,"1695 CENTER STREET , SALEM, OR",-123.01826,44.939529
TRUTH DISPENSARY,SALEM,MARION,1735 LANCASTER DR. NE ,97305,Yes,Yes,"1735 LANCASTER DR. NE , SALEM, OR",-122.9839854,44.9510958
WORLD FAMOUS TOP SHELF CANNABIS,SALEM,MARION,"2440 MCGILCHRIST STREET, SE ",97302,Yes,Yes,"2440 MCGILCHRIST STREET, SE , SALEM, OR",-123.0111642,44.9163703
"YAK, INC.",SALEM,MARION,1215 WILBUR ST SE ,97302,,,"1215 WILBUR ST SE , SALEM, OR",-123.0300633,44.9250887
SILVER CREEK DISPENSARY,SILVERTON,MARION,307 E. MAIN STREET ,97381,Yes,Yes,"307 E. MAIN STREET , SILVERTON, OR",-122.7816999,45.0058933
THE LUCKY LEAF,SILVERTON,MARION,208 JERSEY ST ,97381,Yes,Yes,"208 JERSEY ST , SILVERTON, OR",-122.7816598,45.00413500000001
CANNA BROS. STAYTON,STAYTON,MARION,2440 MARTIN DR ,97383,,,"2440 MARTIN DR , STAYTON, OR",-122.7930295,44.8130563
HOMEGROWN REMEDIES,STAYTON,MARION,277 N 3RD AVE ,97383,Yes,,"277 N 3RD AVE , STAYTON, OR",-122.7925667,44.79698639999999
"TODAY'S HERBAL CHOICE STAYTON, LLC",STAYTON,MARION,494 WILCO ROAD ,97132,,,"494 WILCO ROAD , STAYTON, OR",-122.8146191,44.7985627
HGR2,TURNER,MARION,7314 3RD ST SE ,97392,Yes,,"7314 3RD ST SE , TURNER, OR",-122.9546727,44.8491352
TREESTAR,WOODBURN,MARION,1385 INDUSTRIAL AVE. ,97071,Yes,Yes,"1385 INDUSTRIAL AVE. , WOODBURN, OR",-122.8304041,45.1578379
CANNABIS NATION,GRESHAM,MULTNOMAH,1500 NE DIVISION ST ,97030,Yes,,"1500 NE DIVISION ST , GRESHAM, OR",-122.4164357,45.50453479999999
GREEN MOUNTAIN FIRE,GRESHAM,MULTNOMAH,21951 SE STARK ST. ,97030,Yes,Yes,"21951 SE STARK ST. , GRESHAM, OR",-122.4361964,45.5192801
KALEAFA GRESHAM,GRESHAM,MULTNOMAH,1450 SE ORIENT DRIVE ,97080,Yes,Yes,"1450 SE ORIENT DRIVE , GRESHAM, OR",-122.3970904,45.4863837
NECTAR,GRESHAM,MULTNOMAH,505 NW BURNSIDE ,97030,Yes,Yes,"505 NW BURNSIDE , GRESHAM, OR",-122.4370705,45.5107775
SWED.CO,GRESHAM,MULTNOMAH,2058 NW BURNSIDE ,97030,Yes,,"2058 NW BURNSIDE , GRESHAM, OR",-122.4535661,45.514242
LA MOTA COURT LLC,MEDFORD,MULTNOMAH,1037 COURT ST ,97501,,,"1037 COURT ST , MEDFORD, OR",-122.8806008,42.3366955
4.0 BELMONT,PORTLAND,MULTNOMAH,4011 SE BELMONT ST. ,97214,,Yes,"4011 SE BELMONT ST. , PORTLAND, OR",-122.621418,45.5167232
ALTERNATIVE REMEDIES,PORTLAND,MULTNOMAH,8109 SE FLAVEL ,97206,Yes,Yes,"8109 SE FLAVEL , PORTLAND, OR",-122.5802249,45.4688257
ALTERNATIVE SOLUTIONS ,PORTLAND,MULTNOMAH,13560 SE POWELL BLVD. ,97236,Yes,Yes,"13560 SE POWELL BLVD. , PORTLAND, OR",-122.523903,45.497592
AMBERLIGHT CANNABIS HOUSE,PORTLAND,MULTNOMAH,2407 SE 49TH AVE ,97206,,,"2407 SE 49TH AVE , PORTLAND, OR",-122.6122374,45.5050959
AMERICANNA RX,PORTLAND,MULTNOMAH,8654 NE SANDY BLVD ,97220,Yes,Yes,"8654 NE SANDY BLVD , PORTLAND, OR",-122.5734855,45.5543049
ARATHI,PORTLAND,MULTNOMAH,3376 NE SANDY BLVD ,97232,,,"3376 NE SANDY BLVD , PORTLAND, OR",-122.629286,45.5320487
ARCHIVE PORTLAND,PORTLAND,MULTNOMAH,10645 SE HENRY STREET SUITE B,97266,Yes,Yes,"10645 SE HENRY STREET SUITE B, PORTLAND, OR",-122.5532162,45.4767263
ASCEND DISPENSARY,PORTLAND,MULTNOMAH,13836 & 13826 NE SANDY BLVD ,97230,Yes,Yes,"13836 & 13826 NE SANDY BLVD , PORTLAND, OR",-122.5206833,45.5534626
ATTIS TRADING COMPANY,PORTLAND,MULTNOMAH,7737 SW BARBUR BLVD ,97219,Yes,Yes,"7737 SW BARBUR BLVD , PORTLAND, OR",-122.6925977,45.4688952
ATTIS TRADING COMPANY,PORTLAND,MULTNOMAH,4920 NE CULLY BLVD ,97218,Yes,Yes,"4920 NE CULLY BLVD , PORTLAND, OR",-122.5978496,45.5587277
ATTIS TRADING COMPANY,PORTLAND,MULTNOMAH,"2606 SE GLADSTONE ST, #101 ",97202,Yes,Yes,"2606 SE GLADSTONE ST, #101 , PORTLAND, OR",-122.639317,45.4930354
B AND M HOLDINGS,PORTLAND,MULTNOMAH,2410 N MISSISSIPPI AVE SUITE 100,97227,,,"2410 N MISSISSIPPI AVE SUITE 100, PORTLAND, OR",-122.6754708,45.5400641
BE WONDERFUL WELLNESS-DISPENSARY,PORTLAND,MULTNOMAH,4565 NE 60TH AVE. ,97218,Yes,Yes,"4565 NE 60TH AVE. , PORTLAND, OR",-122.6011285,45.5564037
BELMONT COLLECTIVE,PORTLAND,MULTNOMAH,2036 SE BELMONT ST ,97214,Yes,Yes,"2036 SE BELMONT ST , PORTLAND, OR",-122.644721,45.516246
BIG MEDICINE BOTANICALS LLC,PORTLAND,MULTNOMAH,5594 NE COLUMBIA BLVD ,97218,,,"5594 NE COLUMBIA BLVD , PORTLAND, OR",-122.6055362,45.5692233
BRIDGE CITY COLLECTIVE,PORTLAND,MULTNOMAH,4312 N WILLIAMS AVE ,97217,Yes,Yes,"4312 N WILLIAMS AVE , PORTLAND, OR",-122.6665644,45.5550209
BRIDGE CITY COLLECTIVE,PORTLAND,MULTNOMAH,215 SE GRAND AVENUE ,97214,Yes,Yes,"215 SE GRAND AVENUE , PORTLAND, OR",-122.661031,45.5212015
BROADWAY CANNABIS MARKET,PORTLAND,MULTNOMAH,427 NW BROADWAY AVE ,97209,,,"427 NW BROADWAY AVE , PORTLAND, OR",-122.6779195,45.52635009999999
BROTHERS CANNABIS,PORTLAND,MULTNOMAH,3609 SE DIVISION ST ,97202,Yes,Yes,"3609 SE DIVISION ST , PORTLAND, OR",-122.6261699,45.5049336
BROTHERS CANNABIS,PORTLAND,MULTNOMAH,1328 SE MORRISON ST. ,97214,Yes,,"1328 SE MORRISON ST. , PORTLAND, OR",-122.6520865,45.5169485
BROTHERS CANNABIS,PORTLAND,MULTNOMAH,1639 SE FLAVEL ,97202,,,"1639 SE FLAVEL , PORTLAND, OR",-122.6486609,45.47103509999999
BTHCR PDX LLC,PORTLAND,MULTNOMAH,6611 SE POWELL BLVD ,97206,,,"6611 SE POWELL BLVD , PORTLAND, OR",-122.5952538,45.4977944
BUDDING CULTURE ,PORTLAND,MULTNOMAH,6802 NE BROADWAY ST  ,97213,,,"6802 NE BROADWAY ST  , PORTLAND, OR",-122.5931546,45.53471589999999
BUDLANDIA,PORTLAND,MULTNOMAH,16440 SE DIVISION ST SUITE B ,97236,Yes,,"16440 SE DIVISION ST SUITE B , PORTLAND, OR",-122.494031,45.5042908
BUDLANDIA,PORTLAND,MULTNOMAH,8135 SE WOODWARD ST ,97206,Yes,Yes,"8135 SE WOODWARD ST , PORTLAND, OR",-122.5791349,45.5016085
BUDLANDIA,PORTLAND,MULTNOMAH,7536 NE MARTIN LUTHER KING BLVD ,97211,,,"7536 NE MARTIN LUTHER KING BLVD , PORTLAND, OR",-122.6609394,45.5778522
CANNA DADDY'S,PORTLAND,MULTNOMAH,17020 SE DIVISION ST. ,97236,,,"17020 SE DIVISION ST. , PORTLAND, OR",-122.4870142,45.5044117
CANNABIS CORNER,PORTLAND,MULTNOMAH,5431 SE  72ND AVE. ,97206,Yes,Yes,"5431 SE  72ND AVE. , PORTLAND, OR",-122.5894743,45.48324119999999
CANNABLISS & CO. ,PORTLAND,MULTNOMAH,1917 SE 7TH AVE ,97214,,Yes,"1917 SE 7TH AVE , PORTLAND, OR",-122.6590664,45.5090527
CANNABLISS & CO. ,PORTLAND,MULTNOMAH,2231 W BURNSIDE ST ,97210,,Yes,"2231 W BURNSIDE ST , PORTLAND, OR",-122.6970349,45.523471
CANNABLISS AND CO,PORTLAND,MULTNOMAH,8701 SE POWELL BLVD. ,97266,Yes,Yes,"8701 SE POWELL BLVD. , PORTLAND, OR",-122.5730278,45.4977713
CANNASOURCE,PORTLAND,MULTNOMAH,4435 NE 148TH AVE UNIT C ,97230,Yes,Yes,"4435 NE 148TH AVE UNIT C , PORTLAND, OR",-122.5117159,45.5550878
CAREFREE CANNABIS,PORTLAND,MULTNOMAH,5926 NE KILLINGSWORTH ST ,97218,,,"5926 NE KILLINGSWORTH ST , PORTLAND, OR",-122.6013462,45.5625854
CHALICE FARMS,PORTLAND,MULTNOMAH,"13315 NE AIRPORT WAY, 700A ",97230,Yes,Yes,"13315 NE AIRPORT WAY, 700A , PORTLAND, OR",-122.525338,45.56268499999999
CHALICE FARMS,PORTLAND,MULTNOMAH,5333 SE POWELL BLVD ,97206,Yes,Yes,"5333 SE POWELL BLVD , PORTLAND, OR",-122.6073072,45.4977356
CHALICE FARMS,PORTLAND,MULTNOMAH,823 SW NAITO PARKWAY ,97204,Yes,Yes,"823 SW NAITO PARKWAY , PORTLAND, OR",-122.6734059,45.5164783
CLUB SKY HIGH,PORTLAND,MULTNOMAH,8957 N LOMBARD ST. ,97203,Yes,Yes,"8957 N LOMBARD ST. , PORTLAND, OR",-122.756702,45.5922812
COLLECTIVE AWAKENINGS,PORTLAND,MULTNOMAH,2823 NE SANDY BLVD. ,97232,Yes,Yes,"2823 NE SANDY BLVD. , PORTLAND, OR",-122.636966,45.5295013
CURALEAF,PORTLAND,MULTNOMAH,5103 NE FREMONT ST  ,97213,,Yes,"5103 NE FREMONT ST  , PORTLAND, OR",-122.610087,45.5484022
CURED GREEN,PORTLAND,MULTNOMAH,3715 N LOMBARD ST STE. B ,97217,,Yes,"3715 N LOMBARD ST STE. B , PORTLAND, OR",-122.7050846,45.5772944
DEANZ GREENZ,PORTLAND,MULTNOMAH,10415 NE SANDY BLVD. ,97220,Yes,Yes,"10415 NE SANDY BLVD. , PORTLAND, OR",-122.5553693,45.5591436
DEANZ GREENZ,PORTLAND,MULTNOMAH,5625 B SE 85TH AVENUE ,97266,Yes,,"5625 B SE 85TH AVENUE , PORTLAND, OR",-122.5761366,45.4817166
DEANZ GREENZ,PORTLAND,MULTNOMAH,14154 SE DIVISION ST ,97236,,,"14154 SE DIVISION ST , PORTLAND, OR",-122.5172857,45.503879
DEANZ GREENZ,PORTLAND,MULTNOMAH,851 NE COLUMBIA BLVD ,97211,,,"851 NE COLUMBIA BLVD , PORTLAND, OR",-122.6562983,45.5798433
DIEM,PORTLAND,MULTNOMAH,305 SE 3RD AVE SUITE #203 ,97214,Yes,Yes,"305 SE 3RD AVE SUITE #203 , PORTLAND, OR",-122.663022,45.5206251
DOCTOR'S ORDERS,PORTLAND,MULTNOMAH,3424 NE 82ND AVE ,97220,Yes,,"3424 NE 82ND AVE , PORTLAND, OR",-122.578445,45.5475428
EDEN,PORTLAND,MULTNOMAH,7420 NE SANDY BOULEVARD ,97213,,,"7420 NE SANDY BOULEVARD , PORTLAND, OR",-122.5864769,45.549004
EDEN,PORTLAND,MULTNOMAH,128 SE 12TH AVE. ,97214,,,"128 SE 12TH AVE. , PORTLAND, OR",-122.6532447,45.52176499999999
EDEN,PORTLAND,MULTNOMAH,4124 SE 60TH AVE. SUITE B,97220,,,"4124 SE 60TH AVE. SUITE B, PORTLAND, OR",-122.6015748,45.49274339999999
ELECTRIC LETTUCE,PORTLAND,MULTNOMAH,12131 SE HOLGATE BLVD ,97266,,,"12131 SE HOLGATE BLVD , PORTLAND, OR",-122.5382728,45.4899659
ELECTRIC LETTUCE ALBERTA,PORTLAND,MULTNOMAH,1313 NE ALBERTA ST ,97211,,,"1313 NE ALBERTA ST , PORTLAND, OR",-122.6522553,45.5592855
ELECTRIC LETTUCE LLOYD DISTRICT,PORTLAND,MULTNOMAH,203 NE WEIDLER ST. ,97232,Yes,Yes,"203 NE WEIDLER ST. , PORTLAND, OR",-122.6634883,45.5345115
ELECTRIC LETTUCE OLD TOWN,PORTLAND,MULTNOMAH,214 NW COUCH STREET ,97209,,,"214 NW COUCH STREET , PORTLAND, OR",-122.6726458,45.5237048
ELECTRIC LETTUCE SELLWOOD,PORTLAND,MULTNOMAH,7703 SE 13TH AVE. ,97202,,,"7703 SE 13TH AVE. , PORTLAND, OR",-122.6531851,45.4691457
EXODUS WELLNESS CENTER,PORTLAND,MULTNOMAH,16211 SE POWELL ,97236,Yes,,"16211 SE POWELL , PORTLAND, OR",-122.496387,45.4948841
FARMA,PORTLAND,MULTNOMAH,916 SE HAWTHORNE BLVD.  ,97214,Yes,Yes,"916 SE HAWTHORNE BLVD.  , PORTLAND, OR",-122.6562628,45.5120876
FIDUS PDX,PORTLAND,MULTNOMAH,7501 SW CAPITOL HWY ,97219,Yes,Yes,"7501 SW CAPITOL HWY , PORTLAND, OR",-122.7079535,45.4702282
FIVE ZERO TREES DEKUM,PORTLAND,MULTNOMAH,909 NE DEKUM ST ,97211,,,"909 NE DEKUM ST , PORTLAND, OR",-122.6563248,45.5719213
FIVE ZERO TREES PORTLAND EAST ,PORTLAND,MULTNOMAH,10209-02 SE DIVISION AVE. ,97266,,,"10209-02 SE DIVISION AVE. , PORTLAND, OR",-122.5583379,45.5047772
FIVE ZERO TREES PORTLAND WEST,PORTLAND,MULTNOMAH,5336 SW BEAVERTON-HILLSDALE HWY. ,97221,,,"5336 SW BEAVERTON-HILLSDALE HWY. , PORTLAND, OR",-122.7323812,45.4866973
FLOYD'S,PORTLAND,MULTNOMAH,2515 NW NICOLAI ,97210,,,"2515 NW NICOLAI , PORTLAND, OR",-122.7041144,45.540867
FLOYD'S FINE CANNABIS,PORTLAND,MULTNOMAH,5217 SE 28TH AVE ,97202,Yes,Yes,"5217 SE 28TH AVE , PORTLAND, OR",-122.6377604,45.4850758
FLOYD'S FINE CANNABIS,PORTLAND,MULTNOMAH,5944 NE SANDY BLVD ,97213,Yes,Yes,"5944 NE SANDY BLVD , PORTLAND, OR",-122.6016598,45.5432145
FLOYD'S FINE CANNABIS,PORTLAND,MULTNOMAH,801 NE BROADWAY ,97232,Yes,Yes,"801 NE BROADWAY , PORTLAND, OR",-122.6573773,45.53527769999999
FLOYD'S FINE CANNABIS,PORTLAND,MULTNOMAH,9240 N WHITAKER SUITE B,97217,,,"9240 N WHITAKER SUITE B, PORTLAND, OR",-122.6801852,45.5898929
FOSTER BUDS NE,PORTLAND,MULTNOMAH,7201 NE GLISAN ST. SUITE D,97213,,,"7201 NE GLISAN ST. SUITE D, PORTLAND, OR",-122.5884152,45.5266701
FOSTER BUDS SE,PORTLAND,MULTNOMAH,"5522 SE FOSTER ROAD, ",97206,,,"5522 SE FOSTER ROAD, , PORTLAND, OR",-122.6058693,45.49399760000001
GNOME GROWN OREGON,PORTLAND,MULTNOMAH,5012 NE 28TH AVE ,97211,,,"5012 NE 28TH AVE , PORTLAND, OR",-122.6365787,45.5592888
GRAM CENTRAL STATION,PORTLAND,MULTNOMAH,6430 NE MARTIN LUTHER KING JR BLVD ,97211,Yes,,"6430 NE MARTIN LUTHER KING JR BLVD , PORTLAND, OR",-122.6609446,45.5695092
GRAS CANNABIS,PORTLAND,MULTNOMAH,621 SE 7TH AVE SUITE A ,97214,,,"621 SE 7TH AVE SUITE A , PORTLAND, OR",-122.6589099,45.5184004
GREELEY GALLERY,PORTLAND,MULTNOMAH,6512 N GREELEY AVE ,97217,Yes,Yes,"6512 N GREELEY AVE , PORTLAND, OR",-122.6951982,45.5704054
GREEN BOX,PORTLAND,MULTNOMAH,7966 SE FOSTER RD ,97206,Yes,Yes,"7966 SE FOSTER RD , PORTLAND, OR",-122.5813875,45.4835587
GREEN GODDESS REMEDIES,PORTLAND,MULTNOMAH,5435 SW TAYLOR'S FERRY RD ,97219,Yes,Yes,"5435 SW TAYLOR'S FERRY RD , PORTLAND, OR",-122.7332248,45.4549461
GREEN GRATITUDE,PORTLAND,MULTNOMAH,10322 SE HOLGATE BLVD. ,97266,Yes,Yes,"10322 SE HOLGATE BLVD. , PORTLAND, OR",-122.5565688,45.4895484
GREEN MUSE LLC,PORTLAND,MULTNOMAH,5515 NE 16TH AVE ,97211,Yes,Yes,"5515 NE 16TH AVE , PORTLAND, OR",-122.649274,45.5629414
GREENERY,PORTLAND,MULTNOMAH,8700 SW BARBUR CT SUITE M ,97219,Yes,Yes,"8700 SW BARBUR CT SUITE M , PORTLAND, OR",-122.7030837,45.4618596
HALSEY ORGANIC ,PORTLAND,MULTNOMAH,16102 NE HALSEY ST ,97230,,,"16102 NE HALSEY ST , PORTLAND, OR",-122.4969096,45.5337872
HAPPY LEAF,PORTLAND,MULTNOMAH,1301 NE BROADWAY ST ,97232,Yes,Yes,"1301 NE BROADWAY ST , PORTLAND, OR",-122.6521626,45.5353041
HAPY KITCHEN,PORTLAND,MULTNOMAH,422 NE FAILING ST ,97212,,,"422 NE FAILING ST , PORTLAND, OR",-122.6609955,45.55060450000001
HIGH PROFILE,PORTLAND,MULTNOMAH,"2637 NE MARTIN LUTHER KING JR. BLVD, STE B ",97212,,,"2637 NE MARTIN LUTHER KING JR. BLVD, STE B , PORTLAND, OR",-122.6619631,45.5414544
HIGHER HEALING,PORTLAND,MULTNOMAH,5311 SE POWELL BLVD. SUITE L02 ,97206,Yes,Yes,"5311 SE POWELL BLVD. SUITE L02 , PORTLAND, OR",-122.6076703,45.4977427
HOMEGROWN OREGON,PORTLAND,MULTNOMAH,6330 SW BEAVERTON HILLSDALE HWY ,97221,,,"6330 SW BEAVERTON HILLSDALE HWY , PORTLAND, OR",-122.7423314,45.4868477
IVY CANNABIS,PORTLAND,MULTNOMAH,11850 N CENTER AVE ,97217,Yes,Yes,"11850 N CENTER AVE , PORTLAND, OR",-122.6814814,45.60893
JAYNE,PORTLAND,MULTNOMAH,2145 NE MARTIN LUTHER KING JR BLVD SUITE A,97212,Yes,Yes,"2145 NE MARTIN LUTHER KING JR BLVD SUITE A, PORTLAND, OR",-122.6621475,45.5385946
KALEAFA,PORTLAND,MULTNOMAH,5232 SE WOODSTOCK BLVD ,97206,Yes,Yes,"5232 SE WOODSTOCK BLVD , PORTLAND, OR",-122.6080262,45.4789927
KALEAFA,PORTLAND,MULTNOMAH,11821 NE GLISAN ST ,97230,,,"11821 NE GLISAN ST , PORTLAND, OR",-122.5404705,45.5265145
KAYA SHACK,PORTLAND,MULTNOMAH,1719 SE HAWTHORNE BLVD ,97214,Yes,Yes,"1719 SE HAWTHORNE BLVD , PORTLAND, OR",-122.6481285,45.5123328
KIND HEART COLLECTIVE,PORTLAND,MULTNOMAH,8217 N DENVER AVE ,97217,Yes,Yes,"8217 N DENVER AVE , PORTLAND, OR",-122.6871016,45.5827195
KINGS OF CANNA,PORTLAND,MULTNOMAH,1465 NE PRESCOTT STE C ,97211,Yes,Yes,"1465 NE PRESCOTT STE C , PORTLAND, OR",-122.6503926,45.5557287
KUSH CART,PORTLAND,MULTNOMAH,"5100 SE HARNEY DR, SUITES 214A, 214B, & 214C ",97206,Yes,Yes,"5100 SE HARNEY DR, SUITES 214A, 214B, & 214C , PORTLAND, OR",-122.6108921,45.462627
LA CANNAISSEUR,PORTLAND,MULTNOMAH,11324 NW ST HELENS RD ,97231,Yes,Yes,"11324 NW ST HELENS RD , PORTLAND, OR",-122.7885737,45.6030614
LA MOTA,PORTLAND,MULTNOMAH,4450 & 4460 NE SANDY BLVD ,97213,Yes,Yes,"4450 & 4460 NE SANDY BLVD , PORTLAND, OR",-122.6173062,45.537304
LA MOTA,PORTLAND,MULTNOMAH,3226 SE JOHNSON CREEK BLVD  ,97222,Yes,Yes,"3226 SE JOHNSON CREEK BLVD  , PORTLAND, OR",-122.6293161,45.4624554
LA MOTA,PORTLAND,MULTNOMAH,9440 N. ST. LOUIS AVENUE ,97203,,,"9440 N. ST. LOUIS AVENUE , PORTLAND, OR",-122.7505817,45.5961714
LA MOTA,PORTLAND,MULTNOMAH,13828 E BURNSIDE ,97233,,,"13828 E BURNSIDE , PORTLAND, OR",-122.5213692,45.52206349999999
LA MOTA ,PORTLAND,MULTNOMAH,4999 NE 99TH AVE ,97220,,Yes,"4999 NE 99TH AVE , PORTLAND, OR",-122.5609904,45.558983
LA MOTA ,PORTLAND,MULTNOMAH,7435 SE 52ND AVE ,97206,Yes,Yes,"7435 SE 52ND AVE , PORTLAND, OR",-122.6102591,45.4692916
LA MOTA FRONT AVE LLC,PORTLAND,MULTNOMAH,3075 NW FRONT AVE ,97210,Yes,Yes,"3075 NW FRONT AVE , PORTLAND, OR",-122.6994056,45.5442496
LA MOTA SANDY BLVD LLC,PORTLAND,MULTNOMAH,9046 NE SANDY BLVD ,97220,,Yes,"9046 NE SANDY BLVD , PORTLAND, OR",-122.569155,45.55601670000001
LA MOTA SW PORTLAND ,PORTLAND,MULTNOMAH,1103 SW TAYLORS FERRY RD ,97219,,,"1103 SW TAYLORS FERRY RD , PORTLAND, OR",-122.6903831,45.4630577
LEFT COAST CONNECTIONS,PORTLAND,MULTNOMAH,10055 NE GLISAN ST ,97220,Yes,Yes,"10055 NE GLISAN ST , PORTLAND, OR",-122.5596963,45.5266628
LEMONNADE,PORTLAND,MULTNOMAH,11321 SW 64TH AVE  ,97219,Yes,Yes,"11321 SW 64TH AVE  , PORTLAND, OR",-122.743097,45.4436036
LEMONNADE PDX,PORTLAND,MULTNOMAH,6218 NE COLUMBIA BLVD ,97218,,,"6218 NE COLUMBIA BLVD , PORTLAND, OR",-122.5986687,45.5682201
LIFTED NORTH WEST,PORTLAND,MULTNOMAH,11121 SE DIVISION ST ,97266,Yes,Yes,"11121 SE DIVISION ST , PORTLAND, OR",-122.5486971,45.5044473
LITTLE AMSTERDAM WELLNESS CENTER,PORTLAND,MULTNOMAH,7035 SW MACADAM AVENUE ,97219,Yes,,"7035 SW MACADAM AVENUE , PORTLAND, OR",-122.6716816,45.4731837
LOCAL HERB,PORTLAND,MULTNOMAH,15948 SE DIVISION ,97236,Yes,Yes,"15948 SE DIVISION , PORTLAND, OR",-122.4987544,45.5038945
LUCKY LION,PORTLAND,MULTNOMAH,7817 NE HALSEY ST ,97213,,,"7817 NE HALSEY ST , PORTLAND, OR",-122.582686,45.5337384
LUCKY LION,PORTLAND,MULTNOMAH,14800 SE POWELL BLVD #1,97236,,,"14800 SE POWELL BLVD #1, PORTLAND, OR",-122.5103614,45.49774710000001
LUCKY LION,PORTLAND,MULTNOMAH,16148 NE SANDY BLVD ,97230,,,"16148 NE SANDY BLVD , PORTLAND, OR",-122.4965804,45.5492909
MARIJUANA PARADISE,PORTLAND,MULTNOMAH,9663 SW BARBUR BLVD ,97219,Yes,Yes,"9663 SW BARBUR BLVD , PORTLAND, OR",-122.7170758,45.4556183
MEDIGREEN COLLECTIVE,PORTLAND,MULTNOMAH,729 SE POWELL BLVD ,97202,Yes,,"729 SE POWELL BLVD , PORTLAND, OR",-122.6584808,45.5019016
MINDRITE,PORTLAND,MULTNOMAH,1780 NW MARSHALL ST ,97209,Yes,,"1780 NW MARSHALL ST , PORTLAND, OR",-122.6893386,45.53056
MONGOOSE CANNABIS,PORTLAND,MULTNOMAH,3123 SE BELMONT ST. ,97214,,,"3123 SE BELMONT ST. , PORTLAND, OR",-122.6331639,45.5166418
MOSS CROSSING,PORTLAND,MULTNOMAH,5938 N GREELEY AVE ,97217,,,"5938 N GREELEY AVE , PORTLAND, OR",-122.6953291,45.5662888
MR. NICE GUY - PORTLAND,PORTLAND,MULTNOMAH,1034 SE 122ND AVENUE ,97233,,,"1034 SE 122ND AVENUE , PORTLAND, OR",-122.5374133,45.5155829
MR. NICE GUY HOLGATE,PORTLAND,MULTNOMAH,11030 SE HOLGATE BLVD ,97266,Yes,Yes,"11030 SE HOLGATE BLVD , PORTLAND, OR",-122.5492966,45.4895469
MR. NICE GUY PORTLAND,PORTLAND,MULTNOMAH,5230 SE 52ND AVE ,97206,,,"5230 SE 52ND AVE , PORTLAND, OR",-122.6086128,45.4847572
MULTNOMAH GREENS,PORTLAND,MULTNOMAH,3005 SW MULTNOMAH BLVD. ,97219,Yes,Yes,"3005 SW MULTNOMAH BLVD. , PORTLAND, OR",-122.7078859,45.4666161
NATURAL REMEDIES,PORTLAND,MULTNOMAH,8720 SW BARBUR CT SUITE Z ,97219,Yes,,"8720 SW BARBUR CT SUITE Z , PORTLAND, OR",-122.7036445,45.4619102
NATURAL WONDERS,PORTLAND,MULTNOMAH,3831 SE MAIN ST. ,97214,Yes,Yes,"3831 SE MAIN ST. , PORTLAND, OR",-122.6237958,45.5137847
NEBULA CANNABIS,PORTLAND,MULTNOMAH,11605 SE POWELL BLVD ,97266,,,"11605 SE POWELL BLVD , PORTLAND, OR",-122.5432427,45.4971002
NECTAR,PORTLAND,MULTNOMAH,3350 NE SANDY BLVD ,97232,Yes,Yes,"3350 NE SANDY BLVD , PORTLAND, OR",-122.6296643,45.5318842
NECTAR,PORTLAND,MULTNOMAH,10931 SW 53RD AVENUE ,97219,Yes,Yes,"10931 SW 53RD AVENUE , PORTLAND, OR",-122.7313051,45.4462854
NECTAR,PORTLAND,MULTNOMAH,4125 N MISSISSIPPI AVENUE ,97217,Yes,Yes,"4125 N MISSISSIPPI AVENUE , PORTLAND, OR",-122.675788,45.5536463
NECTAR,PORTLAND,MULTNOMAH,5918 SE 89TH AVE ,97266,Yes,Yes,"5918 SE 89TH AVE , PORTLAND, OR",-122.5711781,45.4796074
NECTAR,PORTLAND,MULTNOMAH,9127 SE STARK STREET ,97216,Yes,Yes,"9127 SE STARK STREET , PORTLAND, OR",-122.5694955,45.5192631
NECTAR,PORTLAND,MULTNOMAH,8601 SW TERWILLIGER BLVD ,97219,Yes,Yes,"8601 SW TERWILLIGER BLVD , PORTLAND, OR",-122.6853259,45.4624019
NECTAR,PORTLAND,MULTNOMAH,4709 SW BEAVERTON HILLSDALE HWY. ,97221,Yes,Yes,"4709 SW BEAVERTON HILLSDALE HWY. , PORTLAND, OR",-122.7250891,45.486185
NECTAR MARKETS,PORTLAND,MULTNOMAH,1019 NE 122ND AVENUE ,97230,Yes,Yes,"1019 NE 122ND AVENUE , PORTLAND, OR",-122.5380381,45.5300417
ONE DRAW TWO,PORTLAND,MULTNOMAH,11711 NE HALSEY STREET ,97220,Yes,Yes,"11711 NE HALSEY STREET , PORTLAND, OR",-122.5424342,45.5337267
ORCL LLC,PORTLAND,MULTNOMAH,604 NW 12TH AVE. ,97209,,,"604 NW 12TH AVE. , PORTLAND, OR",-122.6830421,45.5276052
OREGON BUD COMPANY,PORTLAND,MULTNOMAH,5515 SE 122 AVE ,97236,Yes,Yes,"5515 SE 122 AVE , PORTLAND, OR",-122.5382736,45.4826835
OREGON BUD COMPANY,PORTLAND,MULTNOMAH,4511 SE CESAR E CHAVEZ BLVD ,97202,,,"4511 SE CESAR E CHAVEZ BLVD , PORTLAND, OR",-122.6231117,45.49003159999999
OREGON GROWN,PORTLAND,MULTNOMAH,324 SE 82ND AVE ,97216,,,"324 SE 82ND AVE , PORTLAND, OR",-122.5786593,45.520074
OREGON HIGH,PORTLAND,MULTNOMAH,3944 NE CULLY BLVD ,97213,,,"3944 NE CULLY BLVD , PORTLAND, OR",-122.6038886,45.5515353
OREGON HOUSE OF HERBS,PORTLAND,MULTNOMAH,8105 N FESSENDEN ,97203,Yes,,"8105 N FESSENDEN , PORTLAND, OR",-122.746267,45.5962476
OREGON WEEDERY,PORTLAND,MULTNOMAH,2312 NW KEARNEY ST ,97210,Yes,,"2312 NW KEARNEY ST , PORTLAND, OR",-122.6989696,45.52892869999999
OREGON'S BEST BUDS,PORTLAND,MULTNOMAH,10128 EAST BURNSIDE ST. A,97216,Yes,Yes,"10128 EAST BURNSIDE ST. A, PORTLAND, OR",-122.558723,45.5222713
OREGON'S FINEST,PORTLAND,MULTNOMAH,736 NE MARTIN LUTHER KING JR. BLVD  ,97232,Yes,Yes,"736 NE MARTIN LUTHER KING JR. BLVD  , PORTLAND, OR",-122.6612713,45.5283576
OREGON'S FINEST,PORTLAND,MULTNOMAH,1327 NW KEARNEY ST ,97209,Yes,Yes,"1327 NW KEARNEY ST , PORTLAND, OR",-122.6848883,45.5294552
OREGON'S OWN,PORTLAND,MULTNOMAH,7881 SW CAPITOL HWY ,97219,Yes,Yes,"7881 SW CAPITOL HWY , PORTLAND, OR",-122.7145241,45.46781050000001
OREGROWN PORTLAND,PORTLAND,MULTNOMAH,111 NE 12TH AVE SUITE A  ,97232,,,"111 NE 12TH AVE SUITE A  , PORTLAND, OR",-122.6538538,45.5237889
PACIFIC GOLD,PORTLAND,MULTNOMAH,1010 SW GIBBS ST ,97239,Yes,Yes,"1010 SW GIBBS ST , PORTLAND, OR",-122.6904574,45.4990733
PACIFIC GREEN,PORTLAND,MULTNOMAH,710 NE KILLINGSWORTH STREET ,97211,Yes,Yes,"710 NE KILLINGSWORTH STREET , PORTLAND, OR",-122.6584313,45.5624937
PAKALOLO,PORTLAND,MULTNOMAH,1528 SE HOLGATE BLVD ,97202,Yes,Yes,"1528 SE HOLGATE BLVD , PORTLAND, OR",-122.6497223,45.4901547
PAPA BUDS,PORTLAND,MULTNOMAH,4020 SE CESAR E CHAVEZ BLVD ,97202,Yes,Yes,"4020 SE CESAR E CHAVEZ BLVD , PORTLAND, OR",-122.6223212,45.4935896
PARADISE FOUND,PORTLAND,MULTNOMAH,10735 NE HALSEY ST ,97220,Yes,,"10735 NE HALSEY ST , PORTLAND, OR",-122.5521077,45.5338285
PDXWEEDZ,PORTLAND,MULTNOMAH,9810 E. BURNSIDE STREET ,97216,Yes,Yes,"9810 E. BURNSIDE STREET , PORTLAND, OR",-122.5629036,45.5223889
PLANE JANE'S,PORTLAND,MULTNOMAH,10530 NE SIMPSON ST. ,97220,Yes,Yes,"10530 NE SIMPSON ST. , PORTLAND, OR",-122.554312,45.5650921
PLUS DISPENSARY ,PORTLAND,MULTNOMAH,45 NE 122ND AVE ,97220,Yes,,"45 NE 122ND AVE , PORTLAND, OR",-122.5380776,45.5232538
PORTLAND BEST BUDS,PORTLAND,MULTNOMAH,6313B N. LOMBARD ST ,97203,Yes,,"6313B N. LOMBARD ST , PORTLAND, OR",-122.7312097,45.5854525
PORTLAND CANNA CONNECTION ,PORTLAND,MULTNOMAH,1515 SE 46TH AVE ,97215,Yes,Yes,"1515 SE 46TH AVE , PORTLAND, OR",-122.6154757,45.511754
PORTLAND EXTRACTS,PORTLAND,MULTNOMAH,2123 SE DIVISION ST ,97202,,,"2123 SE DIVISION ST , PORTLAND, OR",-122.6439941,45.5050903
PORTLAND GREEN OASIS LLC,PORTLAND,MULTNOMAH,1035 SE TACOMA STREET UNIT A  ,97202,Yes,,"1035 SE TACOMA STREET UNIT A  , PORTLAND, OR",-122.6552115,45.4645449
PORTLAND POT SHOP,PORTLAND,MULTNOMAH,4730 N LOMBARD ST ,97203,,,"4730 N LOMBARD ST , PORTLAND, OR",-122.7164832,45.5795
POTMATES,PORTLAND,MULTNOMAH,4607 SW BEAVERTON HILLSDALE HWY ,97221,,,"4607 SW BEAVERTON HILLSDALE HWY , PORTLAND, OR",-122.7243009,45.48606849999999
PUDDLETOWN ORGANICS,PORTLAND,MULTNOMAH,8201 SE POWELL BLVD SUITE F,97266,Yes,,"8201 SE POWELL BLVD SUITE F, PORTLAND, OR",-122.5780656,45.4978656
PUR ROOTS,PORTLAND,MULTNOMAH,5816 NE PORTLAND HWY ,97218,,,"5816 NE PORTLAND HWY , PORTLAND, OR",-122.6027601,45.5671498
PURE GREEN,PORTLAND,MULTNOMAH,3738 NE SANDY BLVD ,97232,Yes,Yes,"3738 NE SANDY BLVD , PORTLAND, OR",-122.624239,45.5340102
REBIRTH PORTLAND,PORTLAND,MULTNOMAH,10215 SE FOSTER RD. ,97266,,,"10215 SE FOSTER RD. , PORTLAND, OR",-122.5580531,45.4771926
REFINERY CANNA CONNOISSEUR,PORTLAND,MULTNOMAH,2707 NE BROADWAY ST. ,97232,Yes,Yes,"2707 NE BROADWAY ST. , PORTLAND, OR",-122.6379357,45.5353804
RELEAF HEALTH,PORTLAND,MULTNOMAH,3213 NE MARTIN LUTHER KING JR BLVD ,97212,Yes,Yes,"3213 NE MARTIN LUTHER KING JR BLVD , PORTLAND, OR",-122.6618467,45.5463433
RIP CITY DELIVERY,PORTLAND,MULTNOMAH,3518 SW MULTNOMAH BLVD ,97219,Yes,Yes,"3518 SW MULTNOMAH BLVD , PORTLAND, OR",-122.7133611,45.4670002
RJ'S LEAF,PORTLAND,MULTNOMAH,5501 NW ST. HELEN'S ROAD ,97210,,,"5501 NW ST. HELEN'S ROAD , PORTLAND, OR",-122.7439504,45.5618256
RKO,PORTLAND,MULTNOMAH,8265 SE MCLOUGHLIN BLVD ,97202,Yes,,"8265 SE MCLOUGHLIN BLVD , PORTLAND, OR",-122.6389578,45.4630207
SAP HOUSE,PORTLAND,MULTNOMAH,2367 SOUTHEAST 122ND AVE ,97233,,,"2367 SOUTHEAST 122ND AVE , PORTLAND, OR",-122.5380577,45.5051154
SATCHEL,PORTLAND,MULTNOMAH,6900 N. INTERSTATE AVENUE ,97217,Yes,Yes,"6900 N. INTERSTATE AVENUE , PORTLAND, OR",-122.6818282,45.57280129999999
SENSIMILLA,PORTLAND,MULTNOMAH,3210 N LOMBARD ST ,97217,,,"3210 N LOMBARD ST , PORTLAND, OR",-122.6996189,45.5769217
SERRA BELMONT,PORTLAND,MULTNOMAH,2519 SE BELMONT ,97214,Yes,Yes,"2519 SE BELMONT , PORTLAND, OR",-122.6396581,45.5165842
SERRA DOWNTOWN,PORTLAND,MULTNOMAH,220 SW FIRST AVENUE ,97204,Yes,Yes,"220 SW FIRST AVENUE , PORTLAND, OR",-122.6718377,45.5206144
SHAMAN CANNABIS - COLUMBIA,PORTLAND,MULTNOMAH,3829 NE COLUMBIA BLVD ,97211,,,"3829 NE COLUMBIA BLVD , PORTLAND, OR",-122.6236996,45.5726642
SHAMAN CANNABIS - HALSEY,PORTLAND,MULTNOMAH,11134 NE HALSEY ST ,97220,,,"11134 NE HALSEY ST , PORTLAND, OR",-122.5478876,45.53310099999999
SHANGO PREMIUM CANNABIS,PORTLAND,MULTNOMAH,6033-A NE WIN SIVERS DRIVE ,97220,Yes,,"6033-A NE WIN SIVERS DRIVE , PORTLAND, OR",-122.5384469,45.566803
SHANGO PREMIUM CANNABIS,PORTLAND,MULTNOMAH,8056 HAROLD STREET ,97206,Yes,,"8056 HAROLD STREET , PORTLAND, OR",-122.5801289,45.4829033
SHANGO PREMIUM CANNABIS,PORTLAND,MULTNOMAH,8056 SE HAROLD ST ,97206,,,"8056 SE HAROLD ST , PORTLAND, OR",-122.5801289,45.4829033
SILVER STEM,PORTLAND,MULTNOMAH,1926 NE 40TH AVE  ,97212,Yes,Yes,"1926 NE 40TH AVE  , PORTLAND, OR",-122.6218168,45.5369292
SLABTOWN,PORTLAND,MULTNOMAH,2507 NW NICOLAI ST. ,97210,Yes,,"2507 NW NICOLAI ST. , PORTLAND, OR",-122.7039543,45.54056749999999
SOMEWHERE,PORTLAND,MULTNOMAH,2128 NW OVERTON STREET ,97210,,,"2128 NW OVERTON STREET , PORTLAND, OR",-122.6950631,45.53184419999999
STONEY ONLY PORTLAND,PORTLAND,MULTNOMAH,110 SE MAIN ST. SUITE C,97214,Yes,Yes,"110 SE MAIN ST. SUITE C, PORTLAND, OR",-122.664238,45.5135328
STUMPTOWN CANNABIS - LENTS,PORTLAND,MULTNOMAH,6130 SE 82ND AVE ,97266,Yes,Yes,"6130 SE 82ND AVE , PORTLAND, OR",-122.5787688,45.4782702
SWEET LEAF ILLUSIONS,PORTLAND,MULTNOMAH,8434 SE 82ND AVE ,97266,,Yes,"8434 SE 82ND AVE , PORTLAND, OR",-122.578877,45.46264439999999
THE CANNA SHOPPE ,PORTLAND,MULTNOMAH,6316 NE HALSEY ST ,97213,Yes,,"6316 NE HALSEY ST , PORTLAND, OR",-122.5984885,45.5335771
THE DIME STORE CANNABIS,PORTLAND,MULTNOMAH,8218 SE HOLGATE BLVD. ,97266,,,"8218 SE HOLGATE BLVD. , PORTLAND, OR",-122.5783225,45.489985
THE DISPENSARY ON 52ND,PORTLAND,MULTNOMAH,4452 SE 52ND AVE ,97206,Yes,Yes,"4452 SE 52ND AVE , PORTLAND, OR",-122.608702,45.4904144
THE FLOWERSHOP POWELLHURST,PORTLAND,MULTNOMAH,12550 SE DIVISION ST ,97236,Yes,Yes,"12550 SE DIVISION ST , PORTLAND, OR",-122.5336184,45.5037663
THE GREEN FRONT,PORTLAND,MULTNOMAH,6834 NE GLISAN ST. ,97213,Yes,Yes,"6834 NE GLISAN ST. , PORTLAND, OR",-122.5926722,45.526316
THE GREEN REMEDY ,PORTLAND,MULTNOMAH,12436 SE POWELL BLVD ,97236,Yes,,"12436 SE POWELL BLVD , PORTLAND, OR",-122.5349333,45.4969602
THE NEW AMSTERDAM,PORTLAND,MULTNOMAH,2201 N KILLINGSWORTH ST ,97217,Yes,,"2201 N KILLINGSWORTH ST , PORTLAND, OR",-122.6894287,45.5629168
THE PEOPLE'S DISPENSARY,PORTLAND,MULTNOMAH,6714 NE SANDY BLVD ,97213,,,"6714 NE SANDY BLVD , PORTLAND, OR",-122.5938606,45.5462238
THURMAN STREET COLLECTIVE ,PORTLAND,MULTNOMAH,2384 NW THURMAN ST ,97210,Yes,Yes,"2384 NW THURMAN ST , PORTLAND, OR",-122.7005718,45.53527589999999
TJ'S ON POWELL,PORTLAND,MULTNOMAH,7827 SE POWELL BLVD ,97206,,,"7827 SE POWELL BLVD , PORTLAND, OR",-122.5821524,45.49771459999999
"TODAY'S HERBAL CHOICE BARBUR, LLC",PORTLAND,MULTNOMAH,9220 S.W BARBUR BLVD SUITE 107 ,97219,Yes,,"9220 S.W BARBUR BLVD SUITE 107 , PORTLAND, OR",-122.7088734,45.4586899
"TODAY'S HERBAL CHOICE FREMONT, LLC",PORTLAND,MULTNOMAH,4605 NE FREMONT ST SUITE #105 ,97213,Yes,,"4605 NE FREMONT ST SUITE #105 , PORTLAND, OR",-122.6156771,45.5485049
TREE HOUSE COLLECTIVE,PORTLAND,MULTNOMAH,2419 NE SANDY BLVD ,97232,Yes,,"2419 NE SANDY BLVD , PORTLAND, OR",-122.6411621,45.5277718
TREE PDX,PORTLAND,MULTNOMAH,5135 NW ST HELENS RD ,97210,Yes,,"5135 NW ST HELENS RD , PORTLAND, OR",-122.7405565,45.5589659
TREES 102,PORTLAND,MULTNOMAH,1234 NE 102ND AVE. ,97220,Yes,,"1234 NE 102ND AVE. , PORTLAND, OR",-122.5577241,45.531769
TREES CORBETT,PORTLAND,MULTNOMAH,3607 SW CORBETT AVE. ,97239,,,"3607 SW CORBETT AVE. , PORTLAND, OR",-122.6761251,45.497094
TRULY OG,PORTLAND,MULTNOMAH,4936 N WILLIAMS AVE ,97217,,,"4936 N WILLIAMS AVE , PORTLAND, OR",-122.6664566,45.5588476
TRULY PURE,PORTLAND,MULTNOMAH,1006 SE GRAND AVE SUITE 104 ,97214,Yes,Yes,"1006 SE GRAND AVE SUITE 104 , PORTLAND, OR",-122.6603517,45.5155843
UPLIFT BOTANICALS,PORTLAND,MULTNOMAH,5421 NE 33RD AVE ,97211,,Yes,"5421 NE 33RD AVE , PORTLAND, OR",-122.6308829,45.5624445
URBAN FARMACY,PORTLAND,MULTNOMAH,420 NE 60TH AVENUE ,97213,Yes,Yes,"420 NE 60TH AVENUE , PORTLAND, OR",-122.6020554,45.526079
VIDAVERDE,PORTLAND,MULTNOMAH,7333 NE GLISAN ST. ,97213,,,"7333 NE GLISAN ST. , PORTLAND, OR",-122.5870273,45.5265907
VIRTUE SUPPLY COMPANY,PORTLAND,MULTNOMAH,510 NW 11TH AVE ,97209,Yes,Yes,"510 NW 11TH AVE , PORTLAND, OR",-122.6819117,45.5268119
WEED LAND INC,PORTLAND,MULTNOMAH,4027 N INTERSTATE AVE ,97227,,,"4027 N INTERSTATE AVE , PORTLAND, OR",-122.68132,45.5525605
"WILD WEST EMPORIUM, DUKE STREET",PORTLAND,MULTNOMAH,"6126 SE DUKE ST, UNIT A ",97206,Yes,Yes,"6126 SE DUKE ST, UNIT A , PORTLAND, OR",-122.6003996,45.4756862
"WILD WEST EMPORIUM, SANDY BLVD",PORTLAND,MULTNOMAH,"15350 NE SANDY BLVD, UNIT C ",97230,Yes,Yes,"15350 NE SANDY BLVD, UNIT C , PORTLAND, OR",-122.5040511,45.551101
"YAK, INC.",PORTLAND,MULTNOMAH,1536 NW 23RD AVE. ,97210,,,"1536 NW 23RD AVE. , PORTLAND, OR",-122.698509,45.5339286
ZION CANNABIS,PORTLAND,MULTNOMAH,2331 SW 6TH AVE. ,97201,Yes,Yes,"2331 SW 6TH AVE. , PORTLAND, OR",-122.6845588,45.5060977
TETRA CANNABIS,TROUTDALE,MULTNOMAH,809 NE HARLOW ROAD ,97060,,,"809 NE HARLOW ROAD , TROUTDALE, OR",-122.3866944,45.5453643
"NW COMPASSION MEDICAL CENTER, INC",WOOD VILLAGE,MULTNOMAH,1970 NE 238TH DRIVE SUITE B,97060,,,"1970 NE 238TH DRIVE SUITE B, WOOD VILLAGE, OR",-122.4180889,45.53664269999999
BLACKBIRD INDICA,INDEPENDENCE,POLK,319 S 10TH STREET ,97351,Yes,,"319 S 10TH STREET , INDEPENDENCE, OR",-123.1977767,44.85086039999999
KNOTTY LEAVES,INDEPENDENCE,POLK,769 N MAIN SUITE C ,97351,,,"769 N MAIN SUITE C , INDEPENDENCE, OR",-123.1842961,44.8602285
MARY JANE,INDEPENDENCE,POLK,905 N MAIN STREET ,97351,,,"905 N MAIN STREET , INDEPENDENCE, OR",-123.1841505,44.8622375
BLACKBIRD CROW,MONMOUTH,POLK,593 & 597 JACKSON ST E  ,97361,Yes,,"593 & 597 JACKSON ST E  , MONMOUTH, OR",-123.2295593,44.8494834
MONMOUTH CANNABIS,MONMOUTH,POLK,210 SOUTH PACIFIC HIGHWAY SUITE A ,97361,Yes,Yes,"210 SOUTH PACIFIC HIGHWAY SUITE A , MONMOUTH, OR",-122.7870956,42.24745720000001
OASIS CANNABIS,MONMOUTH,POLK,221 MAIN STREET EAST ,97361,Yes,Yes,"221 MAIN STREET EAST , MONMOUTH, OR",-123.2337093,44.8484053
OG COLLECTIVE,MONMOUTH,POLK,140/142/144 N PACIFIC HWY ,97361,Yes,Yes,"140/142/144 N PACIFIC HWY , MONMOUTH, OR",-123.2296321,44.8491436
HOMEGROWN OREGON,SALEM,POLK,1077 EDGEWATER ST. NW ,97304,Yes,Yes,"1077 EDGEWATER ST. NW , SALEM, OR",-123.0559564,44.9418245
OG COLLECTIVE,SALEM,POLK,908 EDGEWATER ST NW SUITE 100,97304,,,"908 EDGEWATER ST NW SUITE 100, SALEM, OR",-123.0530664,44.9426632
WEST SALEM CANNABIS,SALEM,POLK,2625 SALEM DALLAS HWY NW STE 100 ,97304,Yes,Yes,"2625 SALEM DALLAS HWY NW STE 100 , SALEM, OR",-123.0810976,44.929551
GOING GREEN GRAND RONDE,WILLAMINA,POLK,8675 FORT HILL RD. ,97396,Yes,,"8675 FORT HILL RD. , WILLAMINA, OR",-123.5554015,45.0608254
OREGON COAST CANNABIS,MANZANITA,TILLAMOOK,868 LANEDA AVENUE ,97130,Yes,,"868 LANEDA AVENUE , MANZANITA, OR",-123.9275047,45.7187952
CITI ZEN,PACIFIC CITY,TILLAMOOK,6305 PACIFIC AVE ,97135,Yes,Yes,"6305 PACIFIC AVE , PACIFIC CITY, OR",-123.9632519,45.2018303
WEST,PACIFIC CITY,TILLAMOOK,34970 BROOTEN ROAD ,97135,Yes,Yes,"34970 BROOTEN ROAD , PACIFIC CITY, OR",-123.962008,45.202082
LA MOTA,ROCKAWAY BEACH,TILLAMOOK,158 S HWY 101 ,97136,Yes,Yes,"158 S HWY 101 , ROCKAWAY BEACH, OR",-123.9436619,45.6121985
MR. NICE GUY ROCKAWAY,ROCKAWAY BEACH,TILLAMOOK,656 S. HIGHWAY 101 ,97136,Yes,Yes,"656 S. HIGHWAY 101 , ROCKAWAY BEACH, OR",-123.9452327,45.6037312
WEST,ROCKAWAY BEACH,TILLAMOOK,480 HWY101 SOUTH ,97136,Yes,Yes,"480 HWY101 SOUTH , ROCKAWAY BEACH, OR",-123.9446348,45.6064261
ATTIS TRADING COMPANY,TILLAMOOK,TILLAMOOK,1830 GOODSPEED ROAD NORTH ,97141,Yes,Yes,"1830 GOODSPEED ROAD NORTH , TILLAMOOK, OR",-123.8456052,45.4709222
NECTAR,TILLAMOOK,TILLAMOOK,575 MAIN AVENUE NORTH ,97141,Yes,Yes,"575 MAIN AVENUE NORTH , TILLAMOOK, OR",-123.8440228,45.4614743
SWEET RELIEF TILLAMOOK,TILLAMOOK,TILLAMOOK,1906 1ST ST. ,97141,Yes,Yes,"1906 1ST ST. , TILLAMOOK, OR",-123.8446389,45.4580144
TODAY'S HERBAL CHOICE TILLAMOOK LLC,TILLAMOOK,TILLAMOOK,2180 LARSON RD ,97141,,,"2180 LARSON RD , TILLAMOOK, OR",-123.8427362,45.469648
GREEN MAN COLLECTIVE,WHEELER,TILLAMOOK,"675 NEHALEM BLVD., STE. A ",97147,Yes,,"675 NEHALEM BLVD., STE. A , WHEELER, OR",-123.882643,45.6892334
"HIGH DESERT CANNABIS, LLC",PENDLETON,UMATILLA,341 SW 20TH ST ,97801,Yes,Yes,"341 SW 20TH ST , PENDLETON, OR",-118.8052111,45.6649665
KIND LEAF PENDLETON,PENDLETON,UMATILLA,1733 SW COURT AVE ,97801,Yes,Yes,"1733 SW COURT AVE , PENDLETON, OR",-118.8043002,45.66819719999999
PENDLETON CANNABIS,PENDLETON,UMATILLA,816 SOUTHGATE ,97801,,Yes,"816 SOUTHGATE , PENDLETON, OR",-118.8073758,45.6603334
THUR'S SMOKE SHOP,PENDLETON,UMATILLA,502 SE 16TH ST ,97801,,,"502 SE 16TH ST , PENDLETON, OR",-118.7694324,45.6744871
COLUMBIA RIVER HERBALS LLC,THE DALLES,WASCO,2630 W 6TH ST ,97058,Yes,Yes,"2630 W 6TH ST , THE DALLES, OR",-121.2106047,45.6161238
HIGH MOUNTAIN RECREATIONAL,THE DALLES,WASCO,2722 W 2ND ST ,97058,Yes,,"2722 W 2ND ST , THE DALLES, OR",-121.2091973,45.6182034
M THRIVE ORGANICS LLC,THE DALLES,WASCO,3226 WEST 2ND STREET ,97058,Yes,Yes,"3226 WEST 2ND STREET , THE DALLES, OR",-121.2116863,45.6224615
THE DOWNTOWN DISPENSARY,THE DALLES,WASCO,705 E SECOND ST ,97058,,,"705 E SECOND ST , THE DALLES, OR",-121.176604,45.599075
THREE KINGS ORGANICS,THE DALLES,WASCO,224 TERMINAL AVE ,97058,,Yes,"224 TERMINAL AVE , THE DALLES, OR",-121.1983875,45.6096335
BLOOMING DEALS BY CANNABIS NATION,BEAVERTON,WASHINGTON,15915 NW SCHENDEL AVE #104 ,97006,Yes,,"15915 NW SCHENDEL AVE #104 , BEAVERTON, OR",-122.8407206,45.52043219999999
ELECTRIC LETTUCE DENNY,BEAVERTON,WASHINGTON,6950 SW 105TH  ,97008,Yes,Yes,"6950 SW 105TH  , BEAVERTON, OR",-122.7840766,45.4695961
"GREEN MART, LLC",BEAVERTON,WASHINGTON,12745 SW WALKER RD. STE 100A ,97005,,,"12745 SW WALKER RD. STE 100A , BEAVERTON, OR",-122.808016,45.5026376
GROWING RELEAF,BEAVERTON,WASHINGTON,4160 SW 109TH AVE ,97005,Yes,,"4160 SW 109TH AVE , BEAVERTON, OR",-122.7885886,45.48996409999999
KALEAFA,BEAVERTON,WASHINGTON,10920 SW BEAVERTON HILLSDALE HWY. ,97005,Yes,Yes,"10920 SW BEAVERTON HILLSDALE HWY. , BEAVERTON, OR",-122.7890342,45.4862858
LA MOTA,BEAVERTON,WASHINGTON,18918 SW SHAW ST ,97078,,,"18918 SW SHAW ST , BEAVERTON, OR",-122.8717138,45.493513
LA MOTA ,BEAVERTON,WASHINGTON,3695 SW ELLIOT PLACE  ,97006,Yes,Yes,"3695 SW ELLIOT PLACE  , BEAVERTON, OR",-122.8530732,45.4930594
NECTAR,BEAVERTON,WASHINGTON,8705 SW HALL BLVD ,97008,Yes,Yes,"8705 SW HALL BLVD , BEAVERTON, OR",-122.7834751,45.457035
NECTAR ,BEAVERTON,WASHINGTON,15930 SW REGATTA LN ,97006,,,"15930 SW REGATTA LN , BEAVERTON, OR",-122.841356,45.5160095
NECTAR ,BEAVERTON,WASHINGTON,20595 SW TUALATIN VALLEY HIGHWAY STE 102 ,97003,,,"20595 SW TUALATIN VALLEY HIGHWAY STE 102 , BEAVERTON, OR",-122.8890436,45.4966374
OREGON BUD COMPANY LLC,BEAVERTON,WASHINGTON,3270 SW CEDAR HILLS BLVD #104,97005,Yes,,"3270 SW CEDAR HILLS BLVD #104, BEAVERTON, OR",-122.8083672,45.4962128
SUNSHINE WEED COMPANY,BEAVERTON,WASHINGTON,14195 SW ALLEN BLVD. ,97005,Yes,Yes,"14195 SW ALLEN BLVD. , BEAVERTON, OR",-122.8229022,45.4767259
THE GREEN PLANET,BEAVERTON,WASHINGTON,10100 SW CANYON RD  ,97005,Yes,,"10100 SW CANYON RD  , BEAVERTON, OR",-122.7808232,45.4928961
MR. NICE GUY RETAIL,CORNELIUS,WASHINGTON,3146 BASELINE ST ,97113,,,"3146 BASELINE ST , CORNELIUS, OR",-123.0326459,45.5203887
OREGROWN EUGENE,EUGENE,WASHINGTON,211 W. 6TH AVENUE ,97401,Yes,Yes,"211 W. 6TH AVENUE , EUGENE, OR",-123.0962327,44.0535232
DEFYNE PREMIUM CANNABIS,FOREST GROVE,WASHINGTON,3821 PACIFIC AVENUE ,97116,Yes,Yes,"3821 PACIFIC AVENUE , FOREST GROVE, OR",-123.0804114,45.5206616
LA MOTA,FOREST GROVE,WASHINGTON,3139 PACIFIC AVE ,97116,,,"3139 PACIFIC AVE , FOREST GROVE, OR",-123.0911175,45.5203587
NECTAR ,FOREST GROVE,WASHINGTON,3331 PACIFIC AVENUE ,97116,,,"3331 PACIFIC AVENUE , FOREST GROVE, OR",-123.0884935,45.5204303
PHRESH CANNABIS,FOREST GROVE,WASHINGTON,2743 19TH AVENUE ,97116,,,"2743 19TH AVENUE , FOREST GROVE, OR",-123.0973921,45.5186441
DEFYNE PREMIUM CANNABIS,HILLSBORO,WASHINGTON,1775 SE TUALATIN VALLEY HIGHWAY  BUILDING A,97123,Yes,Yes,"1775 SE TUALATIN VALLEY HIGHWAY  BUILDING A, HILLSBORO, OR",-122.9646145,45.50855380000001
ELECTRIC LETTUCE HILLSBORO,HILLSBORO,WASHINGTON,2795 SE TUALATIN VALLEY HWY ,97123,,,"2795 SE TUALATIN VALLEY HWY , HILLSBORO, OR",-122.9533306,45.5044716
KALEAFA,HILLSBORO,WASHINGTON,353 SW WALNUT ST. ,97123,,,"353 SW WALNUT ST. , HILLSBORO, OR",-122.9941986,45.5177975
MR. NICE GUY RETAIL,HILLSBORO,WASHINGTON,778 WEST MAIN STREET ,97123,,,"778 WEST MAIN STREET , HILLSBORO, OR",-122.998269,45.522509
NECTAR ,HILLSBORO,WASHINGTON,1180 SE 13TH AVE ,97123,,,"1180 SE 13TH AVE , HILLSBORO, OR",-122.9686203,45.5105695
SPEEDY JANES,HILLSBORO,WASHINGTON, 733 SW DENNIS AVE ,97123,Yes,Yes," 733 SW DENNIS AVE , HILLSBORO, OR",-122.9961452,45.5145707
THE VTH,HILLSBORO,WASHINGTON,1234 SW BASELINE ST. SUITE A ,97123,,,"1234 SW BASELINE ST. SUITE A , HILLSBORO, OR",-123.0031206,45.5195558
WESTERN OREGON DISPENSARY,HILLSBORO,WASHINGTON,652 SW BASELINE ST. ,97123,,,"652 SW BASELINE ST. , HILLSBORO, OR",-122.9975106,45.519853
THE GREEN PLANET,KING CITY,WASHINGTON,15350 SW 116TH AVE  ,97224,Yes,Yes,"15350 SW 116TH AVE  , KING CITY, OR",-122.7952411,45.4085805
PUFF OREGON,MANNING,WASHINGTON,47700 NW SUNSET HWY ,97125,Yes,Yes,"47700 NW SUNSET HWY , MANNING, OR",-123.1680255,45.6672389
CHALICE FARMS,PORTLAND,WASHINGTON,"16735 SW PACIFIC HWY, ",97224,Yes,Yes,"16735 SW PACIFIC HWY, , PORTLAND, OR",-122.7992888,45.3989229
ELECTRIC LETTUCE CEDAR HILLS,PORTLAND,WASHINGTON,1450 SW MARLOW ,97225,Yes,,"1450 SW MARLOW , PORTLAND, OR",-122.7832136,45.5093112
LOCAL LEAF,PORTLAND,WASHINGTON,7570 SW 74TH AVE ,97223,Yes,Yes,"7570 SW 74TH AVE , PORTLAND, OR",-122.751933,45.4655602
PARLOUR CANNABIS SHOPPE,PORTLAND,WASHINGTON,4702 SW SCHOLLS FERRY ROAD ,97225,Yes,Yes,"4702 SW SCHOLLS FERRY ROAD , PORTLAND, OR",-122.749366,45.4853763
STONE AGE FARMACY,PORTLAND,WASHINGTON,8621 SW CANYON DR. ,97225,Yes,,"8621 SW CANYON DR. , PORTLAND, OR",-122.7652719,45.4986616
WESTERN OREGON DISPENSARY,PORTLAND,WASHINGTON,760 NW DALE AVE ,97229,Yes,Yes,"760 NW DALE AVE , PORTLAND, OR",-122.8123695,45.5252443
WESTERN OREGON DISPENSARY,SHERWOOD,WASHINGTON,15025 SW TUALATIN SHERWOOD RD  SUITE B,97140,,,"15025 SW TUALATIN SHERWOOD RD  SUITE B, SHERWOOD, OR",-122.8315975,45.3682493
COLA COVE,TIGARD,WASHINGTON,13553 SW PACIFIC HWY ,97223,Yes,Yes,"13553 SW PACIFIC HWY , TIGARD, OR",-122.7848712,45.42207699999999
KALEAFA,TIGARD,WASHINGTON,11540 SW PACIFIC HWY ,97223,,,"11540 SW PACIFIC HWY , TIGARD, OR",-122.7492355,45.4404395
THE CDC DISPENSARY,TIGARD,WASHINGTON,10015 SW HALL BLVD STE B ,97223,Yes,Yes,"10015 SW HALL BLVD STE B , TIGARD, OR",-122.7661796,45.4475719
THE HERBARY,TIGARD,WASHINGTON,11642 SW PACIFIC HIGHWAY  SUITE 100,97223,,,"11642 SW PACIFIC HIGHWAY  SUITE 100, TIGARD, OR",-122.754254,45.43800419999999
CHALICE FARMS,DUNDEE,YAMHILL,1178 N HWY 99W ,97115,Yes,Yes,"1178 N HWY 99W , DUNDEE, OR",-123.0148869,45.2739878
GREEN RIDGE APOTHECARY,MCMINNVILLE,YAMHILL,106 NE 8TH ST ,97128,Yes,Yes,"106 NE 8TH ST , MCMINNVILLE, OR",-123.1987481,45.2134308
MEDICINE TREE LLC,MCMINNVILLE,YAMHILL,2046 OR HWY 99 STE A ,97128,Yes,,"2046 OR HWY 99 STE A , MCMINNVILLE, OR",-123.2050852,44.2148789
NEW LEAF MIDTOWN,MCMINNVILLE,YAMHILL,2215 NE EVANS ,97128,Yes,Yes,"2215 NE EVANS , MCMINNVILLE, OR",-123.1948412,45.2247738
OCEAN GROWN CANNABIS COMPANY LLC,MCMINNVILLE,YAMHILL,13580 SW HWY 99W SUITE #1 ,97128,,,"13580 SW HWY 99W SUITE #1 , MCMINNVILLE, OR",-123.204336,45.161171
SMOOTH ROOTS,MCMINNVILLE,YAMHILL,1500 SW BAKER STREET ,97128,,,"1500 SW BAKER STREET , MCMINNVILLE, OR",-123.2055166,45.1981568
TOP SHELF CANNABIS ,MCMINNVILLE,YAMHILL,353 SE BAKER ST.  SUITE C,97128,Yes,,"353 SE BAKER ST.  SUITE C, MCMINNVILLE, OR",-123.1985502,45.2065787
CANNA BROS.,NEWBERG,YAMHILL,2316 E PORTLAND RD SUITE C-2 ,97132,Yes,,"2316 E PORTLAND RD SUITE C-2 , NEWBERG, OR",-122.957201,45.302847
OASIS CANNABIS,NEWBERG,YAMHILL,"308 VILLA ROAD, SUITE 115 ",97132,Yes,Yes,"308 VILLA ROAD, SUITE 115 , NEWBERG, OR",-122.9617894,45.3025925
WESTERN OREGON DISPENSARY INC,NEWBERG,YAMHILL,1013 N. SPRINGBROOK RD. ,97132,Yes,Yes,"1013 N. SPRINGBROOK RD. , NEWBERG, OR",-122.947303,45.30696
CANNA BROS.,SHERIDAN,YAMHILL,1210 W MAIN ST ,97378,Yes,,"1210 W MAIN ST , SHERIDAN, OR",-123.4182551,45.0975107
POTTONMOUTH RETAIL CANNABIS,SHERIDAN,YAMHILL,950 SE SHERIDAN ROAD ,97378,Yes,Yes,"950 SE SHERIDAN ROAD , SHERIDAN, OR",-123.3817135,45.0939535
